<?xml version="1.0" encoding="UTF-8" standalone="yes"?>
<gpx version="1.1" creator="Phils GPX generator www.haroldstreet.org.uk"
  xmlns="http://www.topografix.com/GPX/1/1"
  xmlns:xsi="http://www.w3.org/2001/XMLSchema-instance"
  xsi:schemaLocation="http://www.topografix.com/GPX/1/1 http://www.topografix.com/GPX/1/1/gpx.xsd">
<wpt lat="56.90042" lon="-4.078177"><ele>875.00</ele><name><![CDATA[A' Chaoirnich (Maol Creag an Loch)]]></name><cmt><![CDATA[A' Chaoirnich (Maol Creag an Loch)]]></cmt><desc><![CDATA[A' Chaoirnich (Maol Creag an Loch)]]></desc><sym>filled circle</sym></wpt>
<wpt lat="56.96563" lon="-6.314678"><ele>781.00</ele><name><![CDATA[Ainshval]]></name><cmt><![CDATA[Ainshval]]></cmt><desc><![CDATA[Ainshval]]></desc><sym>filled circle</sym></wpt>
<wpt lat="57.179255" lon="-5.189141"><ele>798.10</ele><name><![CDATA[Am Bathach]]></name><cmt><![CDATA[Am Bathach]]></cmt><desc><![CDATA[Am Bathach]]></desc><sym>filled circle</sym></wpt>
<wpt lat="57.963689" lon="-6.812548"><ele>799.00</ele><name><![CDATA[An Cliseam (Clisham)]]></name><cmt><![CDATA[An Cliseam (Clisham)]]></cmt><desc><![CDATA[An Cliseam (Clisham)]]></desc><sym>filled circle</sym></wpt>
<wpt lat="56.894797" lon="-4.108635"><ele>827.40</ele><name><![CDATA[An Dun]]></name><cmt><![CDATA[An Dun]]></cmt><desc><![CDATA[An Dun]]></desc><sym>filled circle</sym></wpt>
<wpt lat="57.474982" lon="-5.46827"><ele>890.40</ele><name><![CDATA[An Ruadh-Stac]]></name><cmt><![CDATA[An Ruadh-Stac]]></cmt><desc><![CDATA[An Ruadh-Stac]]></desc><sym>filled circle</sym></wpt>
<wpt lat="57.46181" lon="-5.050778"><ele>814.00</ele><name><![CDATA[An Sithean (An Sidhean)]]></name><cmt><![CDATA[An Sithean (An Sidhean)]]></cmt><desc><![CDATA[An Sithean (An Sidhean)]]></desc><sym>filled circle</sym></wpt>
<wpt lat="56.850883" lon="-5.67052"><ele>814.00</ele><name><![CDATA[An Stac]]></name><cmt><![CDATA[An Stac]]></cmt><desc><![CDATA[An Stac]]></desc><sym>filled circle</sym></wpt>
<wpt lat="57.341161" lon="-5.229309"><ele>899.00</ele><name><![CDATA[Aonach Buidhe]]></name><cmt><![CDATA[Aonach Buidhe]]></cmt><desc><![CDATA[Aonach Buidhe]]></desc><sym>filled circle</sym></wpt>
<wpt lat="57.216381" lon="-5.026852"><ele>888.00</ele><name><![CDATA[Aonach Shasuinn]]></name><cmt><![CDATA[Aonach Shasuinn]]></cmt><desc><![CDATA[Aonach Shasuinn]]></desc><sym>filled circle</sym></wpt>
<wpt lat="58.371062" lon="-4.903644"><ele>787.00</ele><name><![CDATA[Arkle]]></name><cmt><![CDATA[Arkle]]></cmt><desc><![CDATA[Arkle]]></desc><sym>filled circle</sym></wpt>
<wpt lat="56.974433" lon="-6.291504"><ele>812.00</ele><name><![CDATA[Askival]]></name><cmt><![CDATA[Askival]]></cmt><desc><![CDATA[Askival]]></desc><sym>filled circle</sym></wpt>
<wpt lat="56.454346" lon="-3.934667"><ele>789.00</ele><name><![CDATA[Auchnafree Hill]]></name><cmt><![CDATA[Auchnafree Hill]]></cmt><desc><![CDATA[Auchnafree Hill]]></desc><sym>filled circle</sym></wpt>
<wpt lat="57.495759" lon="-4.968274"><ele>849.00</ele><name><![CDATA[Bac an Eich]]></name><cmt><![CDATA[Bac an Eich]]></cmt><desc><![CDATA[Bac an Eich]]></desc><sym>filled circle</sym></wpt>
<wpt lat="57.628246" lon="-5.568633"><ele>875.00</ele><name><![CDATA[Baosbheinn]]></name><cmt><![CDATA[Baosbheinn]]></cmt><desc><![CDATA[Baosbheinn]]></desc><sym>filled circle</sym></wpt>
<wpt lat="57.451935" lon="-4.733922"><ele>862.00</ele><name><![CDATA[Beinn a' Bhathaich Ard (Beinn a' Bha' ach Ard)]]></name><cmt><![CDATA[Beinn a' Bhathaich Ard (Beinn a' Bha' ach Ard)]]></cmt><desc><![CDATA[Beinn a' Bhathaich Ard (Beinn a' Bha' ach Ard)]]></desc><sym>filled circle</sym></wpt>
<wpt lat="56.408911" lon="-5.09044"><ele>897.00</ele><name><![CDATA[Beinn a' Bhuiridh]]></name><cmt><![CDATA[Beinn a' Bhuiridh]]></cmt><desc><![CDATA[Beinn a' Bhuiridh]]></desc><sym>filled circle</sym></wpt>
<wpt lat="57.751165" lon="-5.39209"><ele>856.00</ele><name><![CDATA[Beinn a' Chaisgein Mor]]></name><cmt><![CDATA[Beinn a' Chaisgein Mor]]></cmt><desc><![CDATA[Beinn a' Chaisgein Mor]]></desc><sym>filled circle</sym></wpt>
<wpt lat="56.490614" lon="-4.686104"><ele>886.00</ele><name><![CDATA[Beinn a' Chaisteil - Auch]]></name><cmt><![CDATA[Beinn a' Chaisteil]]></cmt><desc><![CDATA[Beinn a' Chaisteil - Auch]]></desc><sym>filled circle</sym></wpt>
<wpt lat="57.78092" lon="-4.742993"><ele>787.00</ele><name><![CDATA[Beinn a' Chaisteil - Strath Vaich]]></name><cmt><![CDATA[Beinn a' Chaisteil]]></cmt><desc><![CDATA[Beinn a' Chaisteil - Strath Vaich]]></desc><sym>filled circle</sym></wpt>
<wpt lat="57.745922" lon="-5.259066"><ele>914.00</ele><name><![CDATA[Beinn a' Chlaidheimh]]></name><cmt><![CDATA[Beinn a' Chlaidheimh]]></cmt><desc><![CDATA[Beinn a' Chlaidheimh]]></desc><sym>filled circle</sym></wpt>
<wpt lat="56.281081" lon="-4.659947"><ele>768.70</ele><name><![CDATA[Beinn a' Choin]]></name><cmt><![CDATA[Beinn a' Choin]]></cmt><desc><![CDATA[Beinn a' Choin]]></desc><sym>filled circle</sym></wpt>
<wpt lat="56.668905" lon="-4.863529"><ele>857.00</ele><name><![CDATA[Beinn a' Chrulaiste]]></name><cmt><![CDATA[Beinn a' Chrulaiste]]></cmt><desc><![CDATA[Beinn a' Chrulaiste]]></desc><sym>filled circle</sym></wpt>
<wpt lat="56.729024" lon="-4.151523"><ele>892.00</ele><name><![CDATA[Beinn a' Chuallaich]]></name><cmt><![CDATA[Beinn a' Chuallaich]]></cmt><desc><![CDATA[Beinn a' Chuallaich]]></desc><sym>filled circle</sym></wpt>
<wpt lat="57.727557" lon="-5.477609"><ele>792.00</ele><name><![CDATA[Beinn Airigh Charr]]></name><cmt><![CDATA[Beinn Airigh Charr]]></cmt><desc><![CDATA[Beinn Airigh Charr]]></desc><sym>filled circle</sym></wpt>
<wpt lat="57.622829" lon="-5.509791"><ele>855.00</ele><name><![CDATA[Beinn an Eoin]]></name><cmt><![CDATA[Beinn an Eoin]]></cmt><desc><![CDATA[Beinn an Eoin]]></desc><sym>filled circle</sym></wpt>
<wpt lat="56.230085" lon="-4.876243"><ele>901.70</ele><name><![CDATA[Beinn an Lochain]]></name><cmt><![CDATA[Beinn an Lochain]]></cmt><desc><![CDATA[Beinn an Lochain]]></desc><sym>filled circle</sym></wpt>
<wpt lat="55.902396" lon="-6.004137"><ele>785.00</ele><name><![CDATA[Beinn an Oir]]></name><cmt><![CDATA[Beinn an Oir]]></cmt><desc><![CDATA[Beinn an Oir]]></desc><sym>filled circle</sym></wpt>
<wpt lat="57.442348" lon="-5.661686"><ele>896.00</ele><name><![CDATA[Beinn Bhan - Applecross]]></name><cmt><![CDATA[Beinn Bhan]]></cmt><desc><![CDATA[Beinn Bhan - Applecross]]></desc><sym>filled circle</sym></wpt>
<wpt lat="56.925252" lon="-5.056842"><ele>796.00</ele><name><![CDATA[Beinn Bhan - Great Glen]]></name><cmt><![CDATA[Beinn Bhan]]></cmt><desc><![CDATA[Beinn Bhan - Great Glen]]></desc><sym>filled circle</sym></wpt>
<wpt lat="56.141833" lon="-4.971465"><ele>779.00</ele><name><![CDATA[Beinn Bheula]]></name><cmt><![CDATA[Beinn Bheula]]></cmt><desc><![CDATA[Beinn Bheula]]></desc><sym>filled circle</sym></wpt>
<wpt lat="56.916127" lon="-3.86034"><ele>912.40</ele><name><![CDATA[Beinn Bhreac]]></name><cmt><![CDATA[Beinn Bhreac]]></cmt><desc><![CDATA[Beinn Bhreac]]></desc><sym>filled circle</sym></wpt>
<wpt lat="56.466716" lon="-4.756524"><ele>802.00</ele><name><![CDATA[Beinn Bhreac-liath]]></name><cmt><![CDATA[Beinn Bhreac-liath]]></cmt><desc><![CDATA[Beinn Bhreac-liath]]></desc><sym>filled circle</sym></wpt>
<wpt lat="57.010102" lon="-5.589145"><ele>855.00</ele><name><![CDATA[Beinn Bhuidhe]]></name><cmt><![CDATA[Beinn Bhuidhe]]></cmt><desc><![CDATA[Beinn Bhuidhe]]></desc><sym>filled circle</sym></wpt>
<wpt lat="56.458893" lon="-4.664935"><ele>818.00</ele><name><![CDATA[Beinn Chaorach]]></name><cmt><![CDATA[Beinn Chaorach]]></cmt><desc><![CDATA[Beinn Chaorach]]></desc><sym>filled circle</sym></wpt>
<wpt lat="56.423887" lon="-4.789867"><ele>880.00</ele><name><![CDATA[Beinn Chuirn]]></name><cmt><![CDATA[Beinn Chuirn]]></cmt><desc><![CDATA[Beinn Chuirn]]></desc><sym>filled circle</sym></wpt>
<wpt lat="57.492846" lon="-5.518149"><ele>903.00</ele><name><![CDATA[Beinn Damh]]></name><cmt><![CDATA[Beinn Damh]]></cmt><desc><![CDATA[Beinn Damh]]></desc><sym>filled circle</sym></wpt>
<wpt lat="57.588186" lon="-5.522872"><ele>913.70</ele><name><![CDATA[Beinn Dearg - Torridon]]></name><cmt><![CDATA[Beinn Dearg]]></cmt><desc><![CDATA[Beinn Dearg - Torridon]]></desc><sym>filled circle</sym></wpt>
<wpt lat="56.618921" lon="-4.268971"><ele>830.00</ele><name><![CDATA[Beinn Dearg - Glen Lyon]]></name><cmt><![CDATA[Beinn Dearg]]></cmt><desc><![CDATA[Beinn Dearg - Glen Lyon]]></desc><sym>filled circle</sym></wpt>
<wpt lat="57.775977" lon="-5.331425"><ele>820.00</ele><name><![CDATA[Beinn Dearg Bheag]]></name><cmt><![CDATA[Beinn Dearg Bheag]]></cmt><desc><![CDATA[Beinn Dearg Bheag]]></desc><sym>filled circle</sym></wpt>
<wpt lat="57.765796" lon="-5.309938"><ele>906.30</ele><name><![CDATA[Beinn Dearg Mor]]></name><cmt><![CDATA[Beinn Dearg Mor]]></cmt><desc><![CDATA[Beinn Dearg Mor]]></desc><sym>filled circle</sym></wpt>
<wpt lat="57.391571" lon="-5.267939"><ele>797.00</ele><name><![CDATA[Beinn Dronaig]]></name><cmt><![CDATA[Beinn Dronaig]]></cmt><desc><![CDATA[Beinn Dronaig]]></desc><sym>filled circle</sym></wpt>
<wpt lat="56.313957" lon="-4.262183"><ele>813.00</ele><name><![CDATA[Beinn Each]]></name><cmt><![CDATA[Beinn Each]]></cmt><desc><![CDATA[Beinn Each]]></desc><sym>filled circle</sym></wpt>
<wpt lat="57.779101" lon="-4.986727"><ele>890.00</ele><name><![CDATA[Beinn Enaiglair]]></name><cmt><![CDATA[Beinn Enaiglair]]></cmt><desc><![CDATA[Beinn Enaiglair]]></desc><sym>filled circle</sym></wpt>
<wpt lat="56.970146" lon="-4.803152"><ele>805.00</ele><name><![CDATA[Beinn Iaruinn]]></name><cmt><![CDATA[Beinn Iaruinn]]></cmt><desc><![CDATA[Beinn Iaruinn]]></desc><sym>filled circle</sym></wpt>
<wpt lat="57.703843" lon="-5.389205"><ele>859.00</ele><name><![CDATA[Beinn Lair]]></name><cmt><![CDATA[Beinn Lair]]></cmt><desc><![CDATA[Beinn Lair]]></desc><sym>filled circle</sym></wpt>
<wpt lat="58.222023" lon="-4.861613"><ele>792.00</ele><name><![CDATA[Beinn Leoid]]></name><cmt><![CDATA[Beinn Leoid]]></cmt><desc><![CDATA[Beinn Leoid]]></desc><sym>filled circle</sym></wpt>
<wpt lat="57.698655" lon="-4.886379"><ele>766.00</ele><name><![CDATA[Beinn Liath Mhor a' Ghiubhais Li (Beinn Liath Mhor a' Ghiuthais)]]></name><cmt><![CDATA[Beinn Liath Mhor a' Ghiubhais Li (Beinn Liath Mhor a' Ghiuthais)]]></cmt><desc><![CDATA[Beinn Liath Mhor a' Ghiubhais Li (Beinn Liath Mhor a' Ghiuthais)]]></desc><sym>filled circle</sym></wpt>
<wpt lat="56.23124" lon="-4.83634"><ele>859.70</ele><name><![CDATA[Beinn Luibhean]]></name><cmt><![CDATA[Beinn Luibhean]]></cmt><desc><![CDATA[Beinn Luibhean]]></desc><sym>filled circle</sym></wpt>
<wpt lat="56.627862" lon="-5.041937"><ele>906.30</ele><name><![CDATA[Beinn Maol Chaluim]]></name><cmt><![CDATA[Beinn Maol Chaluim]]></cmt><desc><![CDATA[Beinn Maol Chaluim]]></desc><sym>filled circle</sym></wpt>
<wpt lat="56.860948" lon="-3.838457"><ele>900.80</ele><name><![CDATA[Beinn Mheadhonach]]></name><cmt><![CDATA[Beinn Mheadhonach]]></cmt><desc><![CDATA[Beinn Mheadhonach]]></desc><sym>filled circle</sym></wpt>
<wpt lat="56.849855" lon="-5.563058"><ele>783.00</ele><name><![CDATA[Beinn Mhic Cedidh]]></name><cmt><![CDATA[Beinn Mhic Cedidh]]></cmt><desc><![CDATA[Beinn Mhic Cedidh]]></desc><sym>filled circle</sym></wpt>
<wpt lat="56.610061" lon="-4.899477"><ele>864.00</ele><name><![CDATA[Beinn Mhic Chasgaig]]></name><cmt><![CDATA[Beinn Mhic Chasgaig]]></cmt><desc><![CDATA[Beinn Mhic Chasgaig]]></desc><sym>filled circle</sym></wpt>
<wpt lat="56.473069" lon="-4.909741"><ele>796.00</ele><name><![CDATA[Beinn Mhic Mhonaidh]]></name><cmt><![CDATA[Beinn Mhic Mhonaidh]]></cmt><desc><![CDATA[Beinn Mhic Mhonaidh]]></desc><sym>filled circle</sym></wpt>
<wpt lat="56.759525" lon="-4.3121"><ele>841.70</ele><name><![CDATA[Beinn Mholach]]></name><cmt><![CDATA[Beinn Mholach]]></cmt><desc><![CDATA[Beinn Mholach]]></desc><sym>filled circle</sym></wpt>
<wpt lat="57.098269" lon="-5.640339"><ele>785.00</ele><name><![CDATA[Beinn na Caillich]]></name><cmt><![CDATA[Beinn na Caillich]]></cmt><desc><![CDATA[Beinn na Caillich]]></desc><sym>filled circle</sym></wpt>
<wpt lat="57.148629" lon="-5.548692"><ele>805.00</ele><name><![CDATA[Beinn na h-Eaglaise]]></name><cmt><![CDATA[Beinn na h-Eaglaise]]></cmt><desc><![CDATA[Beinn na h-Eaglaise]]></desc><sym>filled circle</sym></wpt>
<wpt lat="56.742777" lon="-5.407524"><ele>762.40</ele><name><![CDATA[Beinn na h-Uamha]]></name><cmt><![CDATA[Beinn na h-Uamha]]></cmt><desc><![CDATA[Beinn na h-Uamha]]></desc><sym>filled circle</sym></wpt>
<wpt lat="56.507155" lon="-4.664664"><ele>806.00</ele><name><![CDATA[Beinn nam Fuaran]]></name><cmt><![CDATA[Beinn nam Fuaran]]></cmt><desc><![CDATA[Beinn nam Fuaran]]></desc><sym>filled circle</sym></wpt>
<wpt lat="57.150469" lon="-5.520434"><ele>774.00</ele><name><![CDATA[Beinn nan Caorach]]></name><cmt><![CDATA[Beinn nan Caorach]]></cmt><desc><![CDATA[Beinn nan Caorach]]></desc><sym>filled circle</sym></wpt>
<wpt lat="56.44413" lon="-4.565842"><ele>849.00</ele><name><![CDATA[Beinn nan Imirean]]></name><cmt><![CDATA[Beinn nan Imirean]]></cmt><desc><![CDATA[Beinn nan Imirean]]></desc><sym>filled circle</sym></wpt>
<wpt lat="56.540091" lon="-4.373237"><ele>909.60</ele><name><![CDATA[Beinn nan Oighreag]]></name><cmt><![CDATA[Beinn nan Oighreag]]></cmt><desc><![CDATA[Beinn nan Oighreag]]></desc><sym>filled circle</sym></wpt>
<wpt lat="56.467662" lon="-4.700443"><ele>900.80</ele><name><![CDATA[Beinn Odhar]]></name><cmt><![CDATA[Beinn Odhar]]></cmt><desc><![CDATA[Beinn Odhar]]></desc><sym>filled circle</sym></wpt>
<wpt lat="56.842204" lon="-5.532392"><ele>883.30</ele><name><![CDATA[Beinn Odhar Bheag]]></name><cmt><![CDATA[Beinn Odhar Bheag]]></cmt><desc><![CDATA[Beinn Odhar Bheag]]></desc><sym>filled circle</sym></wpt>
<wpt lat="56.743615" lon="-4.538979"><ele>867.30</ele><name><![CDATA[Beinn Pharlagain-Meall na Meoig (Meall na Meoig)]]></name><cmt><![CDATA[Beinn Pharlagain-Meall na Meoig (Meall na Meoig)]]></cmt><desc><![CDATA[Beinn Pharlagain-Meall na Meoig (Meall na Meoig)]]></desc><sym>filled circle</sym></wpt>
<wpt lat="56.727189" lon="-5.652605"><ele>845.00</ele><name><![CDATA[Beinn Resipol]]></name><cmt><![CDATA[Beinn Resipol]]></cmt><desc><![CDATA[Beinn Resipol]]></desc><sym>filled circle</sym></wpt>
<wpt lat="58.473042" lon="-4.810504"><ele>773.00</ele><name><![CDATA[Beinn Spionnaidh]]></name><cmt><![CDATA[Beinn Spionnaidh]]></cmt><desc><![CDATA[Beinn Spionnaidh]]></desc><sym>filled circle</sym></wpt>
<wpt lat="56.314724" lon="-4.468098"><ele>771.80</ele><name><![CDATA[Beinn Stacach (Ceann na Baintighearna) (Stob Fear-tomhais) (Beinn Stacath)]]></name><cmt><![CDATA[Beinn Stacach (Ceann na Baintighearna) (Stob Fear-tomhais) (Beinn Stacath)]]></cmt><desc><![CDATA[Beinn Stacach (Ceann na Baintighearna) (Stob Fear-tomhais) (Beinn Stacath)]]></desc><sym>filled circle</sym></wpt>
<wpt lat="55.621483" lon="-5.242083"><ele>826.00</ele><name><![CDATA[Beinn Tarsuinn]]></name><cmt><![CDATA[Beinn Tarsuinn]]></cmt><desc><![CDATA[Beinn Tarsuinn]]></desc><sym>filled circle</sym></wpt>
<wpt lat="57.438671" lon="-5.241954"><ele>863.00</ele><name><![CDATA[Beinn Tharsuinn]]></name><cmt><![CDATA[Beinn Tharsuinn]]></cmt><desc><![CDATA[Beinn Tharsuinn]]></desc><sym>filled circle</sym></wpt>
<wpt lat="56.547978" lon="-5.114433"><ele>840.00</ele><name><![CDATA[Beinn Trilleachan]]></name><cmt><![CDATA[Beinn Trilleachan]]></cmt><desc><![CDATA[Beinn Trilleachan]]></desc><sym>filled circle</sym></wpt>
<wpt lat="56.458886" lon="-4.791931"><ele>840.00</ele><name><![CDATA[Beinn Udlaidh]]></name><cmt><![CDATA[Beinn Udlaidh]]></cmt><desc><![CDATA[Beinn Udlaidh]]></desc><sym>filled circle</sym></wpt>
<wpt lat="57.030736" lon="-5.463143"><ele>887.00</ele><name><![CDATA[Ben Aden (Beinn an Aodainn)]]></name><cmt><![CDATA[Ben Aden (Beinn an Aodainn)]]></cmt><desc><![CDATA[Ben Aden (Beinn an Aodainn)]]></desc><sym>filled circle</sym></wpt>
<wpt lat="56.197928" lon="-4.873286"><ele>847.00</ele><name><![CDATA[Ben Donich]]></name><cmt><![CDATA[Ben Donich]]></cmt><desc><![CDATA[Ben Donich]]></desc><sym>filled circle</sym></wpt>
<wpt lat="56.83265" lon="-3.475886"><ele>806.00</ele><name><![CDATA[Ben Gulabin]]></name><cmt><![CDATA[Ben Gulabin]]></cmt><desc><![CDATA[Ben Gulabin]]></desc><sym>filled circle</sym></wpt>
<wpt lat="58.265889" lon="-4.68391"><ele>873.00</ele><name><![CDATA[Ben Hee]]></name><cmt><![CDATA[Ben Hee]]></cmt><desc><![CDATA[Ben Hee]]></desc><sym>filled circle</sym></wpt>
<wpt lat="56.258659" lon="-4.322375"><ele>879.00</ele><name><![CDATA[Ben Ledi]]></name><cmt><![CDATA[Ben Ledi]]></cmt><desc><![CDATA[Ben Ledi]]></desc><sym>filled circle</sym></wpt>
<wpt lat="58.404926" lon="-4.435027"><ele>764.20</ele><name><![CDATA[Ben Loyal-An Caisteal]]></name><cmt><![CDATA[Ben Loyal-An Caisteal]]></cmt><desc><![CDATA[Ben Loyal-An Caisteal]]></desc><sym>filled circle</sym></wpt>
<wpt lat="57.403275" lon="-3.241496"><ele>841.00</ele><name><![CDATA[Ben Rinnes]]></name><cmt><![CDATA[Ben Rinnes]]></cmt><desc><![CDATA[Ben Rinnes]]></desc><sym>filled circle</sym></wpt>
<wpt lat="57.03223" lon="-4.900714"><ele>904.00</ele><name><![CDATA[Ben Tee]]></name><cmt><![CDATA[Ben Tee]]></cmt><desc><![CDATA[Ben Tee]]></desc><sym>filled circle</sym></wpt>
<wpt lat="56.858703" lon="-3.029169"><ele>896.00</ele><name><![CDATA[Ben Tirran]]></name><cmt><![CDATA[Ben Tirran]]></cmt><desc><![CDATA[Ben Tirran]]></desc><sym>filled circle</sym></wpt>
<wpt lat="56.748956" lon="-3.717273"><ele>842.00</ele><name><![CDATA[Ben Vrackie]]></name><cmt><![CDATA[Ben Vrackie]]></cmt><desc><![CDATA[Ben Vrackie]]></desc><sym>filled circle</sym></wpt>
<wpt lat="56.810737" lon="-3.644008"><ele>903.00</ele><name><![CDATA[Ben Vuirich]]></name><cmt><![CDATA[Ben Vuirich]]></cmt><desc><![CDATA[Ben Vuirich]]></desc><sym>filled circle</sym></wpt>
<wpt lat="56.293295" lon="-4.368435"><ele>821.00</ele><name><![CDATA[Benvane]]></name><cmt><![CDATA[Benvane]]></cmt><desc><![CDATA[Benvane]]></desc><sym>filled circle</sym></wpt>
<wpt lat="56.980354" lon="-5.475517"><ele>867.50</ele><name><![CDATA[Bidein a' Chabair]]></name><cmt><![CDATA[Bidein a' Chabair]]></cmt><desc><![CDATA[Bidein a' Chabair]]></desc><sym>filled circle</sym></wpt>
<wpt lat="56.92688" lon="-5.32867"><ele>765.00</ele><name><![CDATA[Braigh nan Uamhachan]]></name><cmt><![CDATA[Braigh nan Uamhachan]]></cmt><desc><![CDATA[Braigh nan Uamhachan]]></desc><sym>filled circle</sym></wpt>
<wpt lat="58.097366" lon="-4.908543"><ele>815.00</ele><name><![CDATA[Breabag]]></name><cmt><![CDATA[Breabag]]></cmt><desc><![CDATA[Breabag]]></desc><sym>filled circle</sym></wpt>
<wpt lat="55.498134" lon="-3.352731"><ele>840.10</ele><name><![CDATA[Broad Law]]></name><cmt><![CDATA[Broad Law]]></cmt><desc><![CDATA[Broad Law]]></desc><sym>filled circle</sym></wpt>
<wpt lat="57.124393" lon="-3.288228"><ele>829.00</ele><name><![CDATA[Brown Cow Hill]]></name><cmt><![CDATA[Brown Cow Hill]]></cmt><desc><![CDATA[Brown Cow Hill]]></desc><sym>filled circle</sym></wpt>
<wpt lat="57.127133" lon="-5.366446"><ele>885.50</ele><name><![CDATA[Buidhe Bheinn]]></name><cmt><![CDATA[Buidhe Bheinn]]></cmt><desc><![CDATA[Buidhe Bheinn]]></desc><sym>filled circle</sym></wpt>
<wpt lat="55.256099" lon="-4.213134"><ele>797.00</ele><name><![CDATA[Cairnsmore of Carsphairn]]></name><cmt><![CDATA[Cairnsmore of Carsphairn]]></cmt><desc><![CDATA[Cairnsmore of Carsphairn]]></desc><sym>filled circle</sym></wpt>
<wpt lat="55.649863" lon="-5.229293"><ele>859.00</ele><name><![CDATA[Caisteal Abhail]]></name><cmt><![CDATA[Caisteal Abhail]]></cmt><desc><![CDATA[Caisteal Abhail]]></desc><sym>filled circle</sym></wpt>
<wpt lat="56.476028" lon="-4.639111"><ele>884.00</ele><name><![CDATA[Cam Chreag - Auch]]></name><cmt><![CDATA[Cam Chreag]]></cmt><desc><![CDATA[Cam Chreag - Auch]]></desc><sym>filled circle</sym></wpt>
<wpt lat="56.611086" lon="-4.385627"><ele>862.00</ele><name><![CDATA[Cam Chreag - Glen Lyon]]></name><cmt><![CDATA[Cam Chreag]]></cmt><desc><![CDATA[Cam Chreag - Glen Lyon]]></desc><sym>filled circle</sym></wpt>
<wpt lat="58.120906" lon="-5.052849"><ele>847.00</ele><name><![CDATA[Canisp]]></name><cmt><![CDATA[Canisp]]></cmt><desc><![CDATA[Canisp]]></desc><sym>filled circle</sym></wpt>
<wpt lat="57.222594" lon="-5.087627"><ele>865.00</ele><name><![CDATA[Carn a' Choire Ghairbh]]></name><cmt><![CDATA[Carn a' Choire Ghairbh]]></cmt><desc><![CDATA[Carn a' Choire Ghairbh]]></desc><sym>filled circle</sym></wpt>
<wpt lat="57.094268" lon="-4.614836"><ele>817.00</ele><name><![CDATA[Carn a' Chuilinn]]></name><cmt><![CDATA[Carn a' Chuilinn]]></cmt><desc><![CDATA[Carn a' Chuilinn]]></desc><sym>filled circle</sym></wpt>
<wpt lat="57.137355" lon="-4.107357"><ele>878.00</ele><name><![CDATA[Carn an Fhreiceadain]]></name><cmt><![CDATA[Carn an Fhreiceadain]]></cmt><desc><![CDATA[Carn an Fhreiceadain]]></desc><sym>filled circle</sym></wpt>
<wpt lat="57.846772" lon="-4.801042"><ele>842.00</ele><name><![CDATA[Carn Ban]]></name><cmt><![CDATA[Carn Ban]]></cmt><desc><![CDATA[Carn Ban]]></desc><sym>filled circle</sym></wpt>
<wpt lat="57.813812" lon="-4.554142"><ele>839.00</ele><name><![CDATA[Carn Chuinneag]]></name><cmt><![CDATA[Carn Chuinneag]]></cmt><desc><![CDATA[Carn Chuinneag]]></desc><sym>filled circle</sym></wpt>
<wpt lat="56.959813" lon="-4.723327"><ele>834.00</ele><name><![CDATA[Carn Dearg - Glen Roy]]></name><cmt><![CDATA[Carn Dearg]]></cmt><desc><![CDATA[Carn Dearg - Glen Roy]]></desc><sym>filled circle</sym></wpt>
<wpt lat="57.031129" lon="-4.720434"><ele>817.00</ele><name><![CDATA[Carn Dearg - North of Gleann Eachach]]></name><cmt><![CDATA[Carn Dearg]]></cmt><desc><![CDATA[Carn Dearg - North of Gleann Eachach]]></desc><sym>filled circle</sym></wpt>
<wpt lat="57.015739" lon="-4.707348"><ele>768.00</ele><name><![CDATA[Carn Dearg - South of Gleann Eachach]]></name><cmt><![CDATA[Carn Dearg]]></cmt><desc><![CDATA[Carn Dearg - South of Gleann Eachach]]></desc><sym>filled circle</sym></wpt>
<wpt lat="56.996805" lon="-3.938649"><ele>857.00</ele><name><![CDATA[Carn Dearg Mor]]></name><cmt><![CDATA[Carn Dearg Mor]]></cmt><desc><![CDATA[Carn Dearg Mor]]></desc><sym>filled circle</sym></wpt>
<wpt lat="57.190254" lon="-3.279515"><ele>792.00</ele><name><![CDATA[Carn Ealasaid]]></name><cmt><![CDATA[Carn Ealasaid]]></cmt><desc><![CDATA[Carn Ealasaid]]></desc><sym>filled circle</sym></wpt>
<wpt lat="56.962009" lon="-5.450735"><ele>829.00</ele><name><![CDATA[Carn Mor - Glen Dessarry]]></name><cmt><![CDATA[Carn Mor]]></cmt><desc><![CDATA[Carn Mor - Glen Dessarry]]></desc><sym>filled circle</sym></wpt>
<wpt lat="57.249877" lon="-3.218483"><ele>804.00</ele><name><![CDATA[Carn Mor - Ladder Hills]]></name><cmt><![CDATA[Carn Mor]]></cmt><desc><![CDATA[Carn Mor - Ladder Hills]]></desc><sym>filled circle</sym></wpt>
<wpt lat="57.027417" lon="-3.439163"><ele>818.00</ele><name><![CDATA[Carn na Drochaide]]></name><cmt><![CDATA[Carn na Drochaide]]></cmt><desc><![CDATA[Carn na Drochaide]]></desc><sym>filled circle</sym></wpt>
<wpt lat="56.772398" lon="-5.460755"><ele>786.00</ele><name><![CDATA[Carn na Nathrach]]></name><cmt><![CDATA[Carn na Nathrach]]></cmt><desc><![CDATA[Carn na Nathrach]]></desc><sym>filled circle</sym></wpt>
<wpt lat="57.198975" lon="-4.320518"><ele>811.10</ele><name><![CDATA[Carn na Saobhaidhe]]></name><cmt><![CDATA[Carn na Saobhaidhe]]></cmt><desc><![CDATA[Carn na Saobhaidhe]]></desc><sym>filled circle</sym></wpt>
<wpt lat="55.639135" lon="-5.222529"><ele>798.10</ele><name><![CDATA[Cir Mhor]]></name><cmt><![CDATA[Cir Mhor]]></cmt><desc><![CDATA[Cir Mhor]]></desc><sym>filled circle</sym></wpt>
<wpt lat="56.16661" lon="-4.846554"><ele>763.50</ele><name><![CDATA[Cnoc Coinnich]]></name><cmt><![CDATA[Cnoc Coinnich]]></cmt><desc><![CDATA[Cnoc Coinnich]]></desc><sym>filled circle</sym></wpt>
<wpt lat="56.964274" lon="-3.186547"><ele>865.00</ele><name><![CDATA[Conachcraig]]></name><cmt><![CDATA[Conachcraig]]></cmt><desc><![CDATA[Conachcraig]]></desc><sym>filled circle</sym></wpt>
<wpt lat="57.344617" lon="-3.196412"><ele>781.00</ele><name><![CDATA[Corryhabbie Hill]]></name><cmt><![CDATA[Corryhabbie Hill]]></cmt><desc><![CDATA[Corryhabbie Hill]]></desc><sym>filled circle</sym></wpt>
<wpt lat="55.155082" lon="-4.359126"><ele>814.00</ele><name><![CDATA[Corserine]]></name><cmt><![CDATA[Corserine]]></cmt><desc><![CDATA[Corserine]]></desc><sym>filled circle</sym></wpt>
<wpt lat="58.457427" lon="-4.828718"><ele>801.00</ele><name><![CDATA[Cranstackie]]></name><cmt><![CDATA[Cranstackie]]></cmt><desc><![CDATA[Cranstackie]]></desc><sym>filled circle</sym></wpt>
<wpt lat="56.661979" lon="-5.476201"><ele>853.00</ele><name><![CDATA[Creach Bheinn - Morvern]]></name><cmt><![CDATA[Creach Bheinn]]></cmt><desc><![CDATA[Creach Bheinn - Morvern]]></desc><sym>filled circle</sym></wpt>
<wpt lat="56.530492" lon="-5.215023"><ele>810.00</ele><name><![CDATA[Creach Bheinn - Loch Creran]]></name><cmt><![CDATA[Creach Bheinn]]></cmt><desc><![CDATA[Creach Bheinn - Loch Creran]]></desc><sym>filled circle</sym></wpt>
<wpt lat="57.066716" lon="-3.391294"><ele>863.00</ele><name><![CDATA[Creag an Dail Bheag]]></name><cmt><![CDATA[Creag an Dail Bheag]]></cmt><desc><![CDATA[Creag an Dail Bheag]]></desc><sym>filled circle</sym></wpt>
<wpt lat="56.399884" lon="-4.358068"><ele>808.60</ele><name><![CDATA[Creag Mac Ranaich]]></name><cmt><![CDATA[Creag Mac Ranaich]]></cmt><desc><![CDATA[Creag Mac Ranaich]]></desc><sym>filled circle</sym></wpt>
<wpt lat="57.124255" lon="-3.558416"><ele>895.00</ele><name><![CDATA[Creag Mhor]]></name><cmt><![CDATA[Creag Mhor]]></cmt><desc><![CDATA[Creag Mhor]]></desc><sym>filled circle</sym></wpt>
<wpt lat="56.940515" lon="-3.391006"><ele>834.00</ele><name><![CDATA[Creag nan Gabhar]]></name><cmt><![CDATA[Creag nan Gabhar]]></cmt><desc><![CDATA[Creag nan Gabhar]]></desc><sym>filled circle</sym></wpt>
<wpt lat="57.725658" lon="-5.199021"><ele>807.00</ele><name><![CDATA[Creag Rainich]]></name><cmt><![CDATA[Creag Rainich]]></cmt><desc><![CDATA[Creag Rainich]]></desc><sym>filled circle</sym></wpt>
<wpt lat="56.465278" lon="-4.098107"><ele>879.00</ele><name><![CDATA[Creag Uchdag]]></name><cmt><![CDATA[Creag Uchdag]]></cmt><desc><![CDATA[Creag Uchdag]]></desc><sym>filled circle</sym></wpt>
<wpt lat="56.506927" lon="-4.041692"><ele>888.00</ele><name><![CDATA[Creagan na Beinne]]></name><cmt><![CDATA[Creagan na Beinne]]></cmt><desc><![CDATA[Creagan na Beinne]]></desc><sym>filled circle</sym></wpt>
<wpt lat="56.84684" lon="-4.821936"><ele>857.00</ele><name><![CDATA[Cruach Innse]]></name><cmt><![CDATA[Cruach Innse]]></cmt><desc><![CDATA[Cruach Innse]]></desc><sym>filled circle</sym></wpt>
<wpt lat="58.029554" lon="-5.150995"><ele>769.40</ele><name><![CDATA[Cul Beag]]></name><cmt><![CDATA[Cul Beag]]></cmt><desc><![CDATA[Cul Beag]]></desc><sym>filled circle</sym></wpt>
<wpt lat="58.058124" lon="-5.116768"><ele>849.00</ele><name><![CDATA[Cul Mor]]></name><cmt><![CDATA[Cul Mor]]></cmt><desc><![CDATA[Cul Mor]]></desc><sym>filled circle</sym></wpt>
<wpt lat="57.073355" lon="-3.331871"><ele>900.00</ele><name><![CDATA[Culardoch]]></name><cmt><![CDATA[Culardoch]]></cmt><desc><![CDATA[Culardoch]]></desc><sym>filled circle</sym></wpt>
<wpt lat="57.122035" lon="-5.089277"><ele>789.00</ele><name><![CDATA[Druim nan Cnamh (Beinn Loinne)]]></name><cmt><![CDATA[Druim nan Cnamh (Beinn Loinne)]]></cmt><desc><![CDATA[Druim nan Cnamh (Beinn Loinne)]]></desc><sym>filled circle</sym></wpt>
<wpt lat="56.797506" lon="-5.482126"><ele>770.00</ele><name><![CDATA[Druim Tarsuinn (Stob a' Bhealach an Sgriodain)]]></name><cmt><![CDATA[Druim Tarsuinn (Stob a' Bhealach an Sgriodain)]]></cmt><desc><![CDATA[Druim Tarsuinn (Stob a' Bhealach an Sgriodain)]]></desc><sym>filled circle</sym></wpt>
<wpt lat="56.460438" lon="-5.779508"><ele>766.00</ele><name><![CDATA[Dun da Ghaoithe]]></name><cmt><![CDATA[Dun da Ghaoithe]]></cmt><desc><![CDATA[Dun da Ghaoithe]]></desc><sym>filled circle</sym></wpt>
<wpt lat="57.332915" lon="-5.288039"><ele>868.00</ele><name><![CDATA[Faochaig]]></name><cmt><![CDATA[Faochaig]]></cmt><desc><![CDATA[Faochaig]]></desc><sym>filled circle</sym></wpt>
<wpt lat="56.675063" lon="-3.894208"><ele>782.40</ele><name><![CDATA[Farragon Hill]]></name><cmt><![CDATA[Farragon Hill]]></cmt><desc><![CDATA[Farragon Hill]]></desc><sym>filled circle</sym></wpt>
<wpt lat="58.41206" lon="-4.885699"><ele>911.10</ele><name><![CDATA[Foinaven (Foinne Bhein)-Ganu Mor]]></name><cmt><![CDATA[Foinaven (Foinne Bhein)-Ganu Mor]]></cmt><desc><![CDATA[Foinaven (Foinne Bhein)-Ganu Mor]]></desc><sym>filled circle</sym></wpt>
<wpt lat="56.993464" lon="-5.316913"><ele>857.30</ele><name><![CDATA[Fraoch Bheinn]]></name><cmt><![CDATA[Fraoch Bheinn]]></cmt><desc><![CDATA[Fraoch Bheinn]]></desc><sym>filled circle</sym></wpt>
<wpt lat="56.615678" lon="-5.213625"><ele>879.00</ele><name><![CDATA[Fraochaidh]]></name><cmt><![CDATA[Fraochaidh]]></cmt><desc><![CDATA[Fraochaidh]]></desc><sym>filled circle</sym></wpt>
<wpt lat="56.649493" lon="-5.503072"><ele>766.00</ele><name><![CDATA[Fuar Bheinn]]></name><cmt><![CDATA[Fuar Bheinn]]></cmt><desc><![CDATA[Fuar Bheinn]]></desc><sym>filled circle</sym></wpt>
<wpt lat="57.485376" lon="-5.379188"><ele>907.00</ele><name><![CDATA[Fuar Tholl]]></name><cmt><![CDATA[Fuar Tholl]]></cmt><desc><![CDATA[Fuar Tholl]]></desc><sym>filled circle</sym></wpt>
<wpt lat="57.051985" lon="-4.539681"><ele>895.50</ele><name><![CDATA[Gairbeinn]]></name><cmt><![CDATA[Gairbeinn]]></cmt><desc><![CDATA[Gairbeinn]]></desc><sym>filled circle</sym></wpt>
<wpt lat="56.704449" lon="-5.425008"><ele>885.00</ele><name><![CDATA[Garbh Bheinn - Ardgour]]></name><cmt><![CDATA[Garbh Bheinn]]></cmt><desc><![CDATA[Garbh Bheinn - Ardgour]]></desc><sym>filled circle</sym></wpt>
<wpt lat="56.696584" lon="-4.991428"><ele>867.00</ele><name><![CDATA[Garbh Bheinn - Loch Leven]]></name><cmt><![CDATA[Garbh Bheinn]]></cmt><desc><![CDATA[Garbh Bheinn - Loch Leven]]></desc><sym>filled circle</sym></wpt>
<wpt lat="57.233105" lon="-6.092474"><ele>808.00</ele><name><![CDATA[Garbh-bheinn]]></name><cmt><![CDATA[Garbh-bheinn]]></cmt><desc><![CDATA[Garbh-bheinn]]></desc><sym>filled circle</sym></wpt>
<wpt lat="57.196016" lon="-3.506737"><ele>821.00</ele><name><![CDATA[Geal Charn - Dorback]]></name><cmt><![CDATA[Geal Charn]]></cmt><desc><![CDATA[Geal Charn - Dorback]]></desc><sym>filled circle</sym></wpt>
<wpt lat="57.002612" lon="-5.037526"><ele>804.00</ele><name><![CDATA[Geal Charn - Arkaig]]></name><cmt><![CDATA[Geal Charn]]></cmt><desc><![CDATA[Geal Charn - Arkaig]]></desc><sym>filled circle</sym></wpt>
<wpt lat="57.186945" lon="-3.926922"><ele>824.00</ele><name><![CDATA[Geal-charn Mor]]></name><cmt><![CDATA[Geal-charn Mor]]></cmt><desc><![CDATA[Geal-charn Mor]]></desc><sym>filled circle</sym></wpt>
<wpt lat="57.292709" lon="-6.128399"><ele>775.00</ele><name><![CDATA[Glamaig-Sgurr Mhairi]]></name><cmt><![CDATA[Glamaig-Sgurr Mhairi]]></cmt><desc><![CDATA[Glamaig-Sgurr Mhairi]]></desc><sym>filled circle</sym></wpt>
<wpt lat="56.736083" lon="-4.847886"><ele>792.00</ele><name><![CDATA[Glas Bheinn - Kinlochleven]]></name><cmt><![CDATA[Glas Bheinn]]></cmt><desc><![CDATA[Glas Bheinn - Kinlochleven]]></desc><sym>filled circle</sym></wpt>
<wpt lat="58.19268" lon="-4.970573"><ele>776.00</ele><name><![CDATA[Glas Bheinn - Assynt]]></name><cmt><![CDATA[Glas Bheinn]]></cmt><desc><![CDATA[Glas Bheinn - Assynt]]></desc><sym>filled circle</sym></wpt>
<wpt lat="55.625849" lon="-5.191883"><ele>875.00</ele><name><![CDATA[Goatfell (Goat Fell)]]></name><cmt><![CDATA[Goatfell (Goat Fell)]]></cmt><desc><![CDATA[Goatfell (Goat Fell)]]></desc><sym>filled circle</sym></wpt>
<wpt lat="55.408052" lon="-3.401411"><ele>808.00</ele><name><![CDATA[Hart Fell]]></name><cmt><![CDATA[Hart Fell]]></cmt><desc><![CDATA[Hart Fell]]></desc><sym>filled circle</sym></wpt>
<wpt lat="56.948651" lon="-3.938647"><ele>911.70</ele><name><![CDATA[Leathad an Taobhain]]></name><cmt><![CDATA[Leathad an Taobhain]]></cmt><desc><![CDATA[Leathad an Taobhain]]></desc><sym>filled circle</sym></wpt>
<wpt lat="56.73893" lon="-4.730756"><ele>906.40</ele><name><![CDATA[Leum Uilleim]]></name><cmt><![CDATA[Leum Uilleim]]></cmt><desc><![CDATA[Leum Uilleim]]></desc><sym>filled circle</sym></wpt>
<wpt lat="57.642775" lon="-4.632641"><ele>763.00</ele><name><![CDATA[Little Wyvis]]></name><cmt><![CDATA[Little Wyvis]]></cmt><desc><![CDATA[Little Wyvis]]></desc><sym>filled circle</sym></wpt>
<wpt lat="56.716426" lon="-5.081569"><ele>796.00</ele><name><![CDATA[Mam na Gualainn]]></name><cmt><![CDATA[Mam na Gualainn]]></cmt><desc><![CDATA[Mam na Gualainn]]></desc><sym>filled circle</sym></wpt>
<wpt lat="57.183541" lon="-3.671105"><ele>810.00</ele><name><![CDATA[Meall a' Bhuachaille]]></name><cmt><![CDATA[Meall a' Bhuachaille]]></cmt><desc><![CDATA[Meall a' Bhuachaille]]></desc><sym>filled circle</sym></wpt>
<wpt lat="57.615191" lon="-5.390202"><ele>887.00</ele><name><![CDATA[Meall a' Ghiubhais (Meall a' Ghiuthais)]]></name><cmt><![CDATA[Meall a' Ghiubhais (Meall a' Ghiuthais)]]></cmt><desc><![CDATA[Meall a' Ghiubhais (Meall a' Ghiuthais)]]></desc><sym>filled circle</sym></wpt>
<wpt lat="56.918009" lon="-5.239026"><ele>772.70</ele><name><![CDATA[Meall a' Phubuill]]></name><cmt><![CDATA[Meall a' Phubuill]]></cmt><desc><![CDATA[Meall a' Phubuill]]></desc><sym>filled circle</sym></wpt>
<wpt lat="56.333881" lon="-4.798858"><ele>764.00</ele><name><![CDATA[Meall an Fhudair]]></name><cmt><![CDATA[Meall an Fhudair]]></cmt><desc><![CDATA[Meall an Fhudair]]></desc><sym>filled circle</sym></wpt>
<wpt lat="56.380412" lon="-4.362599"><ele>852.00</ele><name><![CDATA[Meall an t-Seallaidh]]></name><cmt><![CDATA[Meall an t-Seallaidh]]></cmt><desc><![CDATA[Meall an t-Seallaidh]]></desc><sym>filled circle</sym></wpt>
<wpt lat="56.570153" lon="-4.562"><ele>908.20</ele><name><![CDATA[Meall Buidhe]]></name><cmt><![CDATA[Meall Buidhe]]></cmt><desc><![CDATA[Meall Buidhe]]></desc><sym>filled circle</sym></wpt>
<wpt lat="57.127923" lon="-4.900431"><ele>789.00</ele><name><![CDATA[Meall Dubh]]></name><cmt><![CDATA[Meall Dubh]]></cmt><desc><![CDATA[Meall Dubh]]></desc><sym>filled circle</sym></wpt>
<wpt lat="58.361681" lon="-4.817596"><ele>777.00</ele><name><![CDATA[Meall Horn]]></name><cmt><![CDATA[Meall Horn]]></cmt><desc><![CDATA[Meall Horn]]></desc><sym>filled circle</sym></wpt>
<wpt lat="56.62848" lon="-5.107498"><ele>772.00</ele><name><![CDATA[Meall Lighiche]]></name><cmt><![CDATA[Meall Lighiche]]></cmt><desc><![CDATA[Meall Lighiche]]></desc><sym>filled circle</sym></wpt>
<wpt lat="56.341247" lon="-4.184316"><ele>809.00</ele><name><![CDATA[Meall na Fearna]]></name><cmt><![CDATA[Meall na Fearna]]></cmt><desc><![CDATA[Meall na Fearna]]></desc><sym>filled circle</sym></wpt>
<wpt lat="57.067424" lon="-4.450362"><ele>862.00</ele><name><![CDATA[Meall na h-Aisre]]></name><cmt><![CDATA[Meall na h-Aisre]]></cmt><desc><![CDATA[Meall na h-Aisre]]></desc><sym>filled circle</sym></wpt>
<wpt lat="57.007038" lon="-4.989602"><ele>837.20</ele><name><![CDATA[Meall na h-Eilde]]></name><cmt><![CDATA[Meall na h-Eilde]]></cmt><desc><![CDATA[Meall na h-Eilde]]></desc><sym>filled circle</sym></wpt>
<wpt lat="56.804039" lon="-4.227991"><ele>777.10</ele><name><![CDATA[Meall na Leitreach]]></name><cmt><![CDATA[Meall na Leitreach]]></cmt><desc><![CDATA[Meall na Leitreach]]></desc><sym>filled circle</sym></wpt>
<wpt lat="56.562874" lon="-4.302495"><ele>778.90</ele><name><![CDATA[Meall nam Maigheach]]></name><cmt><![CDATA[Meall nam Maigheach]]></cmt><desc><![CDATA[Meall nam Maigheach]]></desc><sym>filled circle</sym></wpt>
<wpt lat="56.524497" lon="-4.503808"><ele>806.00</ele><name><![CDATA[Meall nan Subh]]></name><cmt><![CDATA[Meall nan Subh]]></cmt><desc><![CDATA[Meall nan Subh]]></desc><sym>filled circle</sym></wpt>
<wpt lat="56.665904" lon="-3.947406"><ele>787.00</ele><name><![CDATA[Meall Tairneachan]]></name><cmt><![CDATA[Meall Tairneachan]]></cmt><desc><![CDATA[Meall Tairneachan]]></desc><sym>filled circle</sym></wpt>
<wpt lat="56.992791" lon="-4.015269"><ele>769.00</ele><name><![CDATA[Meallach Mhor]]></name><cmt><![CDATA[Meallach Mhor]]></cmt><desc><![CDATA[Meallach Mhor]]></desc><sym>filled circle</sym></wpt>
<wpt lat="58.310074" lon="-4.805668"><ele>801.00</ele><name><![CDATA[Meallan Liath Coire Mhic Dhughaill]]></name><cmt><![CDATA[Meallan Liath Coire Mhic Dhughaill]]></cmt><desc><![CDATA[Meallan Liath Coire Mhic Dhughaill]]></desc><sym>filled circle</sym></wpt>
<wpt lat="57.546925" lon="-4.90303"><ele>838.30</ele><name><![CDATA[Meallan nan Uan]]></name><cmt><![CDATA[Meallan nan Uan]]></cmt><desc><![CDATA[Meallan nan Uan]]></desc><sym>filled circle</sym></wpt>
<wpt lat="55.139271" lon="-4.468411"><ele>843.00</ele><name><![CDATA[Merrick]]></name><cmt><![CDATA[Merrick]]></cmt><desc><![CDATA[Merrick]]></desc><sym>filled circle</sym></wpt>
<wpt lat="56.820195" lon="-3.351546"><ele>807.00</ele><name><![CDATA[Monamenach]]></name><cmt><![CDATA[Monamenach]]></cmt><desc><![CDATA[Monamenach]]></desc><sym>filled circle</sym></wpt>
<wpt lat="56.980789" lon="-3.42958"><ele>859.50</ele><name><![CDATA[Morrone]]></name><cmt><![CDATA[Morrone]]></cmt><desc><![CDATA[Morrone]]></desc><sym>filled circle</sym></wpt>
<wpt lat="57.122639" lon="-3.03088"><ele>872.00</ele><name><![CDATA[Morven]]></name><cmt><![CDATA[Morven]]></cmt><desc><![CDATA[Morven]]></desc><sym>filled circle</sym></wpt>
<wpt lat="56.949266" lon="-2.741962"><ele>778.00</ele><name><![CDATA[Mount Battock]]></name><cmt><![CDATA[Mount Battock]]></cmt><desc><![CDATA[Mount Battock]]></desc><sym>filled circle</sym></wpt>
<wpt lat="58.215146" lon="-5.049904"><ele>809.00</ele><name><![CDATA[Quinag-Sail Gharbh]]></name><cmt><![CDATA[Quinag-Sail Gharbh]]></cmt><desc><![CDATA[Quinag-Sail Gharbh]]></desc><sym>filled circle</sym></wpt>
<wpt lat="58.225604" lon="-5.069542"><ele>776.00</ele><name><![CDATA[Quinag-Sail Gorm (Sail Ghorm)]]></name><cmt><![CDATA[Quinag-Sail Gorm (Sail Ghorm)]]></cmt><desc><![CDATA[Quinag-Sail Gorm (Sail Ghorm)]]></desc><sym>filled circle</sym></wpt>
<wpt lat="58.20187" lon="-5.054469"><ele>764.00</ele><name><![CDATA[Quinag-Spidean Coinich]]></name><cmt><![CDATA[Quinag-Spidean Coinich]]></cmt><desc><![CDATA[Quinag-Spidean Coinich]]></desc><sym>filled circle</sym></wpt>
<wpt lat="56.837626" lon="-5.680425"><ele>882.00</ele><name><![CDATA[Rois-Bheinn]]></name><cmt><![CDATA[Rois-Bheinn]]></cmt><desc><![CDATA[Rois-Bheinn]]></desc><sym>filled circle</sym></wpt>
<wpt lat="57.596383" lon="-5.393975"><ele>896.00</ele><name><![CDATA[Ruadh-stac Beag]]></name><cmt><![CDATA[Ruadh-stac Beag]]></cmt><desc><![CDATA[Ruadh-stac Beag]]></desc><sym>filled circle</sym></wpt>
<wpt lat="57.844449" lon="-5.31582"><ele>767.00</ele><name><![CDATA[Sail Mhor]]></name><cmt><![CDATA[Sail Mhor]]></cmt><desc><![CDATA[Sail Mhor]]></desc><sym>filled circle</sym></wpt>
<wpt lat="57.003293" lon="-3.635945"><ele>813.00</ele><name><![CDATA[Sgor Mor]]></name><cmt><![CDATA[Sgor Mor]]></cmt><desc><![CDATA[Sgor Mor]]></desc><sym>filled circle</sym></wpt>
<wpt lat="56.825832" lon="-5.45052"><ele>775.00</ele><name><![CDATA[Sgorr Craobh a' Chaorainn]]></name><cmt><![CDATA[Sgorr Craobh a' Chaorainn]]></cmt><desc><![CDATA[Sgorr Craobh a' Chaorainn]]></desc><sym>filled circle</sym></wpt>
<wpt lat="57.384237" lon="-4.859996"><ele>818.00</ele><name><![CDATA[Sgorr na Diollaid]]></name><cmt><![CDATA[Sgorr na Diollaid]]></cmt><desc><![CDATA[Sgorr na Diollaid]]></desc><sym>filled circle</sym></wpt>
<wpt lat="57.522771" lon="-5.393259"><ele>871.00</ele><name><![CDATA[Sgorr nan Lochan Uaine]]></name><cmt><![CDATA[Sgorr nan Lochan Uaine]]></cmt><desc><![CDATA[Sgorr nan Lochan Uaine]]></desc><sym>filled circle</sym></wpt>
<wpt lat="57.318788" lon="-5.361295"><ele>879.00</ele><name><![CDATA[Sguman Coinntich]]></name><cmt><![CDATA[Sguman Coinntich]]></cmt><desc><![CDATA[Sguman Coinntich]]></desc><sym>filled circle</sym></wpt>
<wpt lat="57.412544" lon="-5.670353"><ele>792.00</ele><name><![CDATA[Sgurr a' Chaorachain]]></name><cmt><![CDATA[Sgurr a' Chaorachain]]></cmt><desc><![CDATA[Sgurr a' Chaorachain]]></desc><sym>filled circle</sym></wpt>
<wpt lat="57.057215" lon="-5.471305"><ele>913.30</ele><name><![CDATA[Sgurr a' Choire-bheithe]]></name><cmt><![CDATA[Sgurr a' Choire-bheithe]]></cmt><desc><![CDATA[Sgurr a' Choire-bheithe]]></desc><sym>filled circle</sym></wpt>
<wpt lat="57.558383" lon="-4.902287"><ele>878.80</ele><name><![CDATA[Sgurr a' Mhuilinn]]></name><cmt><![CDATA[Sgurr a' Mhuilinn]]></cmt><desc><![CDATA[Sgurr a' Mhuilinn]]></desc><sym>filled circle</sym></wpt>
<wpt lat="57.248583" lon="-5.415509"><ele>841.20</ele><name><![CDATA[Sgurr an Airgid]]></name><cmt><![CDATA[Sgurr an Airgid]]></cmt><desc><![CDATA[Sgurr an Airgid]]></desc><sym>filled circle</sym></wpt>
<wpt lat="57.028875" lon="-5.317877"><ele>901.00</ele><name><![CDATA[Sgurr an Fhuarain]]></name><cmt><![CDATA[Sgurr an Fhuarain]]></cmt><desc><![CDATA[Sgurr an Fhuarain]]></desc><sym>filled circle</sym></wpt>
<wpt lat="56.898697" lon="-5.474509"><ele>796.00</ele><name><![CDATA[Sgurr an Utha]]></name><cmt><![CDATA[Sgurr an Utha]]></cmt><desc><![CDATA[Sgurr an Utha]]></desc><sym>filled circle</sym></wpt>
<wpt lat="57.047637" lon="-5.643923"><ele>796.00</ele><name><![CDATA[Sgurr Coire Choinnichean]]></name><cmt><![CDATA[Sgurr Coire Choinnichean]]></cmt><desc><![CDATA[Sgurr Coire Choinnichean]]></desc><sym>filled circle</sym></wpt>
<wpt lat="56.997562" lon="-5.37875"><ele>835.00</ele><name><![CDATA[Sgurr Cos na Breachd-laoidh]]></name><cmt><![CDATA[Sgurr Cos na Breachd-laoidh]]></cmt><desc><![CDATA[Sgurr Cos na Breachd-laoidh]]></desc><sym>filled circle</sym></wpt>
<wpt lat="56.754656" lon="-5.453786"><ele>888.00</ele><name><![CDATA[Sgurr Dhomhnuill]]></name><cmt><![CDATA[Sgurr Dhomhnuill]]></cmt><desc><![CDATA[Sgurr Dhomhnuill]]></desc><sym>filled circle</sym></wpt>
<wpt lat="57.54691" lon="-5.378786"><ele>782.00</ele><name><![CDATA[Sgurr Dubh]]></name><cmt><![CDATA[Sgurr Dubh]]></cmt><desc><![CDATA[Sgurr Dubh]]></desc><sym>filled circle</sym></wpt>
<wpt lat="57.245255" lon="-5.256941"><ele>839.00</ele><name><![CDATA[Sgurr Gaorsaic]]></name><cmt><![CDATA[Sgurr Gaorsaic]]></cmt><desc><![CDATA[Sgurr Gaorsaic]]></desc><sym>filled circle</sym></wpt>
<wpt lat="56.818945" lon="-5.482559"><ele>849.00</ele><name><![CDATA[Sgurr Ghiubhsachain]]></name><cmt><![CDATA[Sgurr Ghiubhsachain]]></cmt><desc><![CDATA[Sgurr Ghiubhsachain]]></desc><sym>filled circle</sym></wpt>
<wpt lat="56.833314" lon="-4.80398"><ele>809.00</ele><name><![CDATA[Sgurr Innse]]></name><cmt><![CDATA[Sgurr Innse]]></cmt><desc><![CDATA[Sgurr Innse]]></desc><sym>filled circle</sym></wpt>
<wpt lat="57.19958" lon="-5.448691"><ele>779.00</ele><name><![CDATA[Sgurr Mhic Bharraich]]></name><cmt><![CDATA[Sgurr Mhic Bharraich]]></cmt><desc><![CDATA[Sgurr Mhic Bharraich]]></desc><sym>filled circle</sym></wpt>
<wpt lat="56.998469" lon="-5.273676"><ele>880.00</ele><name><![CDATA[Sgurr Mhurlagain]]></name><cmt><![CDATA[Sgurr Mhurlagain]]></cmt><desc><![CDATA[Sgurr Mhurlagain]]></desc><sym>filled circle</sym></wpt>
<wpt lat="56.837554" lon="-5.657223"><ele>874.00</ele><name><![CDATA[Sgurr na Ba Glaise]]></name><cmt><![CDATA[Sgurr na Ba Glaise]]></cmt><desc><![CDATA[Sgurr na Ba Glaise]]></desc><sym>filled circle</sym></wpt>
<wpt lat="57.457045" lon="-5.243648"><ele>863.00</ele><name><![CDATA[Sgurr na Feartaig]]></name><cmt><![CDATA[Sgurr na Feartaig]]></cmt><desc><![CDATA[Sgurr na Feartaig]]></desc><sym>filled circle</sym></wpt>
<wpt lat="57.482307" lon="-5.192321"><ele>913.40</ele><name><![CDATA[Sgurr nan Ceannaichean]]></name><cmt><![CDATA[Sgurr nan Ceannaichean]]></cmt><desc><![CDATA[Sgurr nan Ceannaichean]]></desc><sym>filled circle</sym></wpt>
<wpt lat="57.087957" lon="-5.422642"><ele>897.50</ele><name><![CDATA[Sgurr nan Eugallt]]></name><cmt><![CDATA[Sgurr nan Eugallt]]></cmt><desc><![CDATA[Sgurr nan Eugallt]]></desc><sym>filled circle</sym></wpt>
<wpt lat="55.183647" lon="-4.50248"><ele>774.10</ele><name><![CDATA[Shalloch on Minnoch]]></name><cmt><![CDATA[Shalloch on Minnoch]]></cmt><desc><![CDATA[Shalloch on Minnoch]]></desc><sym>filled circle</sym></wpt>
<wpt lat="56.574181" lon="-4.514859"><ele>835.00</ele><name><![CDATA[Sron a' Choire Chnapanaich (Sron a' Choire Chnapanich)]]></name><cmt><![CDATA[Sron a' Choire Chnapanaich (Sron a' Choire Chnapanich)]]></cmt><desc><![CDATA[Sron a' Choire Chnapanaich (Sron a' Choire Chnapanich)]]></desc><sym>filled circle</sym></wpt>
<wpt lat="56.309674" lon="-4.560146"><ele>869.00</ele><name><![CDATA[Stob a' Choin]]></name><cmt><![CDATA[Stob a' Choin]]></cmt><desc><![CDATA[Stob a' Choin]]></desc><sym>filled circle</sym></wpt>
<wpt lat="56.793293" lon="-4.396092"><ele>855.00</ele><name><![CDATA[Stob an Aonaich Mhoir]]></name><cmt><![CDATA[Stob an Aonaich Mhoir]]></cmt><desc><![CDATA[Stob an Aonaich Mhoir]]></desc><sym>filled circle</sym></wpt>
<wpt lat="56.803245" lon="-5.249612"><ele>771.00</ele><name><![CDATA[Stob Coire a' Chearcaill]]></name><cmt><![CDATA[Stob Coire a' Chearcaill]]></cmt><desc><![CDATA[Stob Coire a' Chearcaill]]></desc><sym>filled circle</sym></wpt>
<wpt lat="56.2577" lon="-4.857968"><ele>817.00</ele><name><![CDATA[Stob Coire Creagach (Binnein an Fhidhleir)]]></name><cmt><![CDATA[Stob Coire Creagach (Binnein an Fhidhleir)]]></cmt><desc><![CDATA[Stob Coire Creagach (Binnein an Fhidhleir)]]></desc><sym>filled circle</sym></wpt>
<wpt lat="56.595405" lon="-4.988114"><ele>883.00</ele><name><![CDATA[Stob Dubh]]></name><cmt><![CDATA[Stob Dubh]]></cmt><desc><![CDATA[Stob Dubh]]></desc><sym>filled circle</sym></wpt>
<wpt lat="56.923006" lon="-5.375537"><ele>909.00</ele><name><![CDATA[Streap]]></name><cmt><![CDATA[Streap]]></cmt><desc><![CDATA[Streap]]></desc><sym>filled circle</sym></wpt>
<wpt lat="56.187769" lon="-4.828552"><ele>787.50</ele><name><![CDATA[The Brack]]></name><cmt><![CDATA[The Brack]]></cmt><desc><![CDATA[The Brack]]></desc><sym>filled circle</sym></wpt>
<wpt lat="56.213037" lon="-4.808042"><ele>884.00</ele><name><![CDATA[The Cobbler (Ben Arthur)]]></name><cmt><![CDATA[The Cobbler (Ben Arthur)]]></cmt><desc><![CDATA[The Cobbler (Ben Arthur)]]></desc><sym>filled circle</sym></wpt>
<wpt lat="56.928372" lon="-4.304853"><ele>911.40</ele><name><![CDATA[The Fara]]></name><cmt><![CDATA[The Fara]]></cmt><desc><![CDATA[The Fara]]></desc><sym>filled circle</sym></wpt>
<wpt lat="56.838121" lon="-4.25515"><ele>803.00</ele><name><![CDATA[The Sow of Atholl (Meall an Dobharchain)]]></name><cmt><![CDATA[The Sow of Atholl (Meall an Dobharchain)]]></cmt><desc><![CDATA[The Sow of Atholl (Meall an Dobharchain)]]></desc><sym>filled circle</sym></wpt>
<wpt lat="55.422578" lon="-3.323634"><ele>821.00</ele><name><![CDATA[White Coomb]]></name><cmt><![CDATA[White Coomb]]></cmt><desc><![CDATA[White Coomb]]></desc><sym>filled circle</sym></wpt>
</gpx>
