<?xml version="1.0" encoding="UTF-8" standalone="yes"?>
<gpx version="1.1" creator="Phils GPX generator www.haroldstreet.org.uk"
  xmlns="http://www.topografix.com/GPX/1/1"
  xmlns:xsi="http://www.w3.org/2001/XMLSchema-instance"
  xsi:schemaLocation="http://www.topografix.com/GPX/1/1 http://www.topografix.com/GPX/1/1/gpx.xsd">
<wpt lat="56.870342" lon="-4.199001"><ele>936.00</ele><name><![CDATA[A' Bhuidheanach Bheag]]></name><cmt><![CDATA[A' Bhuidheanach Bheag]]></cmt><desc><![CDATA[A' Bhuidheanach Bheag]]></desc><sym>filled circle</sym></wpt>
<wpt lat="57.6938" lon="-5.128715"><ele>997.00</ele><name><![CDATA[A' Chailleach]]></name><cmt><![CDATA[A' Chailleach]]></cmt><desc><![CDATA[A' Chailleach]]></desc><sym>filled circle</sym></wpt>
<wpt lat="57.109564" lon="-4.179285"><ele>929.20</ele><name><![CDATA[A' Chailleach]]></name><cmt><![CDATA[A' Chailleach]]></cmt><desc><![CDATA[A' Chailleach]]></desc><sym>filled circle</sym></wpt>
<wpt lat="57.184186" lon="-5.154837"><ele>1120.00</ele><name><![CDATA[A' Chraileag (A' Chralaig)]]></name><cmt><![CDATA[A' Chraileag (A' Chralaig)]]></cmt><desc><![CDATA[A' Chraileag (A' Chralaig)]]></desc><sym>filled circle</sym></wpt>
<wpt lat="57.255081" lon="-5.303686"><ele>918.00</ele><name><![CDATA[A' Ghlas-bheinn]]></name><cmt><![CDATA[A' Ghlas-bheinn]]></cmt><desc><![CDATA[A' Ghlas-bheinn]]></desc><sym>filled circle</sym></wpt>
<wpt lat="57.719653" lon="-5.346721"><ele>967.00</ele><name><![CDATA[A' Mhaighdean]]></name><cmt><![CDATA[A' Mhaighdean]]></cmt><desc><![CDATA[A' Mhaighdean]]></desc><sym>filled circle</sym></wpt>
<wpt lat="56.857002" lon="-4.290668"><ele>973.20</ele><name><![CDATA[A' Mharconaich]]></name><cmt><![CDATA[A' Mharconaich]]></cmt><desc><![CDATA[A' Mharconaich]]></desc><sym>filled circle</sym></wpt>
<wpt lat="57.24794" lon="-6.202966"><ele>934.00</ele><name><![CDATA[Am Basteir]]></name><cmt><![CDATA[Am Basteir]]></cmt><desc><![CDATA[Am Basteir]]></desc><sym>filled circle</sym></wpt>
<wpt lat="56.741729" lon="-4.983387"><ele>1031.80</ele><name><![CDATA[Am Bodach]]></name><cmt><![CDATA[Am Bodach]]></cmt><desc><![CDATA[Am Bodach]]></desc><sym>filled circle</sym></wpt>
<wpt lat="57.771801" lon="-4.853882"><ele>953.00</ele><name><![CDATA[Am Faochagach]]></name><cmt><![CDATA[Am Faochagach]]></cmt><desc><![CDATA[Am Faochagach]]></desc><sym>filled circle</sym></wpt>
<wpt lat="56.3386" lon="-4.624368"><ele>995.90</ele><name><![CDATA[An Caisteal]]></name><cmt><![CDATA[An Caisteal]]></cmt><desc><![CDATA[An Caisteal]]></desc><sym>filled circle</sym></wpt>
<wpt lat="57.667625" lon="-4.949498"><ele>923.90</ele><name><![CDATA[An Coileachan]]></name><cmt><![CDATA[An Coileachan]]></cmt><desc><![CDATA[An Coileachan]]></desc><sym>filled circle</sym></wpt>
<wpt lat="56.759172" lon="-4.96623"><ele>981.50</ele><name><![CDATA[An Gearanach]]></name><cmt><![CDATA[An Gearanach]]></cmt><desc><![CDATA[An Gearanach]]></desc><sym>filled circle</sym></wpt>
<wpt lat="57.362438" lon="-5.104728"><ele>1129.00</ele><name><![CDATA[An Riabhachan]]></name><cmt><![CDATA[An Riabhachan]]></cmt><desc><![CDATA[An Riabhachan]]></desc><sym>filled circle</sym></wpt>
<wpt lat="56.932109" lon="-3.754294"><ele>1006.50</ele><name><![CDATA[An Sgarsoch]]></name><cmt><![CDATA[An Sgarsoch]]></cmt><desc><![CDATA[An Sgarsoch]]></desc><sym>filled circle</sym></wpt>
<wpt lat="57.350229" lon="-5.158603"><ele>1069.00</ele><name><![CDATA[An Socach]]></name><cmt><![CDATA[An Socach]]></cmt><desc><![CDATA[An Socach]]></desc><sym>filled circle</sym></wpt>
<wpt lat="56.902295" lon="-3.513165"><ele>944.00</ele><name><![CDATA[An Socach]]></name><cmt><![CDATA[An Socach]]></cmt><desc><![CDATA[An Socach]]></desc><sym>filled circle</sym></wpt>
<wpt lat="57.257542" lon="-5.171294"><ele>921.00</ele><name><![CDATA[An Socach]]></name><cmt><![CDATA[An Socach]]></cmt><desc><![CDATA[An Socach]]></desc><sym>filled circle</sym></wpt>
<wpt lat="56.560092" lon="-4.216265"><ele>1117.10</ele><name><![CDATA[An Stuc]]></name><cmt><![CDATA[An Stuc]]></cmt><desc><![CDATA[An Stuc]]></desc><sym>filled circle</sym></wpt>
<wpt lat="57.807098" lon="-5.251767"><ele>1062.50</ele><name><![CDATA[An Teallach-Bidein a' Ghlas Thuill]]></name><cmt><![CDATA[An Teallach-Bidein a' Ghlas Thuill]]></cmt><desc><![CDATA[An Teallach-Bidein a' Ghlas Thuill]]></desc><sym>filled circle</sym></wpt>
<wpt lat="57.800726" lon="-5.259443"><ele>1058.60</ele><name><![CDATA[An Teallach-Sgurr Fiona]]></name><cmt><![CDATA[An Teallach-Sgurr Fiona]]></cmt><desc><![CDATA[An Teallach-Sgurr Fiona]]></desc><sym>filled circle</sym></wpt>
<wpt lat="57.12464" lon="-5.221291"><ele>1019.50</ele><name><![CDATA[Aonach air Chrith]]></name><cmt><![CDATA[Aonach air Chrith]]></cmt><desc><![CDATA[Aonach air Chrith]]></desc><sym>filled circle</sym></wpt>
<wpt lat="56.799998" lon="-4.954121"><ele>1234.00</ele><name><![CDATA[Aonach Beag]]></name><cmt><![CDATA[Aonach Beag]]></cmt><desc><![CDATA[Aonach Beag]]></desc><sym>filled circle</sym></wpt>
<wpt lat="56.833498" lon="-4.529175"><ele>1115.80</ele><name><![CDATA[Aonach Beag]]></name><cmt><![CDATA[Aonach Beag]]></cmt><desc><![CDATA[Aonach Beag]]></desc><sym>filled circle</sym></wpt>
<wpt lat="56.680721" lon="-5.003266"><ele>952.20</ele><name><![CDATA[Aonach Eagach-Meall Dearg]]></name><cmt><![CDATA[Aonach Eagach-Meall Dearg]]></cmt><desc><![CDATA[Aonach Eagach-Meall Dearg]]></desc><sym>filled circle</sym></wpt>
<wpt lat="56.679369" lon="-5.037125"><ele>967.70</ele><name><![CDATA[Aonach Eagach-Sgorr nam Fiannaidh]]></name><cmt><![CDATA[Aonach Eagach-Sgorr nam Fiannaidh]]></cmt><desc><![CDATA[Aonach Eagach-Sgorr nam Fiannaidh]]></desc><sym>filled circle</sym></wpt>
<wpt lat="57.173026" lon="-5.229166"><ele>1001.00</ele><name><![CDATA[Aonach Meadhoin]]></name><cmt><![CDATA[Aonach Meadhoin]]></cmt><desc><![CDATA[Aonach Meadhoin]]></desc><sym>filled circle</sym></wpt>
<wpt lat="56.812941" lon="-4.961712"><ele>1220.40</ele><name><![CDATA[Aonach Mor]]></name><cmt><![CDATA[Aonach Mor]]></cmt><desc><![CDATA[Aonach Mor]]></desc><sym>filled circle</sym></wpt>
<wpt lat="56.653921" lon="-5.17151"><ele>1024.00</ele><name><![CDATA[Beinn a' Bheithir-Sgorr Dhearg]]></name><cmt><![CDATA[Beinn a' Bheithir-Sgorr Dhearg]]></cmt><desc><![CDATA[Beinn a' Bheithir-Sgorr Dhearg]]></desc><sym>filled circle</sym></wpt>
<wpt lat="56.650499" lon="-5.197757"><ele>1001.00</ele><name><![CDATA[Beinn a' Bheithir-Sgorr Dhonuill]]></name><cmt><![CDATA[Beinn a' Bheithir-Sgorr Dhonuill]]></cmt><desc><![CDATA[Beinn a' Bheithir-Sgorr Dhonuill]]></desc><sym>filled circle</sym></wpt>
<wpt lat="57.08759" lon="-3.499366"><ele>1197.00</ele><name><![CDATA[Beinn a' Bhuird (Beinn a' Bhuird North Top)]]></name><cmt><![CDATA[Beinn a' Bhuird (Beinn a' Bhuird North Top)]]></cmt><desc><![CDATA[Beinn a' Bhuird (Beinn a' Bhuird North Top)]]></desc><sym>filled circle</sym></wpt>
<wpt lat="57.093272" lon="-3.577434"><ele>1083.00</ele><name><![CDATA[Beinn a' Chaorainn]]></name><cmt><![CDATA[Beinn a' Chaorainn]]></cmt><desc><![CDATA[Beinn a' Chaorainn]]></desc><sym>filled circle</sym></wpt>
<wpt lat="56.928624" lon="-4.653644"><ele>1049.10</ele><name><![CDATA[Beinn a' Chaorainn]]></name><cmt><![CDATA[Beinn a' Chaorainn]]></cmt><desc><![CDATA[Beinn a' Chaorainn]]></desc><sym>filled circle</sym></wpt>
<wpt lat="56.869525" lon="-4.509684"><ele>1087.00</ele><name><![CDATA[Beinn a' Chlachair]]></name><cmt><![CDATA[Beinn a' Chlachair]]></cmt><desc><![CDATA[Beinn a' Chlachair]]></desc><sym>filled circle</sym></wpt>
<wpt lat="56.39023" lon="-4.83563"><ele>916.30</ele><name><![CDATA[Beinn a' Chleibh]]></name><cmt><![CDATA[Beinn a' Chleibh]]></cmt><desc><![CDATA[Beinn a' Chleibh]]></desc><sym>filled circle</sym></wpt>
<wpt lat="56.449781" lon="-5.068536"><ele>980.00</ele><name><![CDATA[Beinn a' Chochuill]]></name><cmt><![CDATA[Beinn a' Chochuill]]></cmt><desc><![CDATA[Beinn a' Chochuill]]></desc><sym>filled circle</sym></wpt>
<wpt lat="56.560386" lon="-4.647622"><ele>1080.60</ele><name><![CDATA[Beinn a' Chreachain]]></name><cmt><![CDATA[Beinn a' Chreachain]]></cmt><desc><![CDATA[Beinn a' Chreachain]]></desc><sym>filled circle</sym></wpt>
<wpt lat="56.331991" lon="-4.609644"><ele>941.40</ele><name><![CDATA[Beinn a' Chroin]]></name><cmt><![CDATA[Beinn a' Chroin]]></cmt><desc><![CDATA[Beinn a' Chroin]]></desc><sym>filled circle</sym></wpt>
<wpt lat="56.831083" lon="-3.729505"><ele>1070.00</ele><name><![CDATA[Beinn a' Ghlo-Braigh Coire Chruinn-bhalgain]]></name><cmt><![CDATA[Beinn a' Ghlo-Braigh Coire Chruinn-bhalgain]]></cmt><desc><![CDATA[Beinn a' Ghlo-Braigh Coire Chruinn-bhalgain]]></desc><sym>filled circle</sym></wpt>
<wpt lat="56.80777" lon="-3.74409"><ele>976.00</ele><name><![CDATA[Beinn a' Ghlo-Carn Liath]]></name><cmt><![CDATA[Beinn a' Ghlo-Carn Liath]]></cmt><desc><![CDATA[Beinn a' Ghlo-Carn Liath]]></desc><sym>filled circle</sym></wpt>
<wpt lat="56.839836" lon="-3.688055"><ele>1121.90</ele><name><![CDATA[Beinn a' Ghlo-Carn nan Gabhar]]></name><cmt><![CDATA[Beinn a' Ghlo-Carn nan Gabhar]]></cmt><desc><![CDATA[Beinn a' Ghlo-Carn nan Gabhar]]></desc><sym>filled circle</sym></wpt>
<wpt lat="56.551891" lon="-4.69453"><ele>1038.60</ele><name><![CDATA[Beinn Achaladair]]></name><cmt><![CDATA[Beinn Achaladair]]></cmt><desc><![CDATA[Beinn Achaladair]]></desc><sym>filled circle</sym></wpt>
<wpt lat="57.59082" lon="-5.572764"><ele>986.00</ele><name><![CDATA[Beinn Alligin-Sgurr Mhor]]></name><cmt><![CDATA[Beinn Alligin-Sgurr Mhor]]></cmt><desc><![CDATA[Beinn Alligin-Sgurr Mhor]]></desc><sym>filled circle</sym></wpt>
<wpt lat="57.580519" lon="-5.581912"><ele>922.00</ele><name><![CDATA[Beinn Alligin-Tom na Gruagaich]]></name><cmt><![CDATA[Beinn Alligin-Tom na Gruagaich]]></cmt><desc><![CDATA[Beinn Alligin-Tom na Gruagaich]]></desc><sym>filled circle</sym></wpt>
<wpt lat="56.53013" lon="-4.713964"><ele>1004.00</ele><name><![CDATA[Beinn an Dothaidh]]></name><cmt><![CDATA[Beinn an Dothaidh]]></cmt><desc><![CDATA[Beinn an Dothaidh]]></desc><sym>filled circle</sym></wpt>
<wpt lat="56.813276" lon="-4.430662"><ele>1019.00</ele><name><![CDATA[Beinn Bheoil]]></name><cmt><![CDATA[Beinn Bheoil]]></cmt><desc><![CDATA[Beinn Bheoil]]></desc><sym>filled circle</sym></wpt>
<wpt lat="57.055072" lon="-3.553472"><ele>931.00</ele><name><![CDATA[Beinn Bhreac]]></name><cmt><![CDATA[Beinn Bhreac]]></cmt><desc><![CDATA[Beinn Bhreac]]></desc><sym>filled circle</sym></wpt>
<wpt lat="57.009868" lon="-3.723797"><ele>1157.00</ele><name><![CDATA[Beinn Bhrotain]]></name><cmt><![CDATA[Beinn Bhrotain]]></cmt><desc><![CDATA[Beinn Bhrotain]]></desc><sym>filled circle</sym></wpt>
<wpt lat="56.326659" lon="-4.906723"><ele>948.50</ele><name><![CDATA[Beinn Bhuidhe]]></name><cmt><![CDATA[Beinn Bhuidhe]]></cmt><desc><![CDATA[Beinn Bhuidhe]]></desc><sym>filled circle</sym></wpt>
<wpt lat="56.325779" lon="-4.641493"><ele>932.20</ele><name><![CDATA[Beinn Chabhair]]></name><cmt><![CDATA[Beinn Chabhair]]></cmt><desc><![CDATA[Beinn Chabhair]]></desc><sym>filled circle</sym></wpt>
<wpt lat="57.78635" lon="-4.929557"><ele>1084.00</ele><name><![CDATA[Beinn Dearg]]></name><cmt><![CDATA[Beinn Dearg]]></cmt><desc><![CDATA[Beinn Dearg]]></desc><sym>filled circle</sym></wpt>
<wpt lat="56.877346" lon="-3.883719"><ele>1008.70</ele><name><![CDATA[Beinn Dearg]]></name><cmt><![CDATA[Beinn Dearg]]></cmt><desc><![CDATA[Beinn Dearg]]></desc><sym>filled circle</sym></wpt>
<wpt lat="56.50287" lon="-4.722157"><ele>1076.00</ele><name><![CDATA[Beinn Dorain]]></name><cmt><![CDATA[Beinn Dorain]]></cmt><desc><![CDATA[Beinn Dorain]]></desc><sym>filled circle</sym></wpt>
<wpt lat="56.391295" lon="-4.743193"><ele>978.00</ele><name><![CDATA[Beinn Dubhchraig]]></name><cmt><![CDATA[Beinn Dubhchraig]]></cmt><desc><![CDATA[Beinn Dubhchraig]]></desc><sym>filled circle</sym></wpt>
<wpt lat="56.825255" lon="-4.542077"><ele>1103.20</ele><name><![CDATA[Beinn Eibhinn]]></name><cmt><![CDATA[Beinn Eibhinn]]></cmt><desc><![CDATA[Beinn Eibhinn]]></desc><sym>filled circle</sym></wpt>
<wpt lat="57.593735" lon="-5.429454"><ele>1010.00</ele><name><![CDATA[Beinn Eighe-Ruadh-stac Mor]]></name><cmt><![CDATA[Beinn Eighe-Ruadh-stac Mor]]></cmt><desc><![CDATA[Beinn Eighe-Ruadh-stac Mor]]></desc><sym>filled circle</sym></wpt>
<wpt lat="57.582098" lon="-5.403706"><ele>993.00</ele><name><![CDATA[Beinn Eighe-Spidean Coire nan Clach]]></name><cmt><![CDATA[Beinn Eighe-Spidean Coire nan Clach]]></cmt><desc><![CDATA[Beinn Eighe-Spidean Coire nan Clach]]></desc><sym>filled circle</sym></wpt>
<wpt lat="56.450352" lon="-5.026639"><ele>989.00</ele><name><![CDATA[Beinn Eunaich]]></name><cmt><![CDATA[Beinn Eunaich]]></cmt><desc><![CDATA[Beinn Eunaich]]></desc><sym>filled circle</sym></wpt>
<wpt lat="57.221002" lon="-5.283519"><ele>1031.90</ele><name><![CDATA[Beinn Fhada]]></name><cmt><![CDATA[Beinn Fhada]]></cmt><desc><![CDATA[Beinn Fhada]]></desc><sym>filled circle</sym></wpt>
<wpt lat="57.305977" lon="-5.129909"><ele>1004.70</ele><name><![CDATA[Beinn Fhionnlaidh]]></name><cmt><![CDATA[Beinn Fhionnlaidh]]></cmt><desc><![CDATA[Beinn Fhionnlaidh]]></desc><sym>filled circle</sym></wpt>
<wpt lat="56.600978" lon="-5.104749"><ele>959.00</ele><name><![CDATA[Beinn Fhionnlaidh]]></name><cmt><![CDATA[Beinn Fhionnlaidh]]></cmt><desc><![CDATA[Beinn Fhionnlaidh]]></desc><sym>filled circle</sym></wpt>
<wpt lat="56.535996" lon="-4.236992"><ele>1103.00</ele><name><![CDATA[Beinn Ghlas]]></name><cmt><![CDATA[Beinn Ghlas]]></cmt><desc><![CDATA[Beinn Ghlas]]></desc><sym>filled circle</sym></wpt>
<wpt lat="56.236794" lon="-4.817125"><ele>1012.20</ele><name><![CDATA[Beinn Ime]]></name><cmt><![CDATA[Beinn Ime]]></cmt><desc><![CDATA[Beinn Ime]]></desc><sym>filled circle</sym></wpt>
<wpt lat="56.894994" lon="-3.568229"><ele>1045.00</ele><name><![CDATA[Beinn Iutharn Mhor]]></name><cmt><![CDATA[Beinn Iutharn Mhor]]></cmt><desc><![CDATA[Beinn Iutharn Mhor]]></desc><sym>filled circle</sym></wpt>
<wpt lat="57.512083" lon="-5.400618"><ele>926.00</ele><name><![CDATA[Beinn Liath Mhor]]></name><cmt><![CDATA[Beinn Liath Mhor]]></cmt><desc><![CDATA[Beinn Liath Mhor]]></desc><sym>filled circle</sym></wpt>
<wpt lat="57.706095" lon="-4.989775"><ele>954.00</ele><name><![CDATA[Beinn Liath Mhor Fannaich]]></name><cmt><![CDATA[Beinn Liath Mhor Fannaich]]></cmt><desc><![CDATA[Beinn Liath Mhor Fannaich]]></desc><sym>filled circle</sym></wpt>
<wpt lat="56.534041" lon="-4.646042"><ele>953.00</ele><name><![CDATA[Beinn Mhanach]]></name><cmt><![CDATA[Beinn Mhanach]]></cmt><desc><![CDATA[Beinn Mhanach]]></desc><sym>filled circle</sym></wpt>
<wpt lat="57.095849" lon="-3.611464"><ele>1182.90</ele><name><![CDATA[Beinn Mheadhoin]]></name><cmt><![CDATA[Beinn Mheadhoin]]></cmt><desc><![CDATA[Beinn Mheadhoin]]></desc><sym>filled circle</sym></wpt>
<wpt lat="56.78939" lon="-4.659994"><ele>935.00</ele><name><![CDATA[Beinn na Lap]]></name><cmt><![CDATA[Beinn na Lap]]></cmt><desc><![CDATA[Beinn na Lap]]></desc><sym>filled circle</sym></wpt>
<wpt lat="56.520221" lon="-5.011249"><ele>960.00</ele><name><![CDATA[Beinn nan Aighenan]]></name><cmt><![CDATA[Beinn nan Aighenan]]></cmt><desc><![CDATA[Beinn nan Aighenan]]></desc><sym>filled circle</sym></wpt>
<wpt lat="56.220956" lon="-4.789003"><ele>927.00</ele><name><![CDATA[Beinn Narnain]]></name><cmt><![CDATA[Beinn Narnain]]></cmt><desc><![CDATA[Beinn Narnain]]></desc><sym>filled circle</sym></wpt>
<wpt lat="57.153816" lon="-5.579711"><ele>974.00</ele><name><![CDATA[Beinn Sgritheall]]></name><cmt><![CDATA[Beinn Sgritheall]]></cmt><desc><![CDATA[Beinn Sgritheall]]></desc><sym>filled circle</sym></wpt>
<wpt lat="56.566232" lon="-5.170365"><ele>937.00</ele><name><![CDATA[Beinn Sgulaird]]></name><cmt><![CDATA[Beinn Sgulaird]]></cmt><desc><![CDATA[Beinn Sgulaird]]></desc><sym>filled circle</sym></wpt>
<wpt lat="56.510272" lon="-4.579218"><ele>1077.40</ele><name><![CDATA[Beinn Sheasgarnaich (Beinn Heasgarnich)]]></name><cmt><![CDATA[Beinn Sheasgarnaich (Beinn Heasgarnich)]]></cmt><desc><![CDATA[Beinn Sheasgarnaich (Beinn Heasgarnich)]]></desc><sym>filled circle</sym></wpt>
<wpt lat="57.702051" lon="-5.291634"><ele>933.80</ele><name><![CDATA[Beinn Tarsuinn]]></name><cmt><![CDATA[Beinn Tarsuinn]]></cmt><desc><![CDATA[Beinn Tarsuinn]]></desc><sym>filled circle</sym></wpt>
<wpt lat="56.935932" lon="-4.694754"><ele>914.60</ele><name><![CDATA[Beinn Teallach]]></name><cmt><![CDATA[Beinn Teallach]]></cmt><desc><![CDATA[Beinn Teallach]]></desc><sym>filled circle</sym></wpt>
<wpt lat="56.342216" lon="-4.56333"><ele>945.80</ele><name><![CDATA[Beinn Tulaichean]]></name><cmt><![CDATA[Beinn Tulaichean]]></cmt><desc><![CDATA[Beinn Tulaichean]]></desc><sym>filled circle</sym></wpt>
<wpt lat="56.835444" lon="-4.329976"><ele>1010.20</ele><name><![CDATA[Beinn Udlamain]]></name><cmt><![CDATA[Beinn Udlamain]]></cmt><desc><![CDATA[Beinn Udlamain]]></desc><sym>filled circle</sym></wpt>
<wpt lat="56.813796" lon="-4.465089"><ele>1148.00</ele><name><![CDATA[Ben Alder]]></name><cmt><![CDATA[Ben Alder]]></cmt><desc><![CDATA[Ben Alder]]></desc><sym>filled circle</sym></wpt>
<wpt lat="57.099347" lon="-3.434422"><ele>1171.00</ele><name><![CDATA[Ben Avon-Leabaidh an Daimh Bhuidhe]]></name><cmt><![CDATA[Ben Avon-Leabaidh an Daimh Bhuidhe]]></cmt><desc><![CDATA[Ben Avon-Leabaidh an Daimh Bhuidhe]]></desc><sym>filled circle</sym></wpt>
<wpt lat="56.454573" lon="-4.619184"><ele>1025.00</ele><name><![CDATA[Ben Challum (Beinn Challuim)]]></name><cmt><![CDATA[Ben Challum (Beinn Challuim)]]></cmt><desc><![CDATA[Ben Challum (Beinn Challuim)]]></desc><sym>filled circle</sym></wpt>
<wpt lat="56.453851" lon="-3.992057"><ele>931.00</ele><name><![CDATA[Ben Chonzie]]></name><cmt><![CDATA[Ben Chonzie]]></cmt><desc><![CDATA[Ben Chonzie]]></desc><sym>filled circle</sym></wpt>
<wpt lat="56.42684" lon="-5.131834"><ele>1127.00</ele><name><![CDATA[Ben Cruachan]]></name><cmt><![CDATA[Ben Cruachan]]></cmt><desc><![CDATA[Ben Cruachan]]></desc><sym>filled circle</sym></wpt>
<wpt lat="58.413113" lon="-4.60786"><ele>927.00</ele><name><![CDATA[Ben Hope]]></name><cmt><![CDATA[Ben Hope]]></cmt><desc><![CDATA[Ben Hope]]></desc><sym>filled circle</sym></wpt>
<wpt lat="58.235202" lon="-4.41113"><ele>962.10</ele><name><![CDATA[Ben Klibreck-Meall nan Con]]></name><cmt><![CDATA[Ben Klibreck-Meall nan Con]]></cmt><desc><![CDATA[Ben Klibreck-Meall nan Con]]></desc><sym>filled circle</sym></wpt>
<wpt lat="56.544922" lon="-4.22086"><ele>1214.00</ele><name><![CDATA[Ben Lawers]]></name><cmt><![CDATA[Ben Lawers]]></cmt><desc><![CDATA[Ben Lawers]]></desc><sym>filled circle</sym></wpt>
<wpt lat="56.190293" lon="-4.633009"><ele>974.00</ele><name><![CDATA[Ben Lomond]]></name><cmt><![CDATA[Ben Lomond]]></cmt><desc><![CDATA[Ben Lomond]]></desc><sym>filled circle</sym></wpt>
<wpt lat="56.397004" lon="-4.810525"><ele>1130.00</ele><name><![CDATA[Ben Lui (Beinn Laoigh)]]></name><cmt><![CDATA[Ben Lui (Beinn Laoigh)]]></cmt><desc><![CDATA[Ben Lui (Beinn Laoigh)]]></desc><sym>filled circle</sym></wpt>
<wpt lat="57.070368" lon="-3.669099"><ele>1309.00</ele><name><![CDATA[Ben Macdui (Beinn Macduibh)]]></name><cmt><![CDATA[Ben Macdui (Beinn Macduibh)]]></cmt><desc><![CDATA[Ben Macdui (Beinn Macduibh)]]></desc><sym>filled circle</sym></wpt>
<wpt lat="56.385952" lon="-4.540087"><ele>1174.00</ele><name><![CDATA[Ben More]]></name><cmt><![CDATA[Ben More]]></cmt><desc><![CDATA[Ben More]]></desc><sym>filled circle</sym></wpt>
<wpt lat="56.424829" lon="-6.014015"><ele>966.00</ele><name><![CDATA[Ben More]]></name><cmt><![CDATA[Ben More]]></cmt><desc><![CDATA[Ben More]]></desc><sym>filled circle</sym></wpt>
<wpt lat="58.138164" lon="-4.858208"><ele>998.00</ele><name><![CDATA[Ben More Assynt]]></name><cmt><![CDATA[Ben More Assynt]]></cmt><desc><![CDATA[Ben More Assynt]]></desc><sym>filled circle</sym></wpt>
<wpt lat="56.796891" lon="-5.003675"><ele>1344.50</ele><name><![CDATA[Ben Nevis (Beinn Nibheis)]]></name><cmt><![CDATA[Ben Nevis (Beinn Nibheis)]]></cmt><desc><![CDATA[Ben Nevis (Beinn Nibheis)]]></desc><sym>filled circle</sym></wpt>
<wpt lat="56.389272" lon="-4.775488"><ele>1029.00</ele><name><![CDATA[Ben Oss]]></name><cmt><![CDATA[Ben Oss]]></cmt><desc><![CDATA[Ben Oss]]></desc><sym>filled circle</sym></wpt>
<wpt lat="56.538922" lon="-5.049748"><ele>1079.50</ele><name><![CDATA[Ben Starav]]></name><cmt><![CDATA[Ben Starav]]></cmt><desc><![CDATA[Ben Starav]]></desc><sym>filled circle</sym></wpt>
<wpt lat="56.249786" lon="-4.781655"><ele>915.80</ele><name><![CDATA[Ben Vane]]></name><cmt><![CDATA[Ben Vane]]></cmt><desc><![CDATA[Ben Vane]]></desc><sym>filled circle</sym></wpt>
<wpt lat="56.34268" lon="-4.219464"><ele>985.00</ele><name><![CDATA[Ben Vorlich - Loch Earn]]></name><cmt><![CDATA[Ben Vorlich]]></cmt><desc><![CDATA[Ben Vorlich]]></desc><sym>filled circle</sym></wpt>
<wpt lat="56.274021" lon="-4.755046"><ele>943.00</ele><name><![CDATA[Ben Vorlich - Loch Lomond]]></name><cmt><![CDATA[Ben Vorlich]]></cmt><desc><![CDATA[Ben Vorlich]]></desc><sym>filled circle</sym></wpt>
<wpt lat="57.678914" lon="-4.57925"><ele>1046.00</ele><name><![CDATA[Ben Wyvis-Glas Leathad Mor]]></name><cmt><![CDATA[Ben Wyvis-Glas Leathad Mor]]></cmt><desc><![CDATA[Ben Wyvis-Glas Leathad Mor]]></desc><sym>filled circle</sym></wpt>
<wpt lat="56.642768" lon="-5.029335"><ele>1149.40</ele><name><![CDATA[Bidean nam Bian]]></name><cmt><![CDATA[Bidean nam Bian]]></cmt><desc><![CDATA[Bidean nam Bian]]></desc><sym>filled circle</sym></wpt>
<wpt lat="57.419718" lon="-5.250473"><ele>945.00</ele><name><![CDATA[Bidein a' Choire Sheasgaich]]></name><cmt><![CDATA[Bidein a' Choire Sheasgaich]]></cmt><desc><![CDATA[Bidein a' Choire Sheasgaich]]></desc><sym>filled circle</sym></wpt>
<wpt lat="56.766961" lon="-4.911161"><ele>943.00</ele><name><![CDATA[Binnein Beag]]></name><cmt><![CDATA[Binnein Beag]]></cmt><desc><![CDATA[Binnein Beag]]></desc><sym>filled circle</sym></wpt>
<wpt lat="56.754376" lon="-4.925796"><ele>1130.00</ele><name><![CDATA[Binnein Mor]]></name><cmt><![CDATA[Binnein Mor]]></cmt><desc><![CDATA[Binnein Mor]]></desc><sym>filled circle</sym></wpt>
<wpt lat="57.219565" lon="-6.09321"><ele>929.00</ele><name><![CDATA[Bla Bheinn (Blabheinn) (Blaven)]]></name><cmt><![CDATA[Bla Bheinn (Blabheinn) (Blaven)]]></cmt><desc><![CDATA[Bla Bheinn (Blabheinn) (Blaven)]]></desc><sym>filled circle</sym></wpt>
<wpt lat="57.078298" lon="-3.728389"><ele>1296.00</ele><name><![CDATA[Braeriach]]></name><cmt><![CDATA[Braeriach]]></cmt><desc><![CDATA[Braeriach]]></desc><sym>filled circle</sym></wpt>
<wpt lat="56.919148" lon="-3.249082"><ele>998.00</ele><name><![CDATA[Broad Cairn]]></name><cmt><![CDATA[Broad Cairn]]></cmt><desc><![CDATA[Broad Cairn]]></desc><sym>filled circle</sym></wpt>
<wpt lat="57.246743" lon="-6.210776"><ele>958.80</ele><name><![CDATA[Bruach na Frithe]]></name><cmt><![CDATA[Bruach na Frithe]]></cmt><desc><![CDATA[Bruach na Frithe]]></desc><sym>filled circle</sym></wpt>
<wpt lat="56.649929" lon="-4.951685"><ele>925.00</ele><name><![CDATA[Buachaille Etive Beag-Stob Coire Raineach]]></name><cmt><![CDATA[Buachaille Etive Beag-Stob Coire Raineach]]></cmt><desc><![CDATA[Buachaille Etive Beag-Stob Coire Raineach]]></desc><sym>filled circle</sym></wpt>
<wpt lat="56.638158" lon="-4.970763"><ele>958.00</ele><name><![CDATA[Buachaille Etive Beag-Stob Dubh]]></name><cmt><![CDATA[Buachaille Etive Beag-Stob Dubh]]></cmt><desc><![CDATA[Buachaille Etive Beag-Stob Dubh]]></desc><sym>filled circle</sym></wpt>
<wpt lat="56.646229" lon="-4.900329"><ele>1021.40</ele><name><![CDATA[Buachaille Etive Mor-Stob Dearg]]></name><cmt><![CDATA[Buachaille Etive Mor-Stob Dearg]]></cmt><desc><![CDATA[Buachaille Etive Mor-Stob Dearg]]></desc><sym>filled circle</sym></wpt>
<wpt lat="56.629879" lon="-4.951146"><ele>953.40</ele><name><![CDATA[Buachaille Etive Mor-Stob na Broige]]></name><cmt><![CDATA[Buachaille Etive Mor-Stob na Broige]]></cmt><desc><![CDATA[Buachaille Etive Mor-Stob na Broige]]></desc><sym>filled circle</sym></wpt>
<wpt lat="57.13822" lon="-3.584716"><ele>1090.00</ele><name><![CDATA[Bynack More]]></name><cmt><![CDATA[Bynack More]]></cmt><desc><![CDATA[Bynack More]]></desc><sym>filled circle</sym></wpt>
<wpt lat="56.927728" lon="-3.278403"><ele>1012.00</ele><name><![CDATA[Cairn Bannoch]]></name><cmt><![CDATA[Cairn Bannoch]]></cmt><desc><![CDATA[Cairn Bannoch]]></desc><sym>filled circle</sym></wpt>
<wpt lat="57.116714" lon="-3.644477"><ele>1244.80</ele><name><![CDATA[Cairn Gorm]]></name><cmt><![CDATA[Cairn Gorm]]></cmt><desc><![CDATA[Cairn Gorm]]></desc><sym>filled circle</sym></wpt>
<wpt lat="56.89417" lon="-3.338637"><ele>1064.00</ele><name><![CDATA[Cairn of Claise]]></name><cmt><![CDATA[Cairn of Claise]]></cmt><desc><![CDATA[Cairn of Claise]]></desc><sym>filled circle</sym></wpt>
<wpt lat="57.054406" lon="-3.710774"><ele>1291.00</ele><name><![CDATA[Cairn Toul]]></name><cmt><![CDATA[Cairn Toul]]></cmt><desc><![CDATA[Cairn Toul]]></desc><sym>filled circle</sym></wpt>
<wpt lat="56.860965" lon="-3.779634"><ele>963.50</ele><name><![CDATA[Carn a' Chlamain]]></name><cmt><![CDATA[Carn a' Chlamain]]></cmt><desc><![CDATA[Carn a' Chlamain]]></desc><sym>filled circle</sym></wpt>
<wpt lat="56.945773" lon="-3.272707"><ele>1109.90</ele><name><![CDATA[Carn a' Choire Bhoidheach]]></name><cmt><![CDATA[Carn a' Choire Bhoidheach]]></cmt><desc><![CDATA[Carn a' Choire Bhoidheach]]></desc><sym>filled circle</sym></wpt>
<wpt lat="56.873065" lon="-3.466616"><ele>975.00</ele><name><![CDATA[Carn a' Gheoidh]]></name><cmt><![CDATA[Carn a' Gheoidh]]></cmt><desc><![CDATA[Carn a' Gheoidh]]></desc><sym>filled circle</sym></wpt>
<wpt lat="57.036871" lon="-3.658384"><ele>1037.00</ele><name><![CDATA[Carn a' Mhaim]]></name><cmt><![CDATA[Carn a' Mhaim]]></cmt><desc><![CDATA[Carn a' Mhaim]]></desc><sym>filled circle</sym></wpt>
<wpt lat="56.93602" lon="-3.801534"><ele>994.00</ele><name><![CDATA[Carn an Fhidhleir (Carn Ealar)]]></name><cmt><![CDATA[Carn an Fhidhleir (Carn Ealar)]]></cmt><desc><![CDATA[Carn an Fhidhleir (Carn Ealar)]]></desc><sym>filled circle</sym></wpt>
<wpt lat="56.876583" lon="-3.595273"><ele>1029.00</ele><name><![CDATA[Carn an Righ]]></name><cmt><![CDATA[Carn an Righ]]></cmt><desc><![CDATA[Carn an Righ]]></desc><sym>filled circle</sym></wpt>
<wpt lat="56.942973" lon="-3.303227"><ele>1047.00</ele><name><![CDATA[Carn an t-Sagairt Mor]]></name><cmt><![CDATA[Carn an t-Sagairt Mor]]></cmt><desc><![CDATA[Carn an t-Sagairt Mor]]></desc><sym>filled circle</sym></wpt>
<wpt lat="56.908274" lon="-3.357125"><ele>1019.00</ele><name><![CDATA[Carn an Tuirc]]></name><cmt><![CDATA[Carn an Tuirc]]></cmt><desc><![CDATA[Carn an Tuirc]]></desc><sym>filled circle</sym></wpt>
<wpt lat="56.895696" lon="-3.423274"><ele>915.30</ele><name><![CDATA[Carn Aosda]]></name><cmt><![CDATA[Carn Aosda]]></cmt><desc><![CDATA[Carn Aosda]]></desc><sym>filled circle</sym></wpt>
<wpt lat="56.930541" lon="-3.56088"><ele>945.10</ele><name><![CDATA[Carn Bhac]]></name><cmt><![CDATA[Carn Bhac]]></cmt><desc><![CDATA[Carn Bhac]]></desc><sym>filled circle</sym></wpt>
<wpt lat="56.855242" lon="-4.454693"><ele>1034.00</ele><name><![CDATA[Carn Dearg]]></name><cmt><![CDATA[Carn Dearg]]></cmt><desc><![CDATA[Carn Dearg]]></desc><sym>filled circle</sym></wpt>
<wpt lat="57.092261" lon="-4.253246"><ele>945.70</ele><name><![CDATA[Carn Dearg]]></name><cmt><![CDATA[Carn Dearg]]></cmt><desc><![CDATA[Carn Dearg]]></desc><sym>filled circle</sym></wpt>
<wpt lat="56.759931" lon="-4.589888"><ele>941.00</ele><name><![CDATA[Carn Dearg]]></name><cmt><![CDATA[Carn Dearg]]></cmt><desc><![CDATA[Carn Dearg]]></desc><sym>filled circle</sym></wpt>
<wpt lat="57.287701" lon="-5.115159"><ele>1182.80</ele><name><![CDATA[Carn Eighe (Carn Eige)]]></name><cmt><![CDATA[Carn Eighe (Carn Eige)]]></cmt><desc><![CDATA[Carn Eighe (Carn Eige)]]></desc><sym>filled circle</sym></wpt>
<wpt lat="57.165959" lon="-5.068159"><ele>957.00</ele><name><![CDATA[Carn Ghluasaid]]></name><cmt><![CDATA[Carn Ghluasaid]]></cmt><desc><![CDATA[Carn Ghluasaid]]></desc><sym>filled circle</sym></wpt>
<wpt lat="56.622599" lon="-4.226073"><ele>1029.00</ele><name><![CDATA[Carn Gorm]]></name><cmt><![CDATA[Carn Gorm]]></cmt><desc><![CDATA[Carn Gorm]]></desc><sym>filled circle</sym></wpt>
<wpt lat="56.978793" lon="-4.515305"><ele>1006.00</ele><name><![CDATA[Carn Liath]]></name><cmt><![CDATA[Carn Liath]]></cmt><desc><![CDATA[Carn Liath]]></desc><sym>filled circle</sym></wpt>
<wpt lat="56.634635" lon="-4.145608"><ele>1042.00</ele><name><![CDATA[Carn Mairg]]></name><cmt><![CDATA[Carn Mairg]]></cmt><desc><![CDATA[Carn Mairg]]></desc><sym>filled circle</sym></wpt>
<wpt lat="56.805246" lon="-4.986616"><ele>1220.00</ele><name><![CDATA[Carn Mor Dearg]]></name><cmt><![CDATA[Carn Mor Dearg]]></cmt><desc><![CDATA[Carn Mor Dearg]]></desc><sym>filled circle</sym></wpt>
<wpt lat="56.911739" lon="-4.174478"><ele>940.80</ele><name><![CDATA[Carn na Caim]]></name><cmt><![CDATA[Carn na Caim]]></cmt><desc><![CDATA[Carn na Caim]]></desc><sym>filled circle</sym></wpt>
<wpt lat="57.363304" lon="-5.024544"><ele>993.00</ele><name><![CDATA[Carn nan Gobhar]]></name><cmt><![CDATA[Carn nan Gobhar]]></cmt><desc><![CDATA[Carn nan Gobhar]]></desc><sym>filled circle</sym></wpt>
<wpt lat="57.452331" lon="-4.879935"><ele>992.00</ele><name><![CDATA[Carn nan Gobhar]]></name><cmt><![CDATA[Carn nan Gobhar]]></cmt><desc><![CDATA[Carn nan Gobhar]]></desc><sym>filled circle</sym></wpt>
<wpt lat="57.124371" lon="-4.176986"><ele>920.30</ele><name><![CDATA[Carn Sgulain]]></name><cmt><![CDATA[Carn Sgulain]]></cmt><desc><![CDATA[Carn Sgulain]]></desc><sym>filled circle</sym></wpt>
<wpt lat="56.830086" lon="-4.660831"><ele>1046.00</ele><name><![CDATA[Chno Dearg]]></name><cmt><![CDATA[Chno Dearg]]></cmt><desc><![CDATA[Chno Dearg]]></desc><sym>filled circle</sym></wpt>
<wpt lat="57.199234" lon="-5.209032"><ele>981.10</ele><name><![CDATA[Ciste Dhubh]]></name><cmt><![CDATA[Ciste Dhubh]]></cmt><desc><![CDATA[Ciste Dhubh]]></desc><sym>filled circle</sym></wpt>
<wpt lat="57.791077" lon="-4.903418"><ele>978.00</ele><name><![CDATA[Cona' Mheall]]></name><cmt><![CDATA[Cona' Mheall]]></cmt><desc><![CDATA[Cona' Mheall]]></desc><sym>filled circle</sym></wpt>
<wpt lat="58.135689" lon="-4.883497"><ele>987.00</ele><name><![CDATA[Conival]]></name><cmt><![CDATA[Conival]]></cmt><desc><![CDATA[Conival]]></desc><sym>filled circle</sym></wpt>
<wpt lat="57.120971" lon="-5.160048"><ele>946.00</ele><name><![CDATA[Creag a' Mhaim]]></name><cmt><![CDATA[Creag a' Mhaim]]></cmt><desc><![CDATA[Creag a' Mhaim]]></desc><sym>filled circle</sym></wpt>
<wpt lat="56.854631" lon="-3.387751"><ele>988.20</ele><name><![CDATA[Creag Leacach]]></name><cmt><![CDATA[Creag Leacach]]></cmt><desc><![CDATA[Creag Leacach]]></desc><sym>filled circle</sym></wpt>
<wpt lat="56.952033" lon="-4.602101"><ele>1128.00</ele><name><![CDATA[Creag Meagaidh]]></name><cmt><![CDATA[Creag Meagaidh]]></cmt><desc><![CDATA[Creag Meagaidh]]></desc><sym>filled circle</sym></wpt>
<wpt lat="56.489519" lon="-4.614022"><ele>1047.00</ele><name><![CDATA[Creag Mhor]]></name><cmt><![CDATA[Creag Mhor]]></cmt><desc><![CDATA[Creag Mhor]]></desc><sym>filled circle</sym></wpt>
<wpt lat="57.147262" lon="-5.33496"><ele>917.20</ele><name><![CDATA[Creag nan Damh]]></name><cmt><![CDATA[Creag nan Damh]]></cmt><desc><![CDATA[Creag nan Damh]]></desc><sym>filled circle</sym></wpt>
<wpt lat="56.899713" lon="-4.484955"><ele>924.00</ele><name><![CDATA[Creag Pitridh]]></name><cmt><![CDATA[Creag Pitridh]]></cmt><desc><![CDATA[Creag Pitridh]]></desc><sym>filled circle</sym></wpt>
<wpt lat="56.614448" lon="-4.871987"><ele>1099.80</ele><name><![CDATA[Creise]]></name><cmt><![CDATA[Creise]]></cmt><desc><![CDATA[Creise]]></desc><sym>filled circle</sym></wpt>
<wpt lat="56.356429" lon="-4.576151"><ele>1045.90</ele><name><![CDATA[Cruach Ardrain]]></name><cmt><![CDATA[Cruach Ardrain]]></cmt><desc><![CDATA[Cruach Ardrain]]></desc><sym>filled circle</sym></wpt>
<wpt lat="57.062801" lon="-3.622004"><ele>1155.00</ele><name><![CDATA[Derry Cairngorm]]></name><cmt><![CDATA[Derry Cairngorm]]></cmt><desc><![CDATA[Derry Cairngorm]]></desc><sym>filled circle</sym></wpt>
<wpt lat="56.847985" lon="-3.196538"><ele>947.00</ele><name><![CDATA[Driesh]]></name><cmt><![CDATA[Driesh]]></cmt><desc><![CDATA[Driesh]]></desc><sym>filled circle</sym></wpt>
<wpt lat="57.126803" lon="-5.182842"><ele>987.00</ele><name><![CDATA[Druim Shionnach]]></name><cmt><![CDATA[Druim Shionnach]]></cmt><desc><![CDATA[Druim Shionnach]]></desc><sym>filled circle</sym></wpt>
<wpt lat="57.813501" lon="-4.934202"><ele>927.00</ele><name><![CDATA[Eididh nan Clach Geala]]></name><cmt><![CDATA[Eididh nan Clach Geala]]></cmt><desc><![CDATA[Eididh nan Clach Geala]]></desc><sym>filled circle</sym></wpt>
<wpt lat="57.611148" lon="-5.102713"><ele>933.00</ele><name><![CDATA[Fionn Bheinn]]></name><cmt><![CDATA[Fionn Bheinn]]></cmt><desc><![CDATA[Fionn Bheinn]]></desc><sym>filled circle</sym></wpt>
<wpt lat="57.044879" lon="-5.255827"><ele>919.00</ele><name><![CDATA[Gairich]]></name><cmt><![CDATA[Gairich]]></cmt><desc><![CDATA[Gairich]]></desc><sym>filled circle</sym></wpt>
<wpt lat="57.008556" lon="-5.444322"><ele>1012.90</ele><name><![CDATA[Garbh Chioch Mhor]]></name><cmt><![CDATA[Garbh Chioch Mhor]]></cmt><desc><![CDATA[Garbh Chioch Mhor]]></desc><sym>filled circle</sym></wpt>
<wpt lat="56.897763" lon="-4.457236"><ele>1049.00</ele><name><![CDATA[Geal Charn]]></name><cmt><![CDATA[Geal Charn]]></cmt><desc><![CDATA[Geal Charn]]></desc><sym>filled circle</sym></wpt>
<wpt lat="57.057418" lon="-4.373572"><ele>926.00</ele><name><![CDATA[Geal Charn]]></name><cmt><![CDATA[Geal Charn]]></cmt><desc><![CDATA[Geal Charn]]></desc><sym>filled circle</sym></wpt>
<wpt lat="56.837836" lon="-4.50971"><ele>1132.00</ele><name><![CDATA[Geal-charn]]></name><cmt><![CDATA[Geal-charn]]></cmt><desc><![CDATA[Geal-charn]]></desc><sym>filled circle</sym></wpt>
<wpt lat="56.874433" lon="-4.304519"><ele>917.10</ele><name><![CDATA[Geal-charn]]></name><cmt><![CDATA[Geal-charn]]></cmt><desc><![CDATA[Geal-charn]]></desc><sym>filled circle</sym></wpt>
<wpt lat="56.542416" lon="-5.005267"><ele>997.70</ele><name><![CDATA[Glas Bheinn Mhor]]></name><cmt><![CDATA[Glas Bheinn Mhor]]></cmt><desc><![CDATA[Glas Bheinn Mhor]]></desc><sym>filled circle</sym></wpt>
<wpt lat="56.873059" lon="-3.368236"><ele>1068.00</ele><name><![CDATA[Glas Maol]]></name><cmt><![CDATA[Glas Maol]]></cmt><desc><![CDATA[Glas Maol]]></desc><sym>filled circle</sym></wpt>
<wpt lat="56.865757" lon="-3.558163"><ele>1051.00</ele><name><![CDATA[Glas Tulaichean]]></name><cmt><![CDATA[Glas Tulaichean]]></cmt><desc><![CDATA[Glas Tulaichean]]></desc><sym>filled circle</sym></wpt>
<wpt lat="57.097163" lon="-5.238035"><ele>1035.00</ele><name><![CDATA[Gleouraich]]></name><cmt><![CDATA[Gleouraich]]></cmt><desc><![CDATA[Gleouraich]]></desc><sym>filled circle</sym></wpt>
<wpt lat="56.936211" lon="-5.284511"><ele>987.00</ele><name><![CDATA[Gulvain (Gaor Bheinn)]]></name><cmt><![CDATA[Gulvain (Gaor Bheinn)]]></cmt><desc><![CDATA[Gulvain (Gaor Bheinn)]]></desc><sym>filled circle</sym></wpt>
<wpt lat="57.075263" lon="-5.591745"><ele>1020.00</ele><name><![CDATA[Ladhar Bheinn]]></name><cmt><![CDATA[Ladhar Bheinn]]></cmt><desc><![CDATA[Ladhar Bheinn]]></desc><sym>filled circle</sym></wpt>
<wpt lat="57.560875" lon="-5.492498"><ele>1023.80</ele><name><![CDATA[Liathach-Mullach an Rathain]]></name><cmt><![CDATA[Liathach-Mullach an Rathain]]></cmt><desc><![CDATA[Liathach-Mullach an Rathain]]></desc><sym>filled circle</sym></wpt>
<wpt lat="57.564188" lon="-5.463608"><ele>1054.80</ele><name><![CDATA[Liathach-Spidean a' Choire Leith]]></name><cmt><![CDATA[Liathach-Spidean a' Choire Leith]]></cmt><desc><![CDATA[Liathach-Spidean a' Choire Leith]]></desc><sym>filled circle</sym></wpt>
<wpt lat="56.960272" lon="-3.245261"><ele>1155.70</ele><name><![CDATA[Lochnagar-Cac Carn Beag]]></name><cmt><![CDATA[Lochnagar-Cac Carn Beag]]></cmt><desc><![CDATA[Lochnagar-Cac Carn Beag]]></desc><sym>filled circle</sym></wpt>
<wpt lat="57.048325" lon="-5.513607"><ele>939.00</ele><name><![CDATA[Luinne Bheinn]]></name><cmt><![CDATA[Luinne Bheinn]]></cmt><desc><![CDATA[Luinne Bheinn]]></desc><sym>filled circle</sym></wpt>
<wpt lat="57.413091" lon="-5.223666"><ele>987.00</ele><name><![CDATA[Lurg Mhor]]></name><cmt><![CDATA[Lurg Mhor]]></cmt><desc><![CDATA[Lurg Mhor]]></desc><sym>filled circle</sym></wpt>
<wpt lat="57.279801" lon="-5.120267"><ele>1179.40</ele><name><![CDATA[Mam Sodhail]]></name><cmt><![CDATA[Mam Sodhail]]></cmt><desc><![CDATA[Mam Sodhail]]></desc><sym>filled circle</sym></wpt>
<wpt lat="57.464477" lon="-5.111002"><ele>1004.90</ele><name><![CDATA[Maoile Lunndaidh]]></name><cmt><![CDATA[Maoile Lunndaidh]]></cmt><desc><![CDATA[Maoile Lunndaidh]]></desc><sym>filled circle</sym></wpt>
<wpt lat="57.491697" lon="-5.465549"><ele>933.00</ele><name><![CDATA[Maol Chean-dearg]]></name><cmt><![CDATA[Maol Chean-dearg]]></cmt><desc><![CDATA[Maol Chean-dearg]]></desc><sym>filled circle</sym></wpt>
<wpt lat="57.12756" lon="-5.252651"><ele>980.30</ele><name><![CDATA[Maol Chinn-dearg]]></name><cmt><![CDATA[Maol Chinn-dearg]]></cmt><desc><![CDATA[Maol Chinn-dearg]]></desc><sym>filled circle</sym></wpt>
<wpt lat="56.848936" lon="-3.246299"><ele>928.00</ele><name><![CDATA[Mayar]]></name><cmt><![CDATA[Mayar]]></cmt><desc><![CDATA[Mayar]]></desc><sym>filled circle</sym></wpt>
<wpt lat="56.612217" lon="-4.852127"><ele>1107.90</ele><name><![CDATA[Meall a' Bhuiridh]]></name><cmt><![CDATA[Meall a' Bhuiridh]]></cmt><desc><![CDATA[Meall a' Bhuiridh]]></desc><sym>filled circle</sym></wpt>
<wpt lat="56.566312" lon="-4.259617"><ele>925.60</ele><name><![CDATA[Meall a' Choire Leith]]></name><cmt><![CDATA[Meall a' Choire Leith]]></cmt><desc><![CDATA[Meall a' Choire Leith]]></desc><sym>filled circle</sym></wpt>
<wpt lat="57.712866" lon="-5.048742"><ele>934.00</ele><name><![CDATA[Meall a' Chrasgaidh]]></name><cmt><![CDATA[Meall a' Chrasgaidh]]></cmt><desc><![CDATA[Meall a' Chrasgaidh]]></desc><sym>filled circle</sym></wpt>
<wpt lat="57.031552" lon="-5.546334"><ele>946.00</ele><name><![CDATA[Meall Buidhe]]></name><cmt><![CDATA[Meall Buidhe]]></cmt><desc><![CDATA[Meall Buidhe]]></desc><sym>filled circle</sym></wpt>
<wpt lat="56.617222" lon="-4.44864"><ele>932.10</ele><name><![CDATA[Meall Buidhe]]></name><cmt><![CDATA[Meall Buidhe]]></cmt><desc><![CDATA[Meall Buidhe]]></desc><sym>filled circle</sym></wpt>
<wpt lat="56.963859" lon="-4.112569"><ele>951.00</ele><name><![CDATA[Meall Chuaich]]></name><cmt><![CDATA[Meall Chuaich]]></cmt><desc><![CDATA[Meall Chuaich]]></desc><sym>filled circle</sym></wpt>
<wpt lat="56.540946" lon="-4.253469"><ele>1069.00</ele><name><![CDATA[Meall Corranaich]]></name><cmt><![CDATA[Meall Corranaich]]></cmt><desc><![CDATA[Meall Corranaich]]></desc><sym>filled circle</sym></wpt>
<wpt lat="56.566122" lon="-4.207714"><ele>1123.10</ele><name><![CDATA[Meall Garbh]]></name><cmt><![CDATA[Meall Garbh]]></cmt><desc><![CDATA[Meall Garbh]]></desc><sym>filled circle</sym></wpt>
<wpt lat="56.637381" lon="-4.207472"><ele>968.00</ele><name><![CDATA[Meall Garbh]]></name><cmt><![CDATA[Meall Garbh]]></cmt><desc><![CDATA[Meall Garbh]]></desc><sym>filled circle</sym></wpt>
<wpt lat="56.525809" lon="-4.416654"><ele>1039.80</ele><name><![CDATA[Meall Ghaordaidh]]></name><cmt><![CDATA[Meall Ghaordaidh]]></cmt><desc><![CDATA[Meall Ghaordaidh]]></desc><sym>filled circle</sym></wpt>
<wpt lat="56.455712" lon="-4.546821"><ele>959.00</ele><name><![CDATA[Meall Glas]]></name><cmt><![CDATA[Meall Glas]]></cmt><desc><![CDATA[Meall Glas]]></desc><sym>filled circle</sym></wpt>
<wpt lat="57.680846" lon="-4.983802"><ele>949.00</ele><name><![CDATA[Meall Gorm]]></name><cmt><![CDATA[Meall Gorm]]></cmt><desc><![CDATA[Meall Gorm]]></desc><sym>filled circle</sym></wpt>
<wpt lat="56.567426" lon="-4.159559"><ele>1001.00</ele><name><![CDATA[Meall Greigh]]></name><cmt><![CDATA[Meall Greigh]]></cmt><desc><![CDATA[Meall Greigh]]></desc><sym>filled circle</sym></wpt>
<wpt lat="56.620627" lon="-4.128741"><ele>981.00</ele><name><![CDATA[Meall na Aighean]]></name><cmt><![CDATA[Meall na Aighean]]></cmt><desc><![CDATA[Meall na Aighean]]></desc><sym>filled circle</sym></wpt>
<wpt lat="56.989012" lon="-4.930955"><ele>916.80</ele><name><![CDATA[Meall na Teanga]]></name><cmt><![CDATA[Meall na Teanga]]></cmt><desc><![CDATA[Meall na Teanga]]></desc><sym>filled circle</sym></wpt>
<wpt lat="57.798514" lon="-4.934012"><ele>977.00</ele><name><![CDATA[Meall nan Ceapraichean]]></name><cmt><![CDATA[Meall nan Ceapraichean]]></cmt><desc><![CDATA[Meall nan Ceapraichean]]></desc><sym>filled circle</sym></wpt>
<wpt lat="56.561176" lon="-4.942926"><ele>928.00</ele><name><![CDATA[Meall nan Eun]]></name><cmt><![CDATA[Meall nan Eun]]></cmt><desc><![CDATA[Meall nan Eun]]></desc><sym>filled circle</sym></wpt>
<wpt lat="56.521655" lon="-4.301343"><ele>1043.50</ele><name><![CDATA[Meall nan Tarmachan]]></name><cmt><![CDATA[Meall nan Tarmachan]]></cmt><desc><![CDATA[Meall nan Tarmachan]]></desc><sym>filled circle</sym></wpt>
<wpt lat="57.026791" lon="-3.750086"><ele>1113.00</ele><name><![CDATA[Monadh Mor]]></name><cmt><![CDATA[Monadh Mor]]></cmt><desc><![CDATA[Monadh Mor]]></desc><sym>filled circle</sym></wpt>
<wpt lat="57.499712" lon="-5.17063"><ele>928.00</ele><name><![CDATA[Moruisg]]></name><cmt><![CDATA[Moruisg]]></cmt><desc><![CDATA[Moruisg]]></desc><sym>filled circle</sym></wpt>
<wpt lat="56.969751" lon="-2.973622"><ele>939.00</ele><name><![CDATA[Mount Keen]]></name><cmt><![CDATA[Mount Keen]]></cmt><desc><![CDATA[Mount Keen]]></desc><sym>filled circle</sym></wpt>
<wpt lat="57.011879" lon="-3.841287"><ele>1019.00</ele><name><![CDATA[Mullach Clach a' Bhlair]]></name><cmt><![CDATA[Mullach Clach a' Bhlair]]></cmt><desc><![CDATA[Mullach Clach a' Bhlair]]></desc><sym>filled circle</sym></wpt>
<wpt lat="57.709022" lon="-5.271342"><ele>1015.20</ele><name><![CDATA[Mullach Coire Mhic Fhearchair]]></name><cmt><![CDATA[Mullach Coire Mhic Fhearchair]]></cmt><desc><![CDATA[Mullach Coire Mhic Fhearchair]]></desc><sym>filled circle</sym></wpt>
<wpt lat="57.205379" lon="-5.155652"><ele>1102.00</ele><name><![CDATA[Mullach Fraoch-choire]]></name><cmt><![CDATA[Mullach Fraoch-choire]]></cmt><desc><![CDATA[Mullach Fraoch-choire]]></desc><sym>filled circle</sym></wpt>
<wpt lat="57.283399" lon="-5.18635"><ele>982.00</ele><name><![CDATA[Mullach na Dheiragain]]></name><cmt><![CDATA[Mullach na Dheiragain]]></cmt><desc><![CDATA[Mullach na Dheiragain]]></desc><sym>filled circle</sym></wpt>
<wpt lat="56.749866" lon="-5.072446"><ele>939.30</ele><name><![CDATA[Mullach nan Coirean]]></name><cmt><![CDATA[Mullach nan Coirean]]></cmt><desc><![CDATA[Mullach nan Coirean]]></desc><sym>filled circle</sym></wpt>
<wpt lat="56.743689" lon="-4.939883"><ele>1054.20</ele><name><![CDATA[Na Gruagaichean]]></name><cmt><![CDATA[Na Gruagaichean]]></cmt><desc><![CDATA[Na Gruagaichean]]></desc><sym>filled circle</sym></wpt>
<wpt lat="57.726781" lon="-5.329288"><ele>918.70</ele><name><![CDATA[Ruadh Stac Mor]]></name><cmt><![CDATA[Ruadh Stac Mor]]></cmt><desc><![CDATA[Ruadh Stac Mor]]></desc><sym>filled circle</sym></wpt>
<wpt lat="57.191805" lon="-5.091081"><ele>1002.00</ele><name><![CDATA[Sail Chaorainn (Sail Chaoruinn)]]></name><cmt><![CDATA[Sail Chaorainn (Sail Chaoruinn)]]></cmt><desc><![CDATA[Sail Chaorainn (Sail Chaoruinn)]]></desc><sym>filled circle</sym></wpt>
<wpt lat="57.181264" lon="-5.281331"><ele>956.00</ele><name><![CDATA[Saileag]]></name><cmt><![CDATA[Saileag]]></cmt><desc><![CDATA[Saileag]]></desc><sym>filled circle</sym></wpt>
<wpt lat="56.666933" lon="-4.100229"><ele>1083.00</ele><name><![CDATA[Schiehallion]]></name><cmt><![CDATA[Schiehallion]]></cmt><desc><![CDATA[Schiehallion]]></desc><sym>filled circle</sym></wpt>
<wpt lat="57.84733" lon="-4.89662"><ele>926.00</ele><name><![CDATA[Seana Bhraigh]]></name><cmt><![CDATA[Seana Bhraigh]]></cmt><desc><![CDATA[Seana Bhraigh]]></desc><sym>filled circle</sym></wpt>
<wpt lat="56.828447" lon="-4.297792"><ele>991.00</ele><name><![CDATA[Sgairneach Mhor]]></name><cmt><![CDATA[Sgairneach Mhor]]></cmt><desc><![CDATA[Sgairneach Mhor]]></desc><sym>filled circle</sym></wpt>
<wpt lat="56.453147" lon="-4.495654"><ele>920.00</ele><name><![CDATA[Sgiath Chuil]]></name><cmt><![CDATA[Sgiath Chuil]]></cmt><desc><![CDATA[Sgiath Chuil]]></desc><sym>filled circle</sym></wpt>
<wpt lat="57.058367" lon="-3.725896"><ele>1258.00</ele><name><![CDATA[Sgor an Lochain Uaine]]></name><cmt><![CDATA[Sgor an Lochain Uaine]]></cmt><desc><![CDATA[Sgor an Lochain Uaine]]></desc><sym>filled circle</sym></wpt>
<wpt lat="56.772553" lon="-4.546498"><ele>955.00</ele><name><![CDATA[Sgor Gaibhre]]></name><cmt><![CDATA[Sgor Gaibhre]]></cmt><desc><![CDATA[Sgor Gaibhre]]></desc><sym>filled circle</sym></wpt>
<wpt lat="57.068561" lon="-3.810856"><ele>1118.00</ele><name><![CDATA[Sgor Gaoith]]></name><cmt><![CDATA[Sgor Gaoith]]></cmt><desc><![CDATA[Sgor Gaoith]]></desc><sym>filled circle</sym></wpt>
<wpt lat="57.498622" lon="-5.407747"><ele>960.70</ele><name><![CDATA[Sgorr Ruadh]]></name><cmt><![CDATA[Sgorr Ruadh]]></cmt><desc><![CDATA[Sgorr Ruadh]]></desc><sym>filled circle</sym></wpt>
<wpt lat="57.177825" lon="-5.252177"><ele>1036.00</ele><name><![CDATA[Sgurr a' Bhealaich Dheirg]]></name><cmt><![CDATA[Sgurr a' Bhealaich Dheirg]]></cmt><desc><![CDATA[Sgurr a' Bhealaich Dheirg]]></desc><sym>filled circle</sym></wpt>
<wpt lat="57.452501" lon="-5.189301"><ele>1053.00</ele><name><![CDATA[Sgurr a' Chaorachain]]></name><cmt><![CDATA[Sgurr a' Chaorachain]]></cmt><desc><![CDATA[Sgurr a' Chaorachain]]></desc><sym>filled circle</sym></wpt>
<wpt lat="57.444288" lon="-4.903757"><ele>1083.00</ele><name><![CDATA[Sgurr a' Choire Ghlais]]></name><cmt><![CDATA[Sgurr a' Choire Ghlais]]></cmt><desc><![CDATA[Sgurr a' Choire Ghlais]]></desc><sym>filled circle</sym></wpt>
<wpt lat="57.227313" lon="-6.234425"><ele>972.10</ele><name><![CDATA[Sgurr a' Ghreadaidh]]></name><cmt><![CDATA[Sgurr a' Ghreadaidh]]></cmt><desc><![CDATA[Sgurr a' Ghreadaidh]]></desc><sym>filled circle</sym></wpt>
<wpt lat="57.230869" lon="-6.231931"><ele>918.00</ele><name><![CDATA[Sgurr a' Mhadaidh]]></name><cmt><![CDATA[Sgurr a' Mhadaidh]]></cmt><desc><![CDATA[Sgurr a' Mhadaidh]]></desc><sym>filled circle</sym></wpt>
<wpt lat="56.75592" lon="-5.00369"><ele>1099.00</ele><name><![CDATA[Sgurr a' Mhaim]]></name><cmt><![CDATA[Sgurr a' Mhaim]]></cmt><desc><![CDATA[Sgurr a' Mhaim]]></desc><sym>filled circle</sym></wpt>
<wpt lat="57.105849" lon="-5.330509"><ele>1027.00</ele><name><![CDATA[Sgurr a' Mhaoraich]]></name><cmt><![CDATA[Sgurr a' Mhaoraich]]></cmt><desc><![CDATA[Sgurr a' Mhaoraich]]></desc><sym>filled circle</sym></wpt>
<wpt lat="57.206588" lon="-6.224176"><ele>992.00</ele><name><![CDATA[Sgurr Alasdair]]></name><cmt><![CDATA[Sgurr Alasdair]]></cmt><desc><![CDATA[Sgurr Alasdair]]></desc><sym>filled circle</sym></wpt>
<wpt lat="57.136879" lon="-5.281532"><ele>1010.00</ele><name><![CDATA[Sgurr an Doire Leathain]]></name><cmt><![CDATA[Sgurr an Doire Leathain]]></cmt><desc><![CDATA[Sgurr an Doire Leathain]]></desc><sym>filled circle</sym></wpt>
<wpt lat="57.141296" lon="-5.297483"><ele>1004.00</ele><name><![CDATA[Sgurr an Lochain]]></name><cmt><![CDATA[Sgurr an Lochain]]></cmt><desc><![CDATA[Sgurr an Lochain]]></desc><sym>filled circle</sym></wpt>
<wpt lat="57.718538" lon="-5.265903"><ele>989.00</ele><name><![CDATA[Sgurr Ban]]></name><cmt><![CDATA[Sgurr Ban]]></cmt><desc><![CDATA[Sgurr Ban]]></desc><sym>filled circle</sym></wpt>
<wpt lat="57.692067" lon="-5.091724"><ele>999.00</ele><name><![CDATA[Sgurr Breac]]></name><cmt><![CDATA[Sgurr Breac]]></cmt><desc><![CDATA[Sgurr Breac]]></desc><sym>filled circle</sym></wpt>
<wpt lat="57.451026" lon="-5.207916"><ele>999.20</ele><name><![CDATA[Sgurr Choinnich]]></name><cmt><![CDATA[Sgurr Choinnich]]></cmt><desc><![CDATA[Sgurr Choinnich]]></desc><sym>filled circle</sym></wpt>
<wpt lat="56.80043" lon="-4.90396"><ele>1094.00</ele><name><![CDATA[Sgurr Choinnich Mor]]></name><cmt><![CDATA[Sgurr Choinnich Mor]]></cmt><desc><![CDATA[Sgurr Choinnich Mor]]></desc><sym>filled circle</sym></wpt>
<wpt lat="57.213252" lon="-6.234817"><ele>985.80</ele><name><![CDATA[Sgurr Dearg-Inaccessible Pinnacle]]></name><cmt><![CDATA[Sgurr Dearg-Inaccessible Pinnacle]]></cmt><desc><![CDATA[Sgurr Dearg-Inaccessible Pinnacle]]></desc><sym>filled circle</sym></wpt>
<wpt lat="57.204894" lon="-6.211421"><ele>944.00</ele><name><![CDATA[Sgurr Dubh Mor]]></name><cmt><![CDATA[Sgurr Dubh Mor]]></cmt><desc><![CDATA[Sgurr Dubh Mor]]></desc><sym>filled circle</sym></wpt>
<wpt lat="56.750015" lon="-4.895436"><ele>1010.00</ele><name><![CDATA[Sgurr Eilde Mor]]></name><cmt><![CDATA[Sgurr Eilde Mor]]></cmt><desc><![CDATA[Sgurr Eilde Mor]]></desc><sym>filled circle</sym></wpt>
<wpt lat="57.44968" lon="-4.94178"><ele>1049.00</ele><name><![CDATA[Sgurr Fhuar-thuill]]></name><cmt><![CDATA[Sgurr Fhuar-thuill]]></cmt><desc><![CDATA[Sgurr Fhuar-thuill]]></desc><sym>filled circle</sym></wpt>
<wpt lat="57.19615" lon="-5.34765"><ele>1068.70</ele><name><![CDATA[Sgurr Fhuaran]]></name><cmt><![CDATA[Sgurr Fhuaran]]></cmt><desc><![CDATA[Sgurr Fhuaran]]></desc><sym>filled circle</sym></wpt>
<wpt lat="57.208928" lon="-6.224112"><ele>948.10</ele><name><![CDATA[Sgurr Mhic Choinnich]]></name><cmt><![CDATA[Sgurr Mhic Choinnich]]></cmt><desc><![CDATA[Sgurr Mhic Choinnich]]></desc><sym>filled circle</sym></wpt>
<wpt lat="57.700133" lon="-5.016765"><ele>1109.00</ele><name><![CDATA[Sgurr Mor]]></name><cmt><![CDATA[Sgurr Mor]]></cmt><desc><![CDATA[Sgurr Mor]]></desc><sym>filled circle</sym></wpt>
<wpt lat="57.028446" lon="-5.354189"><ele>1003.00</ele><name><![CDATA[Sgurr Mor]]></name><cmt><![CDATA[Sgurr Mor]]></cmt><desc><![CDATA[Sgurr Mor]]></desc><sym>filled circle</sym></wpt>
<wpt lat="57.220972" lon="-6.241638"><ele>965.00</ele><name><![CDATA[Sgurr na Banachdich]]></name><cmt><![CDATA[Sgurr na Banachdich]]></cmt><desc><![CDATA[Sgurr na Banachdich]]></desc><sym>filled circle</sym></wpt>
<wpt lat="57.189034" lon="-5.349224"><ele>1002.00</ele><name><![CDATA[Sgurr na Carnach]]></name><cmt><![CDATA[Sgurr na Carnach]]></cmt><desc><![CDATA[Sgurr na Carnach]]></desc><sym>filled circle</sym></wpt>
<wpt lat="57.013468" lon="-5.456905"><ele>1040.20</ele><name><![CDATA[Sgurr na Ciche]]></name><cmt><![CDATA[Sgurr na Ciche]]></cmt><desc><![CDATA[Sgurr na Ciche]]></desc><sym>filled circle</sym></wpt>
<wpt lat="57.180924" lon="-5.337134"><ele>1027.00</ele><name><![CDATA[Sgurr na Ciste Duibhe]]></name><cmt><![CDATA[Sgurr na Ciste Duibhe]]></cmt><desc><![CDATA[Sgurr na Ciste Duibhe]]></desc><sym>filled circle</sym></wpt>
<wpt lat="56.619796" lon="-5.08006"><ele>994.00</ele><name><![CDATA[Sgurr na h-Ulaidh (Sgor na h-Ulaidh)]]></name><cmt><![CDATA[Sgurr na h-Ulaidh (Sgor na h-Ulaidh)]]></cmt><desc><![CDATA[Sgurr na h-Ulaidh (Sgor na h-Ulaidh)]]></desc><sym>filled circle</sym></wpt>
<wpt lat="57.369311" lon="-5.059726"><ele>1151.00</ele><name><![CDATA[Sgurr na Lapaich]]></name><cmt><![CDATA[Sgurr na Lapaich]]></cmt><desc><![CDATA[Sgurr na Lapaich]]></desc><sym>filled circle</sym></wpt>
<wpt lat="57.441497" lon="-4.852465"><ele>993.00</ele><name><![CDATA[Sgurr na Ruaidhe]]></name><cmt><![CDATA[Sgurr na Ruaidhe]]></cmt><desc><![CDATA[Sgurr na Ruaidhe]]></desc><sym>filled circle</sym></wpt>
<wpt lat="57.147098" lon="-5.396634"><ele>946.00</ele><name><![CDATA[Sgurr na Sgine]]></name><cmt><![CDATA[Sgurr na Sgine]]></cmt><desc><![CDATA[Sgurr na Sgine]]></desc><sym>filled circle</sym></wpt>
<wpt lat="57.254911" lon="-5.222732"><ele>1151.00</ele><name><![CDATA[Sgurr nan Ceathreamhnan (Sgurr nan Ceathramhnan)]]></name><cmt><![CDATA[Sgurr nan Ceathreamhnan (Sgurr nan Ceathramhnan)]]></cmt><desc><![CDATA[Sgurr nan Ceathreamhnan (Sgurr nan Ceathramhnan)]]></desc><sym>filled circle</sym></wpt>
<wpt lat="57.696278" lon="-5.048237"><ele>1093.00</ele><name><![CDATA[Sgurr nan Clach Geala]]></name><cmt><![CDATA[Sgurr nan Clach Geala]]></cmt><desc><![CDATA[Sgurr nan Clach Geala]]></desc><sym>filled circle</sym></wpt>
<wpt lat="56.935728" lon="-5.448551"><ele>956.00</ele><name><![CDATA[Sgurr nan Coireachan]]></name><cmt><![CDATA[Sgurr nan Coireachan]]></cmt><desc><![CDATA[Sgurr nan Coireachan]]></desc><sym>filled circle</sym></wpt>
<wpt lat="57.007158" lon="-5.40544"><ele>953.80</ele><name><![CDATA[Sgurr nan Coireachan]]></name><cmt><![CDATA[Sgurr nan Coireachan]]></cmt><desc><![CDATA[Sgurr nan Coireachan]]></desc><sym>filled circle</sym></wpt>
<wpt lat="57.177622" lon="-5.095407"><ele>1109.00</ele><name><![CDATA[Sgurr nan Conbhairean]]></name><cmt><![CDATA[Sgurr nan Conbhairean]]></cmt><desc><![CDATA[Sgurr nan Conbhairean]]></desc><sym>filled circle</sym></wpt>
<wpt lat="57.681008" lon="-5.04635"><ele>923.00</ele><name><![CDATA[Sgurr nan Each]]></name><cmt><![CDATA[Sgurr nan Each]]></cmt><desc><![CDATA[Sgurr nan Each]]></desc><sym>filled circle</sym></wpt>
<wpt lat="57.19581" lon="-6.211264"><ele>926.20</ele><name><![CDATA[Sgurr nan Eag]]></name><cmt><![CDATA[Sgurr nan Eag]]></cmt><desc><![CDATA[Sgurr nan Eag]]></desc><sym>filled circle</sym></wpt>
<wpt lat="57.248215" lon="-6.193159"><ele>966.10</ele><name><![CDATA[Sgurr nan Gillean]]></name><cmt><![CDATA[Sgurr nan Gillean]]></cmt><desc><![CDATA[Sgurr nan Gillean]]></desc><sym>filled circle</sym></wpt>
<wpt lat="56.937056" lon="-5.389207"><ele>963.00</ele><name><![CDATA[Sgurr Thuilm]]></name><cmt><![CDATA[Sgurr Thuilm]]></cmt><desc><![CDATA[Sgurr Thuilm]]></desc><sym>filled circle</sym></wpt>
<wpt lat="57.667176" lon="-5.347047"><ele>981.00</ele><name><![CDATA[Slioch]]></name><cmt><![CDATA[Slioch]]></cmt><desc><![CDATA[Slioch]]></desc><sym>filled circle</sym></wpt>
<wpt lat="57.088964" lon="-5.193614"><ele>996.00</ele><name><![CDATA[Spidean Mialach]]></name><cmt><![CDATA[Spidean Mialach]]></cmt><desc><![CDATA[Spidean Mialach]]></desc><sym>filled circle</sym></wpt>
<wpt lat="57.00784" lon="-4.928747"><ele>937.00</ele><name><![CDATA[Sron a' Choire Ghairbh]]></name><cmt><![CDATA[Sron a' Choire Ghairbh]]></cmt><desc><![CDATA[Sron a' Choire Ghairbh]]></desc><sym>filled circle</sym></wpt>
<wpt lat="56.823685" lon="-4.760183"><ele>1105.00</ele><name><![CDATA[Stob a' Choire Mheadhoin]]></name><cmt><![CDATA[Stob a' Choire Mheadhoin]]></cmt><desc><![CDATA[Stob a' Choire Mheadhoin]]></desc><sym>filled circle</sym></wpt>
<wpt lat="56.573308" lon="-4.838302"><ele>945.00</ele><name><![CDATA[Stob a' Choire Odhair]]></name><cmt><![CDATA[Stob a' Choire Odhair]]></cmt><desc><![CDATA[Stob a' Choire Odhair]]></desc><sym>filled circle</sym></wpt>
<wpt lat="56.743706" lon="-5.030328"><ele>999.70</ele><name><![CDATA[Stob Ban]]></name><cmt><![CDATA[Stob Ban]]></cmt><desc><![CDATA[Stob Ban]]></desc><sym>filled circle</sym></wpt>
<wpt lat="56.810656" lon="-4.840877"><ele>977.00</ele><name><![CDATA[Stob Ban]]></name><cmt><![CDATA[Stob Ban]]></cmt><desc><![CDATA[Stob Ban]]></desc><sym>filled circle</sym></wpt>
<wpt lat="56.370717" lon="-4.535753"><ele>1165.00</ele><name><![CDATA[Stob Binnein]]></name><cmt><![CDATA[Stob Binnein]]></cmt><desc><![CDATA[Stob Binnein]]></desc><sym>filled circle</sym></wpt>
<wpt lat="56.823786" lon="-4.849624"><ele>1177.00</ele><name><![CDATA[Stob Choire Claurigh]]></name><cmt><![CDATA[Stob Choire Claurigh]]></cmt><desc><![CDATA[Stob Choire Claurigh]]></desc><sym>filled circle</sym></wpt>
<wpt lat="56.554903" lon="-4.979809"><ele>1044.00</ele><name><![CDATA[Stob Coir' an Albannaich]]></name><cmt><![CDATA[Stob Coir' an Albannaich]]></cmt><desc><![CDATA[Stob Coir' an Albannaich]]></desc><sym>filled circle</sym></wpt>
<wpt lat="56.750756" lon="-4.968985"><ele>981.30</ele><name><![CDATA[Stob Coire a' Chairn]]></name><cmt><![CDATA[Stob Coire a' Chairn]]></cmt><desc><![CDATA[Stob Coire a' Chairn]]></desc><sym>filled circle</sym></wpt>
<wpt lat="56.810877" lon="-4.884891"><ele>1116.00</ele><name><![CDATA[Stob Coire an Laoigh]]></name><cmt><![CDATA[Stob Coire an Laoigh]]></cmt><desc><![CDATA[Stob Coire an Laoigh]]></desc><sym>filled circle</sym></wpt>
<wpt lat="56.818199" lon="-4.77371"><ele>1115.00</ele><name><![CDATA[Stob Coire Easain]]></name><cmt><![CDATA[Stob Coire Easain]]></cmt><desc><![CDATA[Stob Coire Easain]]></desc><sym>filled circle</sym></wpt>
<wpt lat="56.638314" lon="-5.010284"><ele>1072.00</ele><name><![CDATA[Stob Coire Sgreamhach]]></name><cmt><![CDATA[Stob Coire Sgreamhach]]></cmt><desc><![CDATA[Stob Coire Sgreamhach]]></desc><sym>filled circle</sym></wpt>
<wpt lat="56.831745" lon="-4.694918"><ele>979.00</ele><name><![CDATA[Stob Coire Sgriodain]]></name><cmt><![CDATA[Stob Coire Sgriodain]]></cmt><desc><![CDATA[Stob Coire Sgriodain]]></desc><sym>filled circle</sym></wpt>
<wpt lat="56.431327" lon="-5.091319"><ele>999.20</ele><name><![CDATA[Stob Daimh (Stob Diamh)]]></name><cmt><![CDATA[Stob Daimh (Stob Diamh)]]></cmt><desc><![CDATA[Stob Daimh (Stob Diamh)]]></desc><sym>filled circle</sym></wpt>
<wpt lat="56.568103" lon="-4.882099"><ele>1090.00</ele><name><![CDATA[Stob Ghabhar]]></name><cmt><![CDATA[Stob Ghabhar]]></cmt><desc><![CDATA[Stob Ghabhar]]></desc><sym>filled circle</sym></wpt>
<wpt lat="56.964037" lon="-4.585745"><ele>1054.00</ele><name><![CDATA[Stob Poite Coire Ardair]]></name><cmt><![CDATA[Stob Poite Coire Ardair]]></cmt><desc><![CDATA[Stob Poite Coire Ardair]]></desc><sym>filled circle</sym></wpt>
<wpt lat="56.329315" lon="-4.237533"><ele>975.00</ele><name><![CDATA[Stuc a' Chroin]]></name><cmt><![CDATA[Stuc a' Chroin]]></cmt><desc><![CDATA[Stuc a' Chroin]]></desc><sym>filled circle</sym></wpt>
<wpt lat="56.570907" lon="-4.470602"><ele>960.00</ele><name><![CDATA[Stuc an Lochain (Stuchd an Lochain)]]></name><cmt><![CDATA[Stuc an Lochain (Stuchd an Lochain)]]></cmt><desc><![CDATA[Stuc an Lochain (Stuchd an Lochain)]]></desc><sym>filled circle</sym></wpt>
<wpt lat="56.87952" lon="-3.421199"><ele>933.00</ele><name><![CDATA[The Cairnwell]]></name><cmt><![CDATA[The Cairnwell]]></cmt><desc><![CDATA[The Cairnwell]]></desc><sym>filled circle</sym></wpt>
<wpt lat="57.035728" lon="-3.688788"><ele>1004.00</ele><name><![CDATA[The Devil's Point]]></name><cmt><![CDATA[The Devil's Point]]></cmt><desc><![CDATA[The Devil's Point]]></desc><sym>filled circle</sym></wpt>
<wpt lat="57.162395" lon="-5.414721"><ele>1011.40</ele><name><![CDATA[The Saddle]]></name><cmt><![CDATA[The Saddle]]></cmt><desc><![CDATA[The Saddle]]></desc><sym>filled circle</sym></wpt>
<wpt lat="57.309227" lon="-4.999953"><ele>1054.00</ele><name><![CDATA[Toll Creagach]]></name><cmt><![CDATA[Toll Creagach]]></cmt><desc><![CDATA[Toll Creagach]]></desc><sym>filled circle</sym></wpt>
<wpt lat="56.904725" lon="-3.297929"><ele>958.00</ele><name><![CDATA[Tolmount]]></name><cmt><![CDATA[Tolmount]]></cmt><desc><![CDATA[Tolmount]]></desc><sym>filled circle</sym></wpt>
<wpt lat="57.299518" lon="-5.048959"><ele>1112.00</ele><name><![CDATA[Tom a' Choinich]]></name><cmt><![CDATA[Tom a' Choinich]]></cmt><desc><![CDATA[Tom a' Choinich]]></desc><sym>filled circle</sym></wpt>
<wpt lat="56.893615" lon="-3.292356"><ele>957.00</ele><name><![CDATA[Tom Buidhe]]></name><cmt><![CDATA[Tom Buidhe]]></cmt><desc><![CDATA[Tom Buidhe]]></desc><sym>filled circle</sym></wpt>
</gpx>
