<?xml version="1.0" encoding="UTF-8" standalone="yes"?>
<gpx version="1.1" creator="Phils GPX generator www.haroldstreet.org.uk"
  xmlns="http://www.topografix.com/GPX/1/1"
  xmlns:xsi="http://www.w3.org/2001/XMLSchema-instance"
  xsi:schemaLocation="http://www.topografix.com/GPX/1/1 http://www.topografix.com/GPX/1/1/gpx.xsd">
<wpt lat="57.189068" lon="-5.132208"><ele>947.00</ele><name><![CDATA[A' Chioch]]></name><cmt><![CDATA[A' Chioch]]></cmt><desc><![CDATA[A' Chioch]]></desc><sym>filled circle</sym></wpt>
<wpt lat="57.124185" lon="-3.600355"><ele>1017.00</ele><name><![CDATA[A' Choinneach]]></name><cmt><![CDATA[A' Choinneach]]></cmt><desc><![CDATA[A' Choinneach]]></desc><sym>filled circle</sym></wpt>
<wpt lat="56.827794" lon="-3.702754"><ele>1061.70</ele><name><![CDATA[Airgiod Bheinn]]></name><cmt><![CDATA[Airgiod Bheinn]]></cmt><desc><![CDATA[Airgiod Bheinn]]></desc><sym>filled circle</sym></wpt>
<wpt lat="56.677904" lon="-4.991481"><ele>941.80</ele><name><![CDATA[Am Bodach]]></name><cmt><![CDATA[Am Bodach]]></cmt><desc><![CDATA[Am Bodach]]></desc><sym>filled circle</sym></wpt>
<wpt lat="57.559442" lon="-5.473092"><ele>928.60</ele><name><![CDATA[Am Fasarinen]]></name><cmt><![CDATA[Am Fasarinen]]></cmt><desc><![CDATA[Am Fasarinen]]></desc><sym>filled circle</sym></wpt>
<wpt lat="57.662341" lon="-4.599082"><ele>946.00</ele><name><![CDATA[An Cabar]]></name><cmt><![CDATA[An Cabar]]></cmt><desc><![CDATA[An Cabar]]></desc><sym>filled circle</sym></wpt>
<wpt lat="56.932752" lon="-4.594034"><ele>993.00</ele><name><![CDATA[An Cearcallach]]></name><cmt><![CDATA[An Cearcallach]]></cmt><desc><![CDATA[An Cearcallach]]></desc><sym>filled circle</sym></wpt>
<wpt lat="56.755396" lon="-4.965146"><ele>974.90</ele><name><![CDATA[An Garbhanach]]></name><cmt><![CDATA[An Garbhanach]]></cmt><desc><![CDATA[An Garbhanach]]></desc><sym>filled circle</sym></wpt>
<wpt lat="57.295887" lon="-5.065195"><ele>1051.00</ele><name><![CDATA[An Leth-chreag]]></name><cmt><![CDATA[An Leth-chreag]]></cmt><desc><![CDATA[An Leth-chreag]]></desc><sym>filled circle</sym></wpt>
<wpt lat="57.354228" lon="-5.121945"><ele>1086.00</ele><name><![CDATA[An Riabhachan SW Top]]></name><cmt><![CDATA[An Riabhachan SW Top]]></cmt><desc><![CDATA[An Riabhachan SW Top]]></desc><sym>filled circle</sym></wpt>
<wpt lat="57.355408" lon="-5.131242"><ele>1038.00</ele><name><![CDATA[An Riabhachan West Top]]></name><cmt><![CDATA[An Riabhachan West Top]]></cmt><desc><![CDATA[An Riabhachan West Top]]></desc><sym>filled circle</sym></wpt>
<wpt lat="56.630644" lon="-4.217416"><ele>924.00</ele><name><![CDATA[An Sgorr]]></name><cmt><![CDATA[An Sgorr]]></cmt><desc><![CDATA[An Sgorr]]></desc><sym>filled circle</sym></wpt>
<wpt lat="56.907736" lon="-3.481196"><ele>938.00</ele><name><![CDATA[An Socach East Top]]></name><cmt><![CDATA[An Socach East Top]]></cmt><desc><![CDATA[An Socach East Top]]></desc><sym>filled circle</sym></wpt>
<wpt lat="57.267736" lon="-5.106902"><ele>1074.00</ele><name><![CDATA[An Tudair (1891: Saoiter Mor)]]></name><cmt><![CDATA[An Tudair (1891: Saoiter Mor)]]></cmt><desc><![CDATA[An Tudair (1891: Saoiter Mor)]]></desc><sym>filled circle</sym></wpt>
<wpt lat="57.069522" lon="-3.499363"><ele>1179.00</ele><name><![CDATA[Beinn a' Bhuird South Top]]></name><cmt><![CDATA[Beinn a' Bhuird South Top]]></cmt><desc><![CDATA[Beinn a' Bhuird South Top]]></desc><sym>filled circle</sym></wpt>
<wpt lat="57.096728" lon="-3.557574"><ele>1017.00</ele><name><![CDATA[Beinn a' Chaorainn Bheag]]></name><cmt><![CDATA[Beinn a' Chaorainn Bheag]]></cmt><desc><![CDATA[Beinn a' Chaorainn Bheag]]></desc><sym>filled circle</sym></wpt>
<wpt lat="56.934283" lon="-4.657597"><ele>1042.90</ele><name><![CDATA[Beinn a' Chaorainn North Top]]></name><cmt><![CDATA[Beinn a' Chaorainn North Top]]></cmt><desc><![CDATA[Beinn a' Chaorainn North Top]]></desc><sym>filled circle</sym></wpt>
<wpt lat="56.923719" lon="-4.652736"><ele>1048.50</ele><name><![CDATA[Beinn a' Chaorainn South Top]]></name><cmt><![CDATA[Beinn a' Chaorainn South Top]]></cmt><desc><![CDATA[Beinn a' Chaorainn South Top]]></desc><sym>filled circle</sym></wpt>
<wpt lat="56.332397" lon="-4.599301"><ele>940.10</ele><name><![CDATA[Beinn a' Chroin East Top (Beinn a' Chroin)]]></name><cmt><![CDATA[Beinn a' Chroin East Top (Beinn a' Chroin)]]></cmt><desc><![CDATA[Beinn a' Chroin East Top (Beinn a' Chroin)]]></desc><sym>filled circle</sym></wpt>
<wpt lat="56.331737" lon="-4.612297"><ele>937.90</ele><name><![CDATA[Beinn a' Chroin West Top]]></name><cmt><![CDATA[Beinn a' Chroin West Top]]></cmt><desc><![CDATA[Beinn a' Chroin West Top]]></desc><sym>filled circle</sym></wpt>
<wpt lat="56.531617" lon="-4.668172"><ele>923.00</ele><name><![CDATA[Beinn a' Chuirn]]></name><cmt><![CDATA[Beinn a' Chuirn]]></cmt><desc><![CDATA[Beinn a' Chuirn]]></desc><sym>filled circle</sym></wpt>
<wpt lat="56.541126" lon="-4.697702"><ele>1003.60</ele><name><![CDATA[Beinn Achaladair South Top]]></name><cmt><![CDATA[Beinn Achaladair South Top]]></cmt><desc><![CDATA[Beinn Achaladair South Top]]></desc><sym>filled circle</sym></wpt>
<wpt lat="57.056092" lon="-3.563177"><ele>927.00</ele><name><![CDATA[Beinn Bhreac West Top]]></name><cmt><![CDATA[Beinn Bhreac West Top]]></cmt><desc><![CDATA[Beinn Bhreac West Top]]></desc><sym>filled circle</sym></wpt>
<wpt lat="56.460329" lon="-4.526708"><ele>937.00</ele><name><![CDATA[Beinn Cheathaich]]></name><cmt><![CDATA[Beinn Cheathaich]]></cmt><desc><![CDATA[Beinn Cheathaich]]></desc><sym>filled circle</sym></wpt>
<wpt lat="56.64202" lon="-5.002732"><ele>952.00</ele><name><![CDATA[Beinn Fhada (Stob Coire Sgreamhach East Top)]]></name><cmt><![CDATA[Beinn Fhada (Stob Coire Sgreamhach East Top)]]></cmt><desc><![CDATA[Beinn Fhada (Stob Coire Sgreamhach East Top)]]></desc><sym>filled circle</sym></wpt>
<wpt lat="56.644559" lon="-4.995462"><ele>931.00</ele><name><![CDATA[Beinn Fhada NE Top (Beinn Fhada)]]></name><cmt><![CDATA[Beinn Fhada NE Top (Beinn Fhada)]]></cmt><desc><![CDATA[Beinn Fhada NE Top (Beinn Fhada)]]></desc><sym>filled circle</sym></wpt>
<wpt lat="56.894001" lon="-3.536076"><ele>953.00</ele><name><![CDATA[Beinn Iutharn Bheag]]></name><cmt><![CDATA[Beinn Iutharn Bheag]]></cmt><desc><![CDATA[Beinn Iutharn Bheag]]></desc><sym>filled circle</sym></wpt>
<wpt lat="56.819284" lon="-4.891356"><ele>1007.00</ele><name><![CDATA[Beinn na Socaich]]></name><cmt><![CDATA[Beinn na Socaich]]></cmt><desc><![CDATA[Beinn na Socaich]]></desc><sym>filled circle</sym></wpt>
<wpt lat="56.515574" lon="-4.325293"><ele>1000.10</ele><name><![CDATA[Beinn nan Eachan]]></name><cmt><![CDATA[Beinn nan Eachan]]></cmt><desc><![CDATA[Beinn nan Eachan]]></desc><sym>filled circle</sym></wpt>
<wpt lat="57.157985" lon="-5.581686"><ele>928.00</ele><name><![CDATA[Beinn Sgritheall NW Top]]></name><cmt><![CDATA[Beinn Sgritheall NW Top]]></cmt><desc><![CDATA[Beinn Sgritheall NW Top]]></desc><sym>filled circle</sym></wpt>
<wpt lat="56.44867" lon="-4.619557"><ele>998.00</ele><name><![CDATA[Ben Challum South Top (Beinn Challuim South Top)]]></name><cmt><![CDATA[Ben Challum South Top (Beinn Challuim South Top)]]></cmt><desc><![CDATA[Ben Challum South Top (Beinn Challuim South Top)]]></desc><sym>filled circle</sym></wpt>
<wpt lat="58.130657" lon="-4.847889"><ele>960.00</ele><name><![CDATA[Ben More Assynt South Top]]></name><cmt><![CDATA[Ben More Assynt South Top]]></cmt><desc><![CDATA[Ben More Assynt South Top]]></desc><sym>filled circle</sym></wpt>
<wpt lat="56.278801" lon="-4.755923"><ele>931.00</ele><name><![CDATA[Ben Vorlich North Top]]></name><cmt><![CDATA[Ben Vorlich North Top]]></cmt><desc><![CDATA[Ben Vorlich North Top]]></desc><sym>filled circle</sym></wpt>
<wpt lat="57.247705" lon="-6.20387"><ele>917.20</ele><name><![CDATA[Bhasteir Tooth (Basteir Tooth)]]></name><cmt><![CDATA[Bhasteir Tooth (Basteir Tooth)]]></cmt><desc><![CDATA[Bhasteir Tooth (Basteir Tooth)]]></desc><sym>filled circle</sym></wpt>
<wpt lat="57.44946" lon="-5.162161"><ele>1046.50</ele><name><![CDATA[Bidean an Eoin Deirg]]></name><cmt><![CDATA[Bidean an Eoin Deirg]]></cmt><desc><![CDATA[Bidean an Eoin Deirg]]></desc><sym>filled circle</sym></wpt>
<wpt lat="56.748438" lon="-4.927167"><ele>1062.00</ele><name><![CDATA[Binnein Mor South Top]]></name><cmt><![CDATA[Binnein Mor South Top]]></cmt><desc><![CDATA[Binnein Mor South Top]]></desc><sym>filled circle</sym></wpt>
<wpt lat="57.217574" lon="-6.095227"><ele>926.50</ele><name><![CDATA[Bla Bheinn SW Top]]></name><cmt><![CDATA[Bla Bheinn SW Top]]></cmt><desc><![CDATA[Bla Bheinn SW Top]]></desc><sym>filled circle</sym></wpt>
<wpt lat="57.142306" lon="-3.594097"><ele>970.00</ele><name><![CDATA[Bynack Beg]]></name><cmt><![CDATA[Bynack Beg]]></cmt><desc><![CDATA[Bynack Beg]]></desc><sym>filled circle</sym></wpt>
<wpt lat="57.102734" lon="-3.676976"><ele>1216.00</ele><name><![CDATA[Cairn Lochan]]></name><cmt><![CDATA[Cairn Lochan]]></cmt><desc><![CDATA[Cairn Lochan]]></desc><sym>filled circle</sym></wpt>
<wpt lat="56.923598" lon="-3.271969"><ele>991.00</ele><name><![CDATA[Cairn of Gowal]]></name><cmt><![CDATA[Cairn of Gowal]]></cmt><desc><![CDATA[Cairn of Gowal]]></desc><sym>filled circle</sym></wpt>
<wpt lat="56.814777" lon="-4.874047"><ele>1106.00</ele><name><![CDATA[Caisteal]]></name><cmt><![CDATA[Caisteal]]></cmt><desc><![CDATA[Caisteal]]></desc><sym>filled circle</sym></wpt>
<wpt lat="56.948354" lon="-3.289457"><ele>1044.40</ele><name><![CDATA[Carn an t-Sagairt Beag]]></name><cmt><![CDATA[Carn an t-Sagairt Beag]]></cmt><desc><![CDATA[Carn an t-Sagairt Beag]]></desc><sym>filled circle</sym></wpt>
<wpt lat="57.111122" lon="-4.241427"><ele>919.80</ele><name><![CDATA[Carn Ballach (SW Top)]]></name><cmt><![CDATA[Carn Ballach (SW Top)]]></cmt><desc><![CDATA[Carn Ballach (SW Top)]]></desc><sym>filled circle</sym></wpt>
<wpt lat="57.099149" lon="-4.259938"><ele>942.20</ele><name><![CDATA[Carn Ban (1891: Carn Mairg)]]></name><cmt><![CDATA[Carn Ban (1891: Carn Mairg)]]></cmt><desc><![CDATA[Carn Ban (1891: Carn Mairg)]]></desc><sym>filled circle</sym></wpt>
<wpt lat="57.052556" lon="-3.825279"><ele>1052.00</ele><name><![CDATA[Carn Ban Mor]]></name><cmt><![CDATA[Carn Ban Mor]]></cmt><desc><![CDATA[Carn Ban Mor]]></desc><sym>filled circle</sym></wpt>
<wpt lat="56.926207" lon="-3.576867"><ele>918.10</ele><name><![CDATA[Carn Bhac SW Top]]></name><cmt><![CDATA[Carn Bhac SW Top]]></cmt><desc><![CDATA[Carn Bhac SW Top]]></desc><sym>filled circle</sym></wpt>
<wpt lat="56.868998" lon="-3.492198"><ele>917.00</ele><name><![CDATA[Carn Bhinnein]]></name><cmt><![CDATA[Carn Bhinnein]]></cmt><desc><![CDATA[Carn Bhinnein]]></desc><sym>filled circle</sym></wpt>
<wpt lat="56.995773" lon="-3.699308"><ele>942.00</ele><name><![CDATA[Carn Cloich-mhuilinn]]></name><cmt><![CDATA[Carn Cloich-mhuilinn]]></cmt><desc><![CDATA[Carn Cloich-mhuilinn]]></desc><sym>filled circle</sym></wpt>
<wpt lat="56.802239" lon="-5.015965"><ele>1221.00</ele><name><![CDATA[Carn Dearg (NW) (Carn Dearg (North))]]></name><cmt><![CDATA[Carn Dearg (NW) (Carn Dearg (North))]]></cmt><desc><![CDATA[Carn Dearg (NW) (Carn Dearg (North))]]></desc><sym>filled circle</sym></wpt>
<wpt lat="56.785888" lon="-5.020809"><ele>1020.00</ele><name><![CDATA[Carn Dearg (SW) (Carn Dearg (South))]]></name><cmt><![CDATA[Carn Dearg (SW) (Carn Dearg (South))]]></cmt><desc><![CDATA[Carn Dearg (SW) (Carn Dearg (South))]]></desc><sym>filled circle</sym></wpt>
<wpt lat="56.809797" lon="-4.989501"><ele>1179.00</ele><name><![CDATA[Carn Dearg Meadhonach]]></name><cmt><![CDATA[Carn Dearg Meadhonach]]></cmt><desc><![CDATA[Carn Dearg Meadhonach]]></desc><sym>filled circle</sym></wpt>
<wpt lat="57.086621" lon="-4.249537"><ele>923.60</ele><name><![CDATA[Carn Dearg SE Top]]></name><cmt><![CDATA[Carn Dearg SE Top]]></cmt><desc><![CDATA[Carn Dearg SE Top]]></desc><sym>filled circle</sym></wpt>
<wpt lat="57.075982" lon="-3.449011"><ele>1089.00</ele><name><![CDATA[Carn Eas]]></name><cmt><![CDATA[Carn Eas]]></cmt><desc><![CDATA[Carn Eas]]></desc><sym>filled circle</sym></wpt>
<wpt lat="57.088321" lon="-3.646603"><ele>1120.00</ele><name><![CDATA[Carn Etchachan]]></name><cmt><![CDATA[Carn Etchachan]]></cmt><desc><![CDATA[Carn Etchachan]]></desc><sym>filled circle</sym></wpt>
<wpt lat="56.898238" lon="-4.195254"><ele>914.60</ele><name><![CDATA[Carn na Caim South Top (Mullach Coire nan Cisteachan)]]></name><cmt><![CDATA[Carn na Caim South Top (Mullach Coire nan Cisteachan)]]></cmt><desc><![CDATA[Carn na Caim South Top (Mullach Coire nan Cisteachan)]]></desc><sym>filled circle</sym></wpt>
<wpt lat="57.195627" lon="-5.089546"><ele>1001.00</ele><name><![CDATA[Carn na Coire Mheadhoin (Centre Top)]]></name><cmt><![CDATA[Carn na Coire Mheadhoin (Centre Top)]]></cmt><desc><![CDATA[Carn na Coire Mheadhoin (Centre Top)]]></desc><sym>filled circle</sym></wpt>
<wpt lat="57.267575" lon="-5.197807"><ele>967.00</ele><name><![CDATA[Carn na Con Dhu]]></name><cmt><![CDATA[Carn na Con Dhu]]></cmt><desc><![CDATA[Carn na Con Dhu]]></desc><sym>filled circle</sym></wpt>
<wpt lat="57.063181" lon="-3.750644"><ele>1265.00</ele><name><![CDATA[Carn na Criche - Braeriach]]></name><cmt><![CDATA[Carn na Criche]]></cmt><desc><![CDATA[Carn na Criche - Braeriach]]></desc><sym>filled circle</sym></wpt>
<wpt lat="57.706292" lon="-5.029065"><ele>961.00</ele><name><![CDATA[Carn na Criche - Sgurr Mor]]></name><cmt><![CDATA[Carn na Criche]]></cmt><desc><![CDATA[Carn na Criche - Sgurr Mor]]></desc><sym>filled circle</sym></wpt>
<wpt lat="57.460882" lon="-5.129638"><ele>993.00</ele><name><![CDATA[Carn nam Fiaclan]]></name><cmt><![CDATA[Carn nam Fiaclan]]></cmt><desc><![CDATA[Carn nam Fiaclan]]></desc><sym>filled circle</sym></wpt>
<wpt lat="57.803256" lon="-4.930659"><ele>968.00</ele><name><![CDATA[Ceann Garbh]]></name><cmt><![CDATA[Ceann Garbh]]></cmt><desc><![CDATA[Ceann Garbh]]></desc><sym>filled circle</sym></wpt>
<wpt lat="56.602626" lon="-4.868189"><ele>1098.90</ele><name><![CDATA[Clach Leathad]]></name><cmt><![CDATA[Clach Leathad]]></cmt><desc><![CDATA[Clach Leathad]]></desc><sym>filled circle</sym></wpt>
<wpt lat="57.09141" lon="-3.474269"><ele>1174.00</ele><name><![CDATA[Cnap a' Chleirich]]></name><cmt><![CDATA[Cnap a' Chleirich]]></cmt><desc><![CDATA[Cnap a' Chleirich]]></desc><sym>filled circle</sym></wpt>
<wpt lat="57.124463" lon="-3.631043"><ele>1150.00</ele><name><![CDATA[Cnap Coire na Spreidhe]]></name><cmt><![CDATA[Cnap Coire na Spreidhe]]></cmt><desc><![CDATA[Cnap Coire na Spreidhe]]></desc><sym>filled circle</sym></wpt>
<wpt lat="57.583242" lon="-5.440098"><ele>976.00</ele><name><![CDATA[Coinneach Mhor]]></name><cmt><![CDATA[Coinneach Mhor]]></cmt><desc><![CDATA[Coinneach Mhor]]></desc><sym>filled circle</sym></wpt>
<wpt lat="57.798489" lon="-5.257978"><ele>1049.00</ele><name><![CDATA[Corrag Bhuidhe]]></name><cmt><![CDATA[Corrag Bhuidhe]]></cmt><desc><![CDATA[Corrag Bhuidhe]]></desc><sym>filled circle</sym></wpt>
<wpt lat="56.913024" lon="-3.263036"><ele>927.00</ele><name><![CDATA[Craig of Gowal]]></name><cmt><![CDATA[Craig of Gowal]]></cmt><desc><![CDATA[Craig of Gowal]]></desc><sym>filled circle</sym></wpt>
<wpt lat="57.171383" lon="-5.083021"><ele>998.00</ele><name><![CDATA[Creag a' Chaorainn]]></name><cmt><![CDATA[Creag a' Chaorainn]]></cmt><desc><![CDATA[Creag a' Chaorainn]]></desc><sym>filled circle</sym></wpt>
<wpt lat="56.943172" lon="-3.24737"><ele>1066.90</ele><name><![CDATA[Creag a' Ghlas-uillt]]></name><cmt><![CDATA[Creag a' Ghlas-uillt]]></cmt><desc><![CDATA[Creag a' Ghlas-uillt]]></desc><sym>filled circle</sym></wpt>
<wpt lat="57.066765" lon="-3.433296"><ele>972.00</ele><name><![CDATA[Creag an Dail Mhor]]></name><cmt><![CDATA[Creag an Dail Mhor]]></cmt><desc><![CDATA[Creag an Dail Mhor]]></desc><sym>filled circle</sym></wpt>
<wpt lat="56.925775" lon="-3.262004"><ele>983.00</ele><name><![CDATA[Creag an Dubh-loch]]></name><cmt><![CDATA[Creag an Dubh-loch]]></cmt><desc><![CDATA[Creag an Dubh-loch]]></desc><sym>filled circle</sym></wpt>
<wpt lat="56.552271" lon="-4.220965"><ele>1047.00</ele><name><![CDATA[Creag an Fhithich]]></name><cmt><![CDATA[Creag an Fhithich]]></cmt><desc><![CDATA[Creag an Fhithich]]></desc><sym>filled circle</sym></wpt>
<wpt lat="57.109393" lon="-3.704869"><ele>1053.00</ele><name><![CDATA[Creag an Leth-choin (Lurcher's Crag)]]></name><cmt><![CDATA[Creag an Leth-choin (Lurcher's Crag)]]></cmt><desc><![CDATA[Creag an Leth-choin (Lurcher's Crag)]]></desc><sym>filled circle</sym></wpt>
<wpt lat="57.095382" lon="-5.225213"><ele>1006.00</ele><name><![CDATA[Creag Coire na Fiar Bhealaich (Craig Coire na Fiar Bhealaich)]]></name><cmt><![CDATA[Creag Coire na Fiar Bhealaich (Craig Coire na Fiar Bhealaich)]]></cmt><desc><![CDATA[Creag Coire na Fiar Bhealaich (Craig Coire na Fiar Bhealaich)]]></desc><sym>filled circle</sym></wpt>
<wpt lat="57.260493" lon="-5.129265"><ele>1055.00</ele><name><![CDATA[Creag Coire nan Each (Creag a' Chaoruinn)]]></name><cmt><![CDATA[Creag Coire nan Each (Creag a' Chaoruinn)]]></cmt><desc><![CDATA[Creag Coire nan Each (Creag a' Chaoruinn)]]></desc><sym>filled circle</sym></wpt>
<wpt lat="57.370416" lon="-4.995484"><ele>947.00</ele><name><![CDATA[Creag Dubh]]></name><cmt><![CDATA[Creag Dubh]]></cmt><desc><![CDATA[Creag Dubh]]></desc><sym>filled circle</sym></wpt>
<wpt lat="57.447794" lon="-4.926674"><ele>1030.00</ele><name><![CDATA[Creag Ghorm a' Bhealaich]]></name><cmt><![CDATA[Creag Ghorm a' Bhealaich]]></cmt><desc><![CDATA[Creag Ghorm a' Bhealaich]]></desc><sym>filled circle</sym></wpt>
<wpt lat="56.851149" lon="-3.396264"><ele>943.70</ele><name><![CDATA[Creag Leacach SW Top]]></name><cmt><![CDATA[Creag Leacach SW Top]]></cmt><desc><![CDATA[Creag Leacach SW Top]]></desc><sym>filled circle</sym></wpt>
<wpt lat="57.076937" lon="-3.63153"><ele>1108.00</ele><name><![CDATA[Creagan a' Choire Etchachan]]></name><cmt><![CDATA[Creagan a' Choire Etchachan]]></cmt><desc><![CDATA[Creagan a' Choire Etchachan]]></desc><sym>filled circle</sym></wpt>
<wpt lat="56.903573" lon="-3.278956"><ele>920.00</ele><name><![CDATA[Crow Craigies]]></name><cmt><![CDATA[Crow Craigies]]></cmt><desc><![CDATA[Crow Craigies]]></desc><sym>filled circle</sym></wpt>
<wpt lat="56.949604" lon="-3.218222"><ele>1083.20</ele><name><![CDATA[Cuidhe Crom]]></name><cmt><![CDATA[Cuidhe Crom]]></cmt><desc><![CDATA[Cuidhe Crom]]></desc><sym>filled circle</sym></wpt>
<wpt lat="56.84882" lon="-4.482203"><ele>925.00</ele><name><![CDATA[Diollaid a' Chairn]]></name><cmt><![CDATA[Diollaid a' Chairn]]></cmt><desc><![CDATA[Diollaid a' Chairn]]></desc><sym>filled circle</sym></wpt>
<wpt lat="57.173166" lon="-5.110209"><ele>1001.00</ele><name><![CDATA[Drochaid an Tuill Easaich]]></name><cmt><![CDATA[Drochaid an Tuill Easaich]]></cmt><desc><![CDATA[Drochaid an Tuill Easaich]]></desc><sym>filled circle</sym></wpt>
<wpt lat="56.430071" lon="-5.10989"><ele>1024.30</ele><name><![CDATA[Drochaid Ghlas]]></name><cmt><![CDATA[Drochaid Ghlas]]></cmt><desc><![CDATA[Drochaid Ghlas]]></desc><sym>filled circle</sym></wpt>
<wpt lat="56.878594" lon="-3.330696"><ele>961.00</ele><name><![CDATA[Druim Mor]]></name><cmt><![CDATA[Druim Mor]]></cmt><desc><![CDATA[Druim Mor]]></desc><sym>filled circle</sym></wpt>
<wpt lat="57.123872" lon="-5.201579"><ele>938.00</ele><name><![CDATA[Druim Shionnach West Top]]></name><cmt><![CDATA[Druim Shionnach West Top]]></cmt><desc><![CDATA[Druim Shionnach West Top]]></desc><sym>filled circle</sym></wpt>
<wpt lat="57.121076" lon="-3.390121"><ele>935.00</ele><name><![CDATA[East Meur Gorm Craig]]></name><cmt><![CDATA[East Meur Gorm Craig]]></cmt><desc><![CDATA[East Meur Gorm Craig]]></desc><sym>filled circle</sym></wpt>
<wpt lat="56.925451" lon="-3.291058"><ele>1000.00</ele><name><![CDATA[Fafernie]]></name><cmt><![CDATA[Fafernie]]></cmt><desc><![CDATA[Fafernie]]></desc><sym>filled circle</sym></wpt>
<wpt lat="57.007182" lon="-5.430222"><ele>968.30</ele><name><![CDATA[Garbh Chioch Bheag]]></name><cmt><![CDATA[Garbh Chioch Bheag]]></cmt><desc><![CDATA[Garbh Chioch Bheag]]></desc><sym>filled circle</sym></wpt>
<wpt lat="57.09013" lon="-3.843201"><ele>920.00</ele><name><![CDATA[Geal-charn]]></name><cmt><![CDATA[Geal-charn]]></cmt><desc><![CDATA[Geal-charn]]></desc><sym>filled circle</sym></wpt>
<wpt lat="57.700547" lon="-4.531507"><ele>928.00</ele><name><![CDATA[Glas Leathad Beag (1891: Top of Coire Lochain)]]></name><cmt><![CDATA[Glas Leathad Beag (1891: Top of Coire Lochain)]]></cmt><desc><![CDATA[Glas Leathad Beag (1891: Top of Coire Lochain)]]></desc><sym>filled circle</sym></wpt>
<wpt lat="57.805098" lon="-5.236853"><ele>960.40</ele><name><![CDATA[Glas Mheall Liath]]></name><cmt><![CDATA[Glas Mheall Liath]]></cmt><desc><![CDATA[Glas Mheall Liath]]></desc><sym>filled circle</sym></wpt>
<wpt lat="57.816467" lon="-5.240433"><ele>979.00</ele><name><![CDATA[Glas Mheall Mor - An Teallach]]></name><cmt><![CDATA[Glas Mheall Mor]]></cmt><desc><![CDATA[Glas Mheall Mor - An Teallach]]></desc><sym>filled circle</sym></wpt>
<wpt lat="56.865197" lon="-4.165819"><ele>927.90</ele><name><![CDATA[Glas Mheall Mor - A' Bhuidheanach Bheag]]></name><cmt><![CDATA[Glas Mheall Mor]]></cmt><desc><![CDATA[Glas Mheall Mor - A' Bhuidheanach Bheag]]></desc><sym>filled circle</sym></wpt>
<wpt lat="56.925901" lon="-5.293369"><ele>961.00</ele><name><![CDATA[Gulvain South Top]]></name><cmt><![CDATA[Gulvain South Top]]></cmt><desc><![CDATA[Gulvain South Top]]></desc><sym>filled circle</sym></wpt>
<wpt lat="56.867686" lon="-3.353423"><ele>973.00</ele><name><![CDATA[Little Glas Maol]]></name><cmt><![CDATA[Little Glas Maol]]></cmt><desc><![CDATA[Little Glas Maol]]></desc><sym>filled circle</sym></wpt>
<wpt lat="56.945323" lon="-3.210356"><ele>956.00</ele><name><![CDATA[Little Pap]]></name><cmt><![CDATA[Little Pap]]></cmt><desc><![CDATA[Little Pap]]></desc><sym>filled circle</sym></wpt>
<wpt lat="57.79921" lon="-5.258616"><ele>1032.00</ele><name><![CDATA[Lord Berkeley's Seat]]></name><cmt><![CDATA[Lord Berkeley's Seat]]></cmt><desc><![CDATA[Lord Berkeley's Seat]]></desc><sym>filled circle</sym></wpt>
<wpt lat="57.047976" lon="-5.509071"><ele>936.00</ele><name><![CDATA[Luinne Bheinn East Top]]></name><cmt><![CDATA[Luinne Bheinn East Top]]></cmt><desc><![CDATA[Luinne Bheinn East Top]]></desc><sym>filled circle</sym></wpt>
<wpt lat="56.883272" lon="-3.562257"><ele>986.00</ele><name><![CDATA[Mam nan Carn]]></name><cmt><![CDATA[Mam nan Carn]]></cmt><desc><![CDATA[Mam nan Carn]]></desc><sym>filled circle</sym></wpt>
<wpt lat="56.636875" lon="-4.172887"><ele>1004.00</ele><name><![CDATA[Meall a' Bharr]]></name><cmt><![CDATA[Meall a' Bharr]]></cmt><desc><![CDATA[Meall a' Bharr]]></desc><sym>filled circle</sym></wpt>
<wpt lat="56.459328" lon="-4.496238"><ele>917.20</ele><name><![CDATA[Meall a' Churain]]></name><cmt><![CDATA[Meall a' Churain]]></cmt><desc><![CDATA[Meall a' Churain]]></desc><sym>filled circle</sym></wpt>
<wpt lat="57.223467" lon="-5.314546"><ele>954.90</ele><name><![CDATA[Meall an Fhuarain Mhoir]]></name><cmt><![CDATA[Meall an Fhuarain Mhoir]]></cmt><desc><![CDATA[Meall an Fhuarain Mhoir]]></desc><sym>filled circle</sym></wpt>
<wpt lat="56.979012" lon="-4.537168"><ele>970.00</ele><name><![CDATA[Meall an t-Snaim]]></name><cmt><![CDATA[Meall an t-Snaim]]></cmt><desc><![CDATA[Meall an t-Snaim]]></desc><sym>filled circle</sym></wpt>
<wpt lat="56.557815" lon="-4.670326"><ele>977.20</ele><name><![CDATA[Meall Buidhe - Glen Lyon]]></name><cmt><![CDATA[Meall Buidhe]]></cmt><desc><![CDATA[Meall Buidhe - Glen Lyon]]></desc><sym>filled circle</sym></wpt>
<wpt lat="57.079169" lon="-3.830232"><ele>976.00</ele><name><![CDATA[Meall Buidhe - Sgor Gaoith]]></name><cmt><![CDATA[Meall Buidhe]]></cmt><desc><![CDATA[Meall Buidhe - Sgor Gaoith]]></desc><sym>filled circle</sym></wpt>
<wpt lat="57.029704" lon="-5.540173"><ele>942.00</ele><name><![CDATA[Meall Buidhe SE Top]]></name><cmt><![CDATA[Meall Buidhe SE Top]]></cmt><desc><![CDATA[Meall Buidhe SE Top]]></desc><sym>filled circle</sym></wpt>
<wpt lat="56.941059" lon="-4.57784"><ele>1028.00</ele><name><![CDATA[Meall Coire Choille-rais]]></name><cmt><![CDATA[Meall Coire Choille-rais]]></cmt><desc><![CDATA[Meall Coire Choille-rais]]></desc><sym>filled circle</sym></wpt>
<wpt lat="56.970652" lon="-3.247598"><ele>974.00</ele><name><![CDATA[Meall Coire na Saobhaidhe]]></name><cmt><![CDATA[Meall Coire na Saobhaidhe]]></cmt><desc><![CDATA[Meall Coire na Saobhaidhe]]></desc><sym>filled circle</sym></wpt>
<wpt lat="56.528722" lon="-5.04343"><ele>930.00</ele><name><![CDATA[Meall Cruidh]]></name><cmt><![CDATA[Meall Cruidh]]></cmt><desc><![CDATA[Meall Cruidh]]></desc><sym>filled circle</sym></wpt>
<wpt lat="56.418683" lon="-5.13092"><ele>920.20</ele><name><![CDATA[Meall Cuanail]]></name><cmt><![CDATA[Meall Cuanail]]></cmt><desc><![CDATA[Meall Cuanail]]></desc><sym>filled circle</sym></wpt>
<wpt lat="57.563251" lon="-5.489464"><ele>955.00</ele><name><![CDATA[Meall Dearg (Northern Pinnacles)]]></name><cmt><![CDATA[Meall Dearg (Northern Pinnacles)]]></cmt><desc><![CDATA[Meall Dearg (Northern Pinnacles)]]></desc><sym>filled circle</sym></wpt>
<wpt lat="57.037409" lon="-3.846555"><ele>998.00</ele><name><![CDATA[Meall Dubhag]]></name><cmt><![CDATA[Meall Dubhag]]></cmt><desc><![CDATA[Meall Dubhag]]></desc><sym>filled circle</sym></wpt>
<wpt lat="56.515534" lon="-4.312042"><ele>1026.70</ele><name><![CDATA[Meall Garbh - Ben Lawers]]></name><cmt><![CDATA[Meall Garbh]]></cmt><desc><![CDATA[Meall Garbh - Ben Lawers]]></desc><sym>filled circle</sym></wpt>
<wpt lat="56.817718" lon="-4.669278"><ele>976.00</ele><name><![CDATA[Meall Garbh - Chno Dearg]]></name><cmt><![CDATA[Meall Garbh]]></cmt><desc><![CDATA[Meall Garbh - Chno Dearg]]></desc><sym>filled circle</sym></wpt>
<wpt lat="56.820156" lon="-4.562889"><ele>924.00</ele><name><![CDATA[Meall Glas Choire]]></name><cmt><![CDATA[Meall Glas Choire]]></cmt><desc><![CDATA[Meall Glas Choire]]></desc><sym>filled circle</sym></wpt>
<wpt lat="57.677638" lon="-4.966577"><ele>922.00</ele><name><![CDATA[Meall Gorm SE Top]]></name><cmt><![CDATA[Meall Gorm SE Top]]></cmt><desc><![CDATA[Meall Gorm SE Top]]></desc><sym>filled circle</sym></wpt>
<wpt lat="56.634501" lon="-4.132458"><ele>1012.00</ele><name><![CDATA[Meall Liath]]></name><cmt><![CDATA[Meall Liath]]></cmt><desc><![CDATA[Meall Liath]]></desc><sym>filled circle</sym></wpt>
<wpt lat="57.41454" lon="-5.211634"><ele>974.00</ele><name><![CDATA[Meall Mor]]></name><cmt><![CDATA[Meall Mor]]></cmt><desc><![CDATA[Meall Mor]]></desc><sym>filled circle</sym></wpt>
<wpt lat="56.370157" lon="-4.510289"><ele>966.00</ele><name><![CDATA[Meall na Dige]]></name><cmt><![CDATA[Meall na Dige]]></cmt><desc><![CDATA[Meall na Dige]]></desc><sym>filled circle</sym></wpt>
<wpt lat="57.692003" lon="-5.009182"><ele>974.20</ele><name><![CDATA[Meall nam Peithirean]]></name><cmt><![CDATA[Meall nam Peithirean]]></cmt><desc><![CDATA[Meall nam Peithirean]]></desc><sym>filled circle</sym></wpt>
<wpt lat="56.517406" lon="-4.294452"><ele>921.50</ele><name><![CDATA[Meall nan Tarmachan South Top (Meall nan Tarmachan SE Top)]]></name><cmt><![CDATA[Meall nan Tarmachan South Top (Meall nan Tarmachan SE Top)]]></cmt><desc><![CDATA[Meall nan Tarmachan South Top (Meall nan Tarmachan SE Top)]]></desc><sym>filled circle</sym></wpt>
<wpt lat="56.879846" lon="-3.386585"><ele>922.00</ele><name><![CDATA[Meall Odhar]]></name><cmt><![CDATA[Meall Odhar]]></cmt><desc><![CDATA[Meall Odhar]]></desc><sym>filled circle</sym></wpt>
<wpt lat="56.959824" lon="-3.218621"><ele>980.00</ele><name><![CDATA[Meikle Pap]]></name><cmt><![CDATA[Meikle Pap]]></cmt><desc><![CDATA[Meikle Pap]]></desc><sym>filled circle</sym></wpt>
<wpt lat="57.274141" lon="-5.087347"><ele>996.00</ele><name><![CDATA[Mullach Cadha Rainich]]></name><cmt><![CDATA[Mullach Cadha Rainich]]></cmt><desc><![CDATA[Mullach Cadha Rainich]]></desc><sym>filled circle</sym></wpt>
<wpt lat="57.708119" lon="-5.264208"><ele>977.80</ele><name><![CDATA[Mullach Coire Mhic Fhearchair East Top]]></name><cmt><![CDATA[Mullach Coire Mhic Fhearchair East Top]]></cmt><desc><![CDATA[Mullach Coire Mhic Fhearchair East Top]]></desc><sym>filled circle</sym></wpt>
<wpt lat="56.825744" lon="-4.573893"><ele>922.00</ele><name><![CDATA[Mullach Coire nan Nead]]></name><cmt><![CDATA[Mullach Coire nan Nead]]></cmt><desc><![CDATA[Mullach Coire nan Nead]]></desc><sym>filled circle</sym></wpt>
<wpt lat="56.744698" lon="-5.047519"><ele>916.60</ele><name><![CDATA[Mullach nan Coirean East Top]]></name><cmt><![CDATA[Mullach nan Coirean East Top]]></cmt><desc><![CDATA[Mullach nan Coirean East Top]]></desc><sym>filled circle</sym></wpt>
<wpt lat="56.743308" lon="-5.057319"><ele>917.50</ele><name><![CDATA[Mullach nan Coirean SE Top (Mullach nan Coirean South Top)]]></name><cmt><![CDATA[Mullach nan Coirean SE Top (Mullach nan Coirean South Top)]]></cmt><desc><![CDATA[Mullach nan Coirean SE Top (Mullach nan Coirean South Top)]]></desc><sym>filled circle</sym></wpt>
<wpt lat="57.287966" lon="-5.183856"><ele>974.00</ele><name><![CDATA[Mullach Sithidh (Creag a' Choire Ard)]]></name><cmt><![CDATA[Mullach Sithidh (Creag a' Choire Ard)]]></cmt><desc><![CDATA[Mullach Sithidh (Creag a' Choire Ard)]]></desc><sym>filled circle</sym></wpt>
<wpt lat="56.745765" lon="-4.94335"><ele>1038.80</ele><name><![CDATA[Na Gruagaichean NW Top (Na Gruagaichean North Top)]]></name><cmt><![CDATA[Na Gruagaichean NW Top (Na Gruagaichean North Top)]]></cmt><desc><![CDATA[Na Gruagaichean NW Top (Na Gruagaichean North Top)]]></desc><sym>filled circle</sym></wpt>
<wpt lat="56.950234" lon="-4.57132"><ele>1071.00</ele><name><![CDATA[Puist Coire Ardair]]></name><cmt><![CDATA[Puist Coire Ardair]]></cmt><desc><![CDATA[Puist Coire Ardair]]></desc><sym>filled circle</sym></wpt>
<wpt lat="57.790418" lon="-5.245721"><ele>954.00</ele><name><![CDATA[Sail Liath]]></name><cmt><![CDATA[Sail Liath]]></cmt><desc><![CDATA[Sail Liath]]></desc><sym>filled circle</sym></wpt>
<wpt lat="57.588065" lon="-5.451133"><ele>980.00</ele><name><![CDATA[Sail Mhor]]></name><cmt><![CDATA[Sail Mhor]]></cmt><desc><![CDATA[Sail Mhor]]></desc><sym>filled circle</sym></wpt>
<wpt lat="56.780367" lon="-4.548943"><ele>929.00</ele><name><![CDATA[Sgor Choinnich]]></name><cmt><![CDATA[Sgor Choinnich]]></cmt><desc><![CDATA[Sgor Choinnich]]></desc><sym>filled circle</sym></wpt>
<wpt lat="56.745222" lon="-4.912914"><ele>955.70</ele><name><![CDATA[Sgor Eilde Beag]]></name><cmt><![CDATA[Sgor Eilde Beag]]></cmt><desc><![CDATA[Sgor Eilde Beag]]></desc><sym>filled circle</sym></wpt>
<wpt lat="56.836302" lon="-4.477177"><ele>1028.00</ele><name><![CDATA[Sgor Iutharn]]></name><cmt><![CDATA[Sgor Iutharn]]></cmt><desc><![CDATA[Sgor Iutharn]]></desc><sym>filled circle</sym></wpt>
<wpt lat="57.080415" lon="-3.808167"><ele>1111.00</ele><name><![CDATA[Sgoran Dubh Mor]]></name><cmt><![CDATA[Sgoran Dubh Mor]]></cmt><desc><![CDATA[Sgoran Dubh Mor]]></desc><sym>filled circle</sym></wpt>
<wpt lat="56.656002" lon="-5.16217"><ele>947.00</ele><name><![CDATA[Sgorr Bhan]]></name><cmt><![CDATA[Sgorr Bhan]]></cmt><desc><![CDATA[Sgorr Bhan]]></desc><sym>filled circle</sym></wpt>
<wpt lat="56.78831" lon="-4.941705"><ele>963.00</ele><name><![CDATA[Sgurr a' Bhuic]]></name><cmt><![CDATA[Sgurr a' Bhuic]]></cmt><desc><![CDATA[Sgurr a' Bhuic]]></desc><sym>filled circle</sym></wpt>
<wpt lat="57.215323" lon="-5.25619"><ele>962.00</ele><name><![CDATA[Sgurr a' Dubh Doire]]></name><cmt><![CDATA[Sgurr a' Dubh Doire]]></cmt><desc><![CDATA[Sgurr a' Dubh Doire]]></desc><sym>filled circle</sym></wpt>
<wpt lat="57.247016" lon="-6.205102"><ele>936.00</ele><name><![CDATA[Sgurr a' Fionn Choire]]></name><cmt><![CDATA[Sgurr a' Fionn Choire]]></cmt><desc><![CDATA[Sgurr a' Fionn Choire]]></desc><sym>filled circle</sym></wpt>
<wpt lat="57.225897" lon="-6.234013"><ele>969.90</ele><name><![CDATA[Sgurr a' Ghreadaidh South Top]]></name><cmt><![CDATA[Sgurr a' Ghreadaidh South Top]]></cmt><desc><![CDATA[Sgurr a' Ghreadaidh South Top]]></desc><sym>filled circle</sym></wpt>
<wpt lat="57.106999" lon="-5.341664"><ele>948.00</ele><name><![CDATA[Sgurr a' Mhaoraich Beag]]></name><cmt><![CDATA[Sgurr a' Mhaoraich Beag]]></cmt><desc><![CDATA[Sgurr a' Mhaoraich Beag]]></desc><sym>filled circle</sym></wpt>
<wpt lat="57.175229" lon="-5.220073"><ele>987.00</ele><name><![CDATA[Sgurr an Fhuarail]]></name><cmt><![CDATA[Sgurr an Fhuarail]]></cmt><desc><![CDATA[Sgurr an Fhuarail]]></desc><sym>filled circle</sym></wpt>
<wpt lat="56.745015" lon="-5.001903"><ele>999.70</ele><name><![CDATA[Sgurr an Iubhair (Sgor an Iubhair)]]></name><cmt><![CDATA[Sgurr an Iubhair (Sgor an Iubhair)]]></cmt><desc><![CDATA[Sgurr an Iubhair (Sgor an Iubhair)]]></desc><sym>filled circle</sym></wpt>
<wpt lat="57.072656" lon="-3.608875"><ele>983.00</ele><name><![CDATA[Sgurr an Lochan Uaine]]></name><cmt><![CDATA[Sgurr an Lochan Uaine]]></cmt><desc><![CDATA[Sgurr an Lochan Uaine]]></desc><sym>filled circle</sym></wpt>
<wpt lat="57.665986" lon="-5.323655"><ele>934.00</ele><name><![CDATA[Sgurr an Tuill Bhain]]></name><cmt><![CDATA[Sgurr an Tuill Bhain]]></cmt><desc><![CDATA[Sgurr an Tuill Bhain]]></desc><sym>filled circle</sym></wpt>
<wpt lat="57.584628" lon="-5.389883"><ele>970.00</ele><name><![CDATA[Sgurr Ban]]></name><cmt><![CDATA[Sgurr Ban]]></cmt><desc><![CDATA[Sgurr Ban]]></desc><sym>filled circle</sym></wpt>
<wpt lat="56.796715" lon="-4.916023"><ele>963.00</ele><name><![CDATA[Sgurr Choinnich Beag]]></name><cmt><![CDATA[Sgurr Choinnich Beag]]></cmt><desc><![CDATA[Sgurr Choinnich Beag]]></desc><sym>filled circle</sym></wpt>
<wpt lat="57.801702" lon="-5.273859"><ele>1016.40</ele><name><![CDATA[Sgurr Creag an Eich]]></name><cmt><![CDATA[Sgurr Creag an Eich]]></cmt><desc><![CDATA[Sgurr Creag an Eich]]></desc><sym>filled circle</sym></wpt>
<wpt lat="57.704124" lon="-5.256712"><ele>915.30</ele><name><![CDATA[Sgurr Dubh]]></name><cmt><![CDATA[Sgurr Dubh]]></cmt><desc><![CDATA[Sgurr Dubh]]></desc><sym>filled circle</sym></wpt>
<wpt lat="57.204001" lon="-6.215247"><ele>938.00</ele><name><![CDATA[Sgurr Dubh an Da Bheinn (Sgurr Dubh na Da Bheinn)]]></name><cmt><![CDATA[Sgurr Dubh an Da Bheinn (Sgurr Dubh na Da Bheinn)]]></cmt><desc><![CDATA[Sgurr Dubh an Da Bheinn (Sgurr Dubh na Da Bheinn)]]></desc><sym>filled circle</sym></wpt>
<wpt lat="57.163241" lon="-5.445172"><ele>919.00</ele><name><![CDATA[Sgurr Leac nan Each]]></name><cmt><![CDATA[Sgurr Leac nan Each]]></cmt><desc><![CDATA[Sgurr Leac nan Each]]></desc><sym>filled circle</sym></wpt>
<wpt lat="57.219609" lon="-6.24047"><ele>942.00</ele><name><![CDATA[Sgurr na Banachdich Central Top]]></name><cmt><![CDATA[Sgurr na Banachdich Central Top]]></cmt><desc><![CDATA[Sgurr na Banachdich Central Top]]></desc><sym>filled circle</sym></wpt>
<wpt lat="57.449186" lon="-4.954411"><ele>1015.00</ele><name><![CDATA[Sgurr na Fearstaig]]></name><cmt><![CDATA[Sgurr na Fearstaig]]></cmt><desc><![CDATA[Sgurr na Fearstaig]]></desc><sym>filled circle</sym></wpt>
<wpt lat="57.161927" lon="-5.407812"><ele>964.60</ele><name><![CDATA[Sgurr na Forcan]]></name><cmt><![CDATA[Sgurr na Forcan]]></cmt><desc><![CDATA[Sgurr na Forcan]]></desc><sym>filled circle</sym></wpt>
<wpt lat="57.272748" lon="-5.063121"><ele>1036.00</ele><name><![CDATA[Sgurr na Lapaich]]></name><cmt><![CDATA[Sgurr na Lapaich]]></cmt><desc><![CDATA[Sgurr na Lapaich]]></desc><sym>filled circle</sym></wpt>
<wpt lat="57.148987" lon="-5.400892"><ele>942.00</ele><name><![CDATA[Sgurr na Sgine NW Top]]></name><cmt><![CDATA[Sgurr na Sgine NW Top]]></cmt><desc><![CDATA[Sgurr na Sgine NW Top]]></desc><sym>filled circle</sym></wpt>
<wpt lat="57.254451" lon="-5.229442"><ele>1143.00</ele><name><![CDATA[Sgurr nan Ceathreamhnan West Top]]></name><cmt><![CDATA[Sgurr nan Ceathreamhnan West Top]]></cmt><desc><![CDATA[Sgurr nan Ceathreamhnan West Top]]></desc><sym>filled circle</sym></wpt>
<wpt lat="57.3614" lon="-5.057936"><ele>1093.00</ele><name><![CDATA[Sgurr nan Clachan Geala]]></name><cmt><![CDATA[Sgurr nan Clachan Geala]]></cmt><desc><![CDATA[Sgurr nan Clachan Geala]]></desc><sym>filled circle</sym></wpt>
<wpt lat="57.584954" lon="-5.378047"><ele>963.00</ele><name><![CDATA[Sgurr nan Fhir Duibhe]]></name><cmt><![CDATA[Sgurr nan Fhir Duibhe]]></cmt><desc><![CDATA[Sgurr nan Fhir Duibhe]]></desc><sym>filled circle</sym></wpt>
<wpt lat="57.205998" lon="-5.354887"><ele>929.00</ele><name><![CDATA[Sgurr nan Saighead]]></name><cmt><![CDATA[Sgurr nan Saighead]]></cmt><desc><![CDATA[Sgurr nan Saighead]]></desc><sym>filled circle</sym></wpt>
<wpt lat="57.18177" lon="-5.324895"><ele>990.00</ele><name><![CDATA[Sgurr nan Spainteach]]></name><cmt><![CDATA[Sgurr nan Spainteach]]></cmt><desc><![CDATA[Sgurr nan Spainteach]]></desc><sym>filled circle</sym></wpt>
<wpt lat="57.205515" lon="-6.226638"><ele>947.90</ele><name><![CDATA[Sgurr Sgumain]]></name><cmt><![CDATA[Sgurr Sgumain]]></cmt><desc><![CDATA[Sgurr Sgumain]]></desc><sym>filled circle</sym></wpt>
<wpt lat="57.206594" lon="-6.222917"><ele>977.10</ele><name><![CDATA[Sgurr Thearlaich]]></name><cmt><![CDATA[Sgurr Thearlaich]]></cmt><desc><![CDATA[Sgurr Thearlaich]]></desc><sym>filled circle</sym></wpt>
<wpt lat="57.222366" lon="-6.240903"><ele>926.00</ele><name><![CDATA[Sgurr Thormaid]]></name><cmt><![CDATA[Sgurr Thormaid]]></cmt><desc><![CDATA[Sgurr Thormaid]]></desc><sym>filled circle</sym></wpt>
<wpt lat="57.160093" lon="-5.437682"><ele>939.00</ele><name><![CDATA[Spidean Dhomhuill Bhric (1891: Sgurr na Creige)]]></name><cmt><![CDATA[Spidean Dhomhuill Bhric (1891: Sgurr na Creige)]]></cmt><desc><![CDATA[Spidean Dhomhuill Bhric (1891: Sgurr na Creige)]]></desc><sym>filled circle</sym></wpt>
<wpt lat="56.955039" lon="-4.553032"><ele>1001.00</ele><name><![CDATA[Sron a' Choire (Sron a' Ghoire)]]></name><cmt><![CDATA[Sron a' Choire (Sron a' Ghoire)]]></cmt><desc><![CDATA[Sron a' Choire (Sron a' Ghoire)]]></desc><sym>filled circle</sym></wpt>
<wpt lat="56.569067" lon="-4.89707"><ele>990.00</ele><name><![CDATA[Sron a' Ghearrain]]></name><cmt><![CDATA[Sron a' Ghearrain]]></cmt><desc><![CDATA[Sron a' Ghearrain]]></desc><sym>filled circle</sym></wpt>
<wpt lat="56.434081" lon="-5.084338"><ele>966.60</ele><name><![CDATA[Sron An Isean]]></name><cmt><![CDATA[Sron An Isean]]></cmt><desc><![CDATA[Sron An Isean]]></desc><sym>filled circle</sym></wpt>
<wpt lat="56.568699" lon="-4.453658"><ele>927.00</ele><name><![CDATA[Sron Chona Choirein]]></name><cmt><![CDATA[Sron Chona Choirein]]></cmt><desc><![CDATA[Sron Chona Choirein]]></desc><sym>filled circle</sym></wpt>
<wpt lat="56.974373" lon="-4.555095"><ele>993.00</ele><name><![CDATA[Sron Coire a' Chriochairein]]></name><cmt><![CDATA[Sron Coire a' Chriochairein]]></cmt><desc><![CDATA[Sron Coire a' Chriochairein]]></desc><sym>filled circle</sym></wpt>
<wpt lat="56.801611" lon="-4.436623"><ele>956.00</ele><name><![CDATA[Sron Coire na h-Iolaire]]></name><cmt><![CDATA[Sron Coire na h-Iolaire]]></cmt><desc><![CDATA[Sron Coire na h-Iolaire]]></desc><sym>filled circle</sym></wpt>
<wpt lat="57.290261" lon="-5.080597"><ele>1131.00</ele><name><![CDATA[Sron Garbh]]></name><cmt><![CDATA[Sron Garbh]]></cmt><desc><![CDATA[Sron Garbh]]></desc><sym>filled circle</sym></wpt>
<wpt lat="57.084913" lon="-3.710545"><ele>1184.00</ele><name><![CDATA[Sron na Lairige]]></name><cmt><![CDATA[Sron na Lairige]]></cmt><desc><![CDATA[Sron na Lairige]]></desc><sym>filled circle</sym></wpt>
<wpt lat="57.060298" lon="-3.650606"><ele>1113.00</ele><name><![CDATA[Sron Riach]]></name><cmt><![CDATA[Sron Riach]]></cmt><desc><![CDATA[Sron Riach]]></desc><sym>filled circle</sym></wpt>
<wpt lat="57.094078" lon="-3.632333"><ele>1014.00</ele><name><![CDATA[Stacan Dubha]]></name><cmt><![CDATA[Stacan Dubha]]></cmt><desc><![CDATA[Stacan Dubha]]></desc><sym>filled circle</sym></wpt>
<wpt lat="56.571503" lon="-4.917431"><ele>941.00</ele><name><![CDATA[Stob a' Bhruaich Leith]]></name><cmt><![CDATA[Stob a' Bhruaich Leith]]></cmt><desc><![CDATA[Stob a' Bhruaich Leith]]></desc><sym>filled circle</sym></wpt>
<wpt lat="57.289903" lon="-5.102463"><ele>1146.50</ele><name><![CDATA[Stob a' Choire Dhomhain (1891: Creag na h-Eige)]]></name><cmt><![CDATA[Stob a' Choire Dhomhain (1891: Creag na h-Eige)]]></cmt><desc><![CDATA[Stob a' Choire Dhomhain (1891: Creag na h-Eige)]]></desc><sym>filled circle</sym></wpt>
<wpt lat="56.821662" lon="-4.858003"><ele>1105.00</ele><name><![CDATA[Stob a' Choire Leith]]></name><cmt><![CDATA[Stob a' Choire Leith]]></cmt><desc><![CDATA[Stob a' Choire Leith]]></desc><sym>filled circle</sym></wpt>
<wpt lat="57.565615" lon="-5.457822"><ele>983.50</ele><name><![CDATA[Stob a' Choire Liath Mhor (Stob a' Coire Liath Mhor) (1933: Bidean Toll a' Mhuic)]]></name><cmt><![CDATA[Stob a' Choire Liath Mhor (Stob a' Coire Liath Mhor) (1933: Bidean Toll a' Mhuic)]]></cmt><desc><![CDATA[Stob a' Choire Liath Mhor (Stob a' Coire Liath Mhor) (1933: Bidean Toll a' Mhuic)]]></desc><sym>filled circle</sym></wpt>
<wpt lat="57.078494" lon="-5.581904"><ele>960.00</ele><name><![CDATA[Stob a' Choire Odhair]]></name><cmt><![CDATA[Stob a' Choire Odhair]]></cmt><desc><![CDATA[Stob a' Choire Odhair]]></desc><sym>filled circle</sym></wpt>
<wpt lat="56.623266" lon="-4.870407"><ele>995.50</ele><name><![CDATA[Stob a' Ghlais Choire]]></name><cmt><![CDATA[Stob a' Ghlais Choire]]></cmt><desc><![CDATA[Stob a' Ghlais Choire]]></desc><sym>filled circle</sym></wpt>
<wpt lat="56.814649" lon="-4.945409"><ele>1070.10</ele><name><![CDATA[Stob an Chul-Choire (Stob an Cul Choire)]]></name><cmt><![CDATA[Stob an Chul-Choire (Stob an Cul Choire)]]></cmt><desc><![CDATA[Stob an Chul-Choire (Stob an Cul Choire)]]></desc><sym>filled circle</sym></wpt>
<wpt lat="56.523501" lon="-5.05033"><ele>918.00</ele><name><![CDATA[Stob an Duine Ruaidh]]></name><cmt><![CDATA[Stob an Duine Ruaidh]]></cmt><desc><![CDATA[Stob an Duine Ruaidh]]></desc><sym>filled circle</sym></wpt>
<wpt lat="56.624761" lon="-5.069017"><ele>968.00</ele><name><![CDATA[Stob an Fhuarain]]></name><cmt><![CDATA[Stob an Fhuarain]]></cmt><desc><![CDATA[Stob an Fhuarain]]></desc><sym>filled circle</sym></wpt>
<wpt lat="57.107031" lon="-3.467592"><ele>1107.00</ele><name><![CDATA[Stob an t-Sluichd]]></name><cmt><![CDATA[Stob an t-Sluichd]]></cmt><desc><![CDATA[Stob an t-Sluichd]]></desc><sym>filled circle</sym></wpt>
<wpt lat="57.791161" lon="-5.250719"><ele>960.00</ele><name><![CDATA[Stob Cadha Gobhlach]]></name><cmt><![CDATA[Stob Cadha Gobhlach]]></cmt><desc><![CDATA[Stob Cadha Gobhlach]]></desc><sym>filled circle</sym></wpt>
<wpt lat="56.749335" lon="-5.00539"><ele>990.00</ele><name><![CDATA[Stob Choire a' Mhail]]></name><cmt><![CDATA[Stob Choire a' Mhail]]></cmt><desc><![CDATA[Stob Choire a' Mhail]]></desc><sym>filled circle</sym></wpt>
<wpt lat="56.794761" lon="-4.946387"><ele>1100.00</ele><name><![CDATA[Stob Choire Bhealach]]></name><cmt><![CDATA[Stob Choire Bhealach]]></cmt><desc><![CDATA[Stob Choire Bhealach]]></desc><sym>filled circle</sym></wpt>
<wpt lat="56.634371" lon="-4.941025"><ele>938.70</ele><name><![CDATA[Stob Coire Altruim]]></name><cmt><![CDATA[Stob Coire Altruim]]></cmt><desc><![CDATA[Stob Coire Altruim]]></desc><sym>filled circle</sym></wpt>
<wpt lat="56.364913" lon="-4.529521"><ele>1068.00</ele><name><![CDATA[Stob Coire an Lochain]]></name><cmt><![CDATA[Stob Coire an Lochain]]></cmt><desc><![CDATA[Stob Coire an Lochain]]></desc><sym>filled circle</sym></wpt>
<wpt lat="57.04659" lon="-3.71137"><ele>1213.00</ele><name><![CDATA[Stob Coire an t-Saighdeir]]></name><cmt><![CDATA[Stob Coire an t-Saighdeir]]></cmt><desc><![CDATA[Stob Coire an t-Saighdeir]]></desc><sym>filled circle</sym></wpt>
<wpt lat="57.106822" lon="-3.65875"><ele>1176.00</ele><name><![CDATA[Stob Coire an t-Sneachda]]></name><cmt><![CDATA[Stob Coire an t-Sneachda]]></cmt><desc><![CDATA[Stob Coire an t-Sneachda]]></desc><sym>filled circle</sym></wpt>
<wpt lat="56.816005" lon="-4.864799"><ele>1079.00</ele><name><![CDATA[Stob Coire Cath na Sine]]></name><cmt><![CDATA[Stob Coire Cath na Sine]]></cmt><desc><![CDATA[Stob Coire Cath na Sine]]></desc><sym>filled circle</sym></wpt>
<wpt lat="56.538705" lon="-5.040652"><ele>1027.70</ele><name><![CDATA[Stob Coire Dheirg]]></name><cmt><![CDATA[Stob Coire Dheirg]]></cmt><desc><![CDATA[Stob Coire Dheirg]]></desc><sym>filled circle</sym></wpt>
<wpt lat="57.288705" lon="-5.091307"><ele>1139.00</ele><name><![CDATA[Stob Coire Dhomhnuill]]></name><cmt><![CDATA[Stob Coire Dhomhnuill]]></cmt><desc><![CDATA[Stob Coire Dhomhnuill]]></desc><sym>filled circle</sym></wpt>
<wpt lat="56.991707" lon="-4.476597"><ele>916.00</ele><name><![CDATA[Stob Coire Dubh]]></name><cmt><![CDATA[Stob Coire Dubh]]></cmt><desc><![CDATA[Stob Coire Dubh]]></desc><sym>filled circle</sym></wpt>
<wpt lat="56.812523" lon="-4.893359"><ele>1080.00</ele><name><![CDATA[Stob Coire Easain]]></name><cmt><![CDATA[Stob Coire Easain]]></cmt><desc><![CDATA[Stob Coire Easain]]></desc><sym>filled circle</sym></wpt>
<wpt lat="57.0854" lon="-3.610747"><ele>1082.00</ele><name><![CDATA[Stob Coire Etchachan]]></name><cmt><![CDATA[Stob Coire Etchachan]]></cmt><desc><![CDATA[Stob Coire Etchachan]]></desc><sym>filled circle</sym></wpt>
<wpt lat="56.681364" lon="-5.022784"><ele>939.40</ele><name><![CDATA[Stob Coire Leith]]></name><cmt><![CDATA[Stob Coire Leith]]></cmt><desc><![CDATA[Stob Coire Leith]]></desc><sym>filled circle</sym></wpt>
<wpt lat="57.296263" lon="-5.12299"><ele>916.90</ele><name><![CDATA[Stob Coire Lochan]]></name><cmt><![CDATA[Stob Coire Lochan]]></cmt><desc><![CDATA[Stob Coire Lochan]]></desc><sym>filled circle</sym></wpt>
<wpt lat="56.830392" lon="-4.840552"><ele>1123.00</ele><name><![CDATA[Stob Coire na Ceannain]]></name><cmt><![CDATA[Stob Coire na Ceannain]]></cmt><desc><![CDATA[Stob Coire na Ceannain]]></desc><sym>filled circle</sym></wpt>
<wpt lat="57.254559" lon="-5.192515"><ele>915.00</ele><name><![CDATA[Stob Coire na Cloiche]]></name><cmt><![CDATA[Stob Coire na Cloiche]]></cmt><desc><![CDATA[Stob Coire na Cloiche]]></desc><sym>filled circle</sym></wpt>
<wpt lat="57.19769" lon="-5.160808"><ele>1008.00</ele><name><![CDATA[Stob Coire na Craileig (Stob Coire na Cralaig) (Mullach Fraoch-choire S Top)]]></name><cmt><![CDATA[Stob Coire na Craileig (Stob Coire na Cralaig) (Mullach Fraoch-choire S Top)]]></cmt><desc><![CDATA[Stob Coire na Craileig (Stob Coire na Cralaig) (Mullach Fraoch-choire S Top)]]></desc><sym>filled circle</sym></wpt>
<wpt lat="56.84023" lon="-4.852564"><ele>958.00</ele><name><![CDATA[Stob Coire na Gaibhre (Stob Coire Gaibhre)]]></name><cmt><![CDATA[Stob Coire na Gaibhre (Stob Coire Gaibhre)]]></cmt><desc><![CDATA[Stob Coire na Gaibhre (Stob Coire Gaibhre)]]></desc><sym>filled circle</sym></wpt>
<wpt lat="56.646082" lon="-5.036829"><ele>1106.80</ele><name><![CDATA[Stob Coire nam Beith]]></name><cmt><![CDATA[Stob Coire nam Beith]]></cmt><desc><![CDATA[Stob Coire nam Beith]]></desc><sym>filled circle</sym></wpt>
<wpt lat="56.648848" lon="-5.021795"><ele>1115.50</ele><name><![CDATA[Stob Coire nan Lochan]]></name><cmt><![CDATA[Stob Coire nan Lochan]]></cmt><desc><![CDATA[Stob Coire nan Lochan]]></desc><sym>filled circle</sym></wpt>
<wpt lat="56.82737" lon="-4.690243"><ele>958.00</ele><name><![CDATA[Stob Coire Sgriodain South Top]]></name><cmt><![CDATA[Stob Coire Sgriodain South Top]]></cmt><desc><![CDATA[Stob Coire Sgriodain South Top]]></desc><sym>filled circle</sym></wpt>
<wpt lat="56.428992" lon="-5.143789"><ele>1103.10</ele><name><![CDATA[Stob Dearg (Taynuilt Peak)]]></name><cmt><![CDATA[Stob Dearg (Taynuilt Peak)]]></cmt><desc><![CDATA[Stob Dearg (Taynuilt Peak)]]></desc><sym>filled circle</sym></wpt>
<wpt lat="56.425894" lon="-5.089645"><ele>981.70</ele><name><![CDATA[Stob Garbh - Stob Daimh]]></name><cmt><![CDATA[Stob Garbh]]></cmt><desc><![CDATA[Stob Garbh - Stob Daimh]]></desc><sym>filled circle</sym></wpt>
<wpt lat="56.364811" lon="-4.573721"><ele>957.70</ele><name><![CDATA[Stob Garbh - Cruach Ardrain]]></name><cmt><![CDATA[Stob Garbh]]></cmt><desc><![CDATA[Stob Garbh - Cruach Ardrain]]></desc><sym>filled circle</sym></wpt>
<wpt lat="56.636834" lon="-4.924237"><ele>1010.40</ele><name><![CDATA[Stob na Doire]]></name><cmt><![CDATA[Stob na Doire]]></cmt><desc><![CDATA[Stob na Doire]]></desc><sym>filled circle</sym></wpt>
<wpt lat="56.48104" lon="-4.620586"><ele>956.00</ele><name><![CDATA[Stob nan Clach]]></name><cmt><![CDATA[Stob nan Clach]]></cmt><desc><![CDATA[Stob nan Clach]]></desc><sym>filled circle</sym></wpt>
<wpt lat="57.56707" lon="-5.442418"><ele>915.40</ele><name><![CDATA[Stuc a' Choire Dhuibh Bhig]]></name><cmt><![CDATA[Stuc a' Choire Dhuibh Bhig]]></cmt><desc><![CDATA[Stuc a' Choire Dhuibh Bhig]]></desc><sym>filled circle</sym></wpt>
<wpt lat="57.262675" lon="-5.229133"><ele>1075.00</ele><name><![CDATA[Stuc Bheag]]></name><cmt><![CDATA[Stuc Bheag]]></cmt><desc><![CDATA[Stuc Bheag]]></desc><sym>filled circle</sym></wpt>
<wpt lat="57.27677" lon="-5.232609"><ele>918.00</ele><name><![CDATA[Stuc Fraoch Choire]]></name><cmt><![CDATA[Stuc Fraoch Choire]]></cmt><desc><![CDATA[Stuc Fraoch Choire]]></desc><sym>filled circle</sym></wpt>
<wpt lat="57.267593" lon="-5.229415"><ele>1041.00</ele><name><![CDATA[Stuc Mor]]></name><cmt><![CDATA[Stuc Mor]]></cmt><desc><![CDATA[Stuc Mor]]></desc><sym>filled circle</sym></wpt>
<wpt lat="57.202411" lon="-5.079763"><ele>929.00</ele><name><![CDATA[Tigh Mor na Seilge (NNE Top)]]></name><cmt><![CDATA[Tigh Mor na Seilge (NNE Top)]]></cmt><desc><![CDATA[Tigh Mor na Seilge (NNE Top)]]></desc><sym>filled circle</sym></wpt>
<wpt lat="57.30197" lon="-5.026728"><ele>951.00</ele><name><![CDATA[Toll Creagach West Top]]></name><cmt><![CDATA[Toll Creagach West Top]]></cmt><desc><![CDATA[Toll Creagach West Top]]></desc><sym>filled circle</sym></wpt>
<wpt lat="57.298901" lon="-5.059568"><ele>1032.00</ele><name><![CDATA[Tom a' Choinich Beag]]></name><cmt><![CDATA[Tom a' Choinich Beag]]></cmt><desc><![CDATA[Tom a' Choinich Beag]]></desc><sym>filled circle</sym></wpt>
<wpt lat="57.693759" lon="-4.579281"><ele>954.00</ele><name><![CDATA[Tom a' Choinnich]]></name><cmt><![CDATA[Tom a' Choinnich]]></cmt><desc><![CDATA[Tom a' Choinnich]]></desc><sym>filled circle</sym></wpt>
<wpt lat="57.035936" lon="-3.778895"><ele>918.00</ele><name><![CDATA[Tom Dubh]]></name><cmt><![CDATA[Tom Dubh]]></cmt><desc><![CDATA[Tom Dubh]]></desc><sym>filled circle</sym></wpt>
<wpt lat="56.827443" lon="-4.93879"><ele>918.70</ele><name><![CDATA[Tom na Sroine]]></name><cmt><![CDATA[Tom na Sroine]]></cmt><desc><![CDATA[Tom na Sroine]]></desc><sym>filled circle</sym></wpt>
<wpt lat="57.694013" lon="-5.107684"><ele>935.00</ele><name><![CDATA[Toman Coinnich (Toman Coinich)]]></name><cmt><![CDATA[Toman Coinnich (Toman Coinich)]]></cmt><desc><![CDATA[Toman Coinnich (Toman Coinich)]]></desc><sym>filled circle</sym></wpt>
<wpt lat="56.939632" lon="-3.255421"><ele>1049.20</ele><name><![CDATA[Top of Eagle's Rock]]></name><cmt><![CDATA[Top of Eagle's Rock]]></cmt><desc><![CDATA[Top of Eagle's Rock]]></desc><sym>filled circle</sym></wpt>
<wpt lat="57.116155" lon="-3.399597"><ele>1023.00</ele><name><![CDATA[West Meur Gorm Craig]]></name><cmt><![CDATA[West Meur Gorm Craig]]></cmt><desc><![CDATA[West Meur Gorm Craig]]></desc><sym>filled circle</sym></wpt>
</gpx>
